Name,Street,City,State,ZIP,ACTState,
"A.M. ""MAC"" STRINGFELLOW UNIT",1200 FM 655,Rosharon,TEXAS,77583,TEXAS,
"ABODE TREATMENT, INC.",701 South Cherry Lane,White Settlement,TEXAS,76108,TEXAS,
"ABODE TREATMENT, INC.",723 South Peak Street,Dallas,TEXAS,75223,TEXAS,
"ABUNDANCE LIVING, INC.",8512 1/2 Wheatley Street,Houston,TEXAS,77088,TEXAS,
ACTON CONSERVATION CAMP,8800 SOLEDAD CANYON RD,Action,CALIFORNIA,93510,CALIFORNIA,
ADAMS COUNTY CORRECTIONAL  CENTER CI,20 HOBO FORK ROAD,NATCHEZ,MISSISSIPPI,39120,MISSISSIPPI,
ADAPPT TREATMENT SERVICES (218),417-419 WALNUT STREET,READING,PENNSYLVANIA,19601,PENNSYLVANIA,
ADIRONDACK CORRECTIONAL FACILITY,196 RAY BROOK ROAD,RAYBROOK,NEW YORK,12977,NEW YORK,
ADULT DIAGNOSTIC & TREATMENT CENTER,8 PRODUCTION WAY,Avenel,NEW JERSEY,7001,NEW JERSEY,
ADVANTAGE TREATMENT CENTER,22101 HWY 61,STERLING,COLORADO,80751,COLORADO,
AIRWAY HEIGHTS CORRECTIONAL CENTER,11919 W. SPRAGUE AVE,Airway Heights,WASHINGTON,99001,WASHINGTON,
ALBANY TRANSITIONAL CENTER,304 NORTH WASHINGTON STREET,ALBANY,GEORGIA,31701,GEORGIA,
ALBEMARLE CORRECTIONAL INSTITUTION,44150 AIRPORT ROAD,NEW LONDON,NORTH CAROLINA,28127,NORTH CAROLINA,
ALBERT WAGNER YOUTH CORRECTIONAL FACILITY,PO Box 500,Bordentown,NEW JERSEY,8505,NEW JERSEY,
ALBION CORRECTIONAL FACILITY,3595 State School Road,Albion,NEW YORK,14411,NEW YORK,
ALCORN COUNTY COMMUNITY WORK CENTER,2407 NORMAN ROAD,Corinth,MISSISSIPPI,38834,MISSISSIPPI,
ALCORN COUNTY REGIONAL CORRECTIONAL  FACILITY,2839 SOUTH HARPER ROAD,CORINTH,MISSISSIPPI,38834,MISSISSIPPI,
ALDER CONSERVATION CAMP,1400 ALDER CAMP RD,KLAMATH,CALIFORNIA,95548,CALIFORNIA,
Alderson FPC,GLEN RAY RD. BOX A,ALDERSON,WEST VIRGINIA,24910,WEST VIRGINIA,
ALEX CITY Community Based Facility,Highway 22 W,Alex City,ALABAMA,35011,ALABAMA,
ALEXANDER CORRECTIONAL INSTITUTION,633 OLD LANDFILL RD.,TAYLORSVILLE,NORTH CAROLINA,28681,NORTH CAROLINA,
ALFRED D. HUGHES UNIT,3201 FM 929,Gatesville,TEXAS,76597,TEXAS,
ALGER CORRECTIONAL FACILITY,N6141 INDUSTRIAL PARK DRIVE,MUNISING,MICHIGAN,49862,MICHIGAN,
ALGOA CORRECTION CENTER,8501 No More Victims Road,Jefferson City,MISSOURI,65101,MISSOURI,
ALLAN B. POLUNSKY UNIT,3872 FM 350 S,Livingston,TEXAS,77351,TEXAS,
ALLE- KISKI PAVILION (315),1704 FOURTH AVENUE,ARNOLD,PENNSYLVANIA,15068,PENNSYLVANIA,
ALLEN CORRECTIONAL CENTER - GEO Group,3751 LAUDERDALE WOODYARD ROAD,KINDER,LOUISIANA,70648,LOUISIANA,
ALLEN CORRECTIONAL INSTITUTION,2338 N W ST,LIMA,OHIO,45801,OHIO,
ALLENDALE CORRECTIONAL INSTITUTION,1057 REVOLUTIONARY TRAIL,FAIRFAX,SOUTH CAROLINA,29827,SOUTH CAROLINA,
ALLENTOWN CENTER (202),608-610 HAMILTON MALL,ALLENTOWN,PENNSYLVANIA,18101,PENNSYLVANIA,
ALLENWOOD LOW FCI,"RT 15,2 MILES N OF ALLENWOOD",WHITE DEER,FEDERAL,17887,PENNSYLVANIA,
ALLENWOOD MED FCI,"RT 15, 2 MI N OF ALLENWOOD",WHITE DEER,FEDERAL,17810,PENNSYLVANIA,
ALLENWOOD USP,"RT 15,2 MILES N OF ALLENWOOD",ALLENWOOD,FEDERAL,17810,PENNSYLVANIA,
Alpha House,2300 E. Division Street,Springfield,MISSOURI,65803,MISSOURI,
ALTERNATIVE PROGRAM,203 W SUNNY LANE ROAD,JANESVILLE,WISCONSIN,53546,WISCONSIN,
ALTERNATIVES INC. - ALPHA HOUSE,3109 1ST AVENUE N,BILLINGS,MONTANA,59103,MONTANA,
ALTONA CORRECTIONAL FACILITY,555 DEVILS  DEN ROAD,ALTONA,NEW YORK,12910,NEW YORK,
ALTUS WORK CENTER,301 W BROADWAY,ALTUS,OKLAHOMA,73521,OKLAHOMA,
ALVIS HOUSE COPE CENTER DAYTON,42 Arnold Place,Dayton,OHIO,45402,OHIO,
ALVIS HOUSE OHIO LINK - TOLEDO,2012 Madison Ave,Toledo,OHIO,43604,OHIO,
AMARILLO TRANSITIONAL TREATMENT CENTER,9300 SE Third Avenue,Amarillo,TEXAS,79118,TEXAS,
ANAMOSA STATE PENITENTIARY,406 N HIGH STREET,ANAMOSA,IOWA,52205,IOWA,
ANCHORAGE CORRECTIONAL COMPLEX EAST,1400 EAST 4TH AVENUE,ANCHORAGE,ALASKA,99501,ALASKA,
ANCHORAGE CORRECTIONAL COMPLEX/WEST,1300 EAST 4TH AVENUE,ANCHORAGE,ALASKA,99501,ALASKA,
ANTELOPE CONSERVATION CAMP,711-045 CENTER-ROAD,SUSANVILLE,CALIFORNIA,96130,CALIFORNIA,
Anthanum Work Release,2009 S 64th Street,Yakima,WASHINGTON,98903,WASHINGTON,
ANTHONY CORRECTIONAL CENTER,313 ANTHONY CENTER DRIVE,WHITE SULPHUR SPRINGS,WEST VIRGINIA,24986,WEST VIRGINIA,
ANTHONY P TRAVISONO INTAKE SERVICE CENTER,Slate Hill Rd,CRANSTON,RHODE ISLAND,2920,RHODE ISLAND,
ANVIL MOUNTAIN CORRECTIONAL CENTER,1810 CENTER CREEK ROAD,NOME,ALASKA,99762,ALASKA,
APALACHEE CORRECTIONAL INSTITUTION EAST,35 APALACHEE DRIVE,SNEADS,FLORIDA,32460,FLORIDA,
APALACHEE WEST UNIT,52 W UNIT DRIVE,SNEADS,FLORIDA,32460,FLORIDA,
APPALACHIAN DETENTION CENTER,924 CLIFTON ROAD,HONAKER,VIRGINIA,24260,VIRGINIA,
APPLING  Integrated- Treatment Center,252 WEST PARK DRIVE,BAXLEY,GEORGIA,31513,GEORGIA,
ARAPAHOE COMMUNITY TREATMENT CENTER,3265 WEST GIRARD AVENUE,ENGLEWOOD,COLORADO,80110,COLORADO,
ARAPAHOE COUNTY RESIDENTIAL CENTER,2135 WEST CHENANGO AVENUE,LITTLETON,COLORADO,80120,COLORADO,
ARC FOND DU LAC,"27 E. 3RD ST., #208",FOND DU LAC,WISCONSIN,54935,WISCONSIN,
ARC HOUSE,202 N. PATERSON STREET,MADISON,WISCONSIN,53703,WISCONSIN,
ARC HOUSE/DAYTON FACILITY,2009 E DAYTON STREET,MADISON,WISCONSIN,53704,WISCONSIN,
ARC MATERNAL & INFANT PROGRAM,4202 MONONA DR,MADISON,WISCONSIN,53716,WISCONSIN,
ARCADIA ROAD PRISON,2961 NW COUNTY ROAD #661,ARCADIA,FLORIDA,34266,FLORIDA,
ARDMORE COMMUNITY WORK CENTER,316 GRUMMAN,ARDMORE,OKLAHOMA,73401,OKLAHOMA,
ARKANSAS VALLEY CORRECTIONAL FACILITY,12750 HIGHWAY 96,CROWLEY,COLORADO,81034,COLORADO,
ARRENDALE PROBATION SUBSTANCE ABUSE CENTER,2023 GAINESVILLE HIGHWAY SOUTH,ALTO,GEORGIA,30510,GEORGIA,
ARROWHEAD CORRECTIONAL CENTER,E US HIGHWAY 50 & EVANS BOULEVARD,CANON CITY,COLORADO,81212,COLORADO,
ASHLAND - CAMP,ST. ROUTE 716,ASHLAND,KENTUCKY,41105,KENTUCKY,
ASHLAND FCI,ST. ROUTE 716,ASHLAND,KENTUCKY,41105,KENTUCKY,
ASP - CENTRAL ARIZONA CORRECTIONAL FACILITY,1401 E. DIVERSION DAM RD,FLORENCE,ARIZONA,85132,ARIZONA,
ASP-FLORENCE WEST,915 EAST DIVERSION DAM ROAD,FLORENCE,ARIZONA,85132,ARIZONA,
ASP-KINGMAN CERBAT UNIT,4626 W. ENGLISH DRIVE,GOLDEN VALLEY,ARIZONA,86414,ARIZONA,
ASP-KINGMAN HUALAPAI UNIT,4626 W. ENGLISH DRIVE,GOLDEN VALLEY,ARIZONA,86414,ARIZONA,
ASP-PHOENIX WEST,3402 WEST COCOPAH,PHOENIX,ARIZONA,85009,ARIZONA,
ASPC - LEWIS,26700 SOUTH HIGHWAY 85,BUCKEYE,ARIZONA,85326,ARIZONA,
ASPC - PERRYVILLE,2014 N. CITRUS ROAD,GOODYEAR,ARIZONA,85395,ARIZONA,
ASPC-DOUGLAS,6911 NORTH BDI BOULEVARD,DOUGLAS,ARIZONA,85607,ARIZONA,
ASPC-DOUGLAS PAPAGO UNIT,25 EAST 16TH STREET,DOUGLAS,ARIZONA,85607,ARIZONA,
ASPC-EYMAN,4374 EAST BUTTE AVENUE,FLORENCE,ARIZONA,85132,ARIZONA,
ASPC-FLORENCE,1305 EAST BUTTE AVENUE,FLORENCE,ARIZONA,85132,ARIZONA,
ASPC-FLORENCE GLOBE,1000 FAIRGROUNDS ROAD,GLOBE,ARIZONA,85501,ARIZONA,
ASPC-FLORENCE PICACHO UNIT,25230 PICACHO BLVD,PICACHO,ARIZONA,85241,ARIZONA,
ASPC-PHOENIX,2500 E. VAN BUREN STREET,PHOENIX,ARIZONA,85008,ARIZONA,
ASPC-SAFFORD,896 SOUTH COOK ROAD,SAFFORD,ARIZONA,85546,ARIZONA,
ASPC-SAFFORD FORT GRANT,15500 S. FORT GRANT ROAD,SAFFORD,ARIZONA,85643,ARIZONA,
ASPC-TUCSON,10000 SOUTH WILMOT,TUCSON,ARIZONA,85734,ARIZONA,
ASPC-TUCSON SOUTHERN ARIZONA CORRECTIONAL RELEASE CENTER(SACRC),1275 W. STAR PASS BLVD.,TUCSON,ARIZONA,85734,ARIZONA,
ASPC-WINSLOW,2100 SOUTH HWY 87,WINSLOW,ARIZONA,86047,ARIZONA,
ASPC-WINSLOW APACHE UNIT,38322 US HWY 180,ST. JOHNS,ARIZONA,85936,ARIZONA,
ASPC-YUMA,7125 EAST JUAN SANCHEZ BLVD,SAN LUIS,ARIZONA,85349,ARIZONA,
ATHENS-CLARK COUNTY CORRECTIONAL INSTITUTION,2825 COUNTY FARM ROAD,ATHENS,GEORGIA,30605,GEORGIA,
ATKINS HOUSE (206),307 EAST KING STREET,YORK,PENNSYLVANIA,17403,PENNSYLVANIA,
ATLANTA - CAMP,601 MCDONOUGH BLVD SE,ATLANTA,GEORGIA,30315,GEORGIA,
ATLANTA TRANSITIONAL CENTER,"322 PONCE DE LEON AVENUE, NE",ATLANTA,GEORGIA,30308,GEORGIA,
ATLANTA USP,601 MCDONOUGH BLVD SE,ATLANTA,GEORGIA,30315,GEORGIA,
ATLANTIC WORK RELEASE CENTER,263 FAIRGROUNDS ROAD,WEST PALM BEACH,FLORIDA,33411,FLORIDA,
ATMORE COMMUNITY WORK CENTER,9947 Highway 21 North,Atmore,ALABAMA,36503,ALABAMA,
ATTICA CORRECTIONAL FACILITY,639 Exchange Street,Attica,NEW YORK,14011,NEW YORK,
ATWATER - CAMP,1 FEDERAL WAY,ATWATER,CALIFORNIA,95301,CALIFORNIA,
Atwater USP,1 FEDERAL WAY,ATWATER,CALIFORNIA,95301,CALIFORNIA,
AUBURN CORRECTIONAL FACILITY,135 State Street,Auburn,NEW YORK,13024,NEW YORK,
AUGUSTA CORRECTIONAL FACILITY,1821 ESTALINE VALLEY ROAD,CRAIGSVILLE,VIRGINIA,24430,VIRGINIA,
AUGUSTA STATE MEDICAL PRISON,3001 GORDON HIGHWAY,GROVETOWN,GEORGIA,30813,GEORGIA,
AUGUSTA TRANSITIONAL CENTER,601 TAYLOR STREET,AUGUSTA,GEORGIA,30901,GEORGIA,
AUSTIN TRANSITIONAL CENTER,3154 East Hwy 71,Del Valle,TEXAS,78617,TEXAS,
AUTRY STATE PRISON,3178 MT ZION CHURCH ROAD,PELHAM,GEORGIA,31779,GEORGIA,
AVALON CORRECTIONAL CENTER,302 W ARCHER STREET,TULSA,OKLAHOMA,74103,OKLAHOMA,
AVENAL STATE PRISON,1 KINGS WAY,AVENAL,CALIFORNIA,93204,CALIFORNIA,
Avenue J Volunteers of America,2710 AVENUE J,Ft. Worth,TEXAS,76105,TEXAS,
AVERY/MITCHELL CORRECTIONAL INSTITUTION,600 AMITY PARK ROAD,SPRUCE PINE,NORTH CAROLINA,28777,NORTH CAROLINA,
AVON PARK CORRECTIONAL INST WORK CAMP,CR 64 EAST,AVON PARK,FLORIDA,33826,FLORIDA,
AVON PARK CORRECTIONAL INSTITUTION,CR 64 EAST,AVON PARK,FLORIDA,33826,FLORIDA,
AVOYELLES CORRECTIONAL CENTER,1630 PRISON ROAD,COTTONPORT,LOUISIANA,71327,LOUISIANA,
AVOYELLES SIMMESORT CORRECTIONAL CENTER,819 MARTIN LUTHER KING DRIVE,SIMMSPORT,LOUISIANA,71369,LOUISIANA,
B. B. RAYBURN CORRECTIONAL CENTER,27268 HIGHWAY 21,ANGIE,LOUISIANA,70426,LOUISIANA,
BACON PROBATION DENTENTION CENTER,165 EAST EASTSIDE INDUSTRIAL BOULEVARD,ALMA,GEORGIA,31510,GEORGIA,
BAINBRIDGE PROBATION SUBSTANCE ABUSE CENTER,235 STATE HOSPITAL ROAD,BAINBRIDGE,GEORGIA,39817,GEORGIA,
BAKER CORRECTIONAL INSTITUTION,20706 US HWY 90 WEST,SANDERSON,FLORIDA,32087,FLORIDA,
BAKER CORRECTIONAL INSTITUTION WORK CAMP,U.S. 90,SANDERSON,FLORIDA,32087,FLORIDA,
BALDWIN STATE PRISON,Laying Farm Road,Hardwick,GEORGIA,31034,GEORGIA,
BALLINGTON HOUSE (VOA/N),421 WESTMINSTER AVENUE,Elizabeth,NEW JERSEY,7208,NEW JERSEY,
BALTIMORE CITY CORRECTIONAL CENTER,901 GREENMOUNT AVENUE,BALTIMORE,MARYLAND,21202,MARYLAND,
BALTIMORE PRE-RELEASE UNIT,926 GREENMOUNT AVENUE,BALTIMORE,MARYLAND,21202,MARYLAND,
BANNUM PLACE OF CLARKSBURG,260 MONTICELLO ROAD,Clarksburg,WEST VIRGINIA,26301,WEST VIRGINIA,
BANNUM PLACE OF FAYETTEVILLE,952 BRAGG BLVD,FAYETTEVILLE,NORTH CAROLINA,28301,NORTH CAROLINA,
Bannum Place of Jackson,1031 Wholesale Row,Jackson,MISSISSIPPI,39201,MISSISSIPPI,
Bannum Place of Wilimington,716 Princess St,Wilmington,NORTH CAROLINA,28401,NORTH CAROLINA,
BARAGA CORRECTIONAL FACILITY,13924 WADAGA ROAD,BARAGA,MICHIGAN,49908,MICHIGAN,
BARE HILL CORRECTIONAL FACILITY,181 BRAND ROAD,MALONE,NEW YORK,12953,NEW YORK,
BARRY B. TELFORD UNIT,3899 State Hwy 98,New Boston,TEXAS,75570,TEXAS,
BARTLETT STATE JAIL,1018 ARNOLD DRIVE,Bartlett,TEXAS,76511,TEXAS,
BARTOW WORK RELEASE CENTER,550 N. RESTWOOD AVE.,BARTOW,FLORIDA,33830,FLORIDA,
BASELINE CONSERVATION CAMP,16809 PEORIA FLAT ROAD,JAMESTOWN,CALIFORNIA,95327,CALIFORNIA,
BASKERVILLE CORRECTIONAL CENTER,4150 HAYES MILL ROAD,BAKERSVILLE,VIRGINIA,23915,VIRGINIA,
BASTROP FCI,1341 HIGHWAY 95 NORTH,BASTROP,TEXAS,78602,TEXAS,
BASTROP-CAMP,1341 HIGHWAY 95 NORTH,BASTROP,TEXAS,78602,TEXAS,
BATEN INTERMEDIATE SANCTION FACILITY,1995 HELTON ROAD,Pampa,TEXAS,79065,TEXAS,
BAUTISTA CONSERVATION CAMP,33015 BAUTISTA CANYON ROAD,HEMET,CALIFORNIA,92544,CALIFORNIA,
BAY AREA RECOVERY CENTER,2523 44th Street,Dickinson,TEXAS,77539,TEXAS,
BAY CITY WORK CAMP,HIGHWAY 98,APALACHICOLA,FLORIDA,32320,FLORIDA,
BAY CORRECTIONAL INSTITUTION-CCA,5400 BAYLINE DR,PANAMA CITY,FLORIDA,32404,FLORIDA,
BAY STATE CORRECTIONAL CENTER,28 CLARK STREET,NORFOLK,MASSACHUSETTS,2324,MASSACHUSETTS,
BAYSIDE STATE PRISON,4293 Route 47,Leesburg,NEW JERSEY,8327,NEW JERSEY,
BAYSIDE STATE PRISON ANCORA UNIT,202 SPRING ROAD,HAMMONTON,NEW JERSEY,8037,NEW JERSEY,
BAYSIDE STATE PRISON MINIMUM UNIT,P. O. BOX F2,LEESBURG,NEW JERSEY,8327,NEW JERSEY,
BAYVIEW CORRECTIONAL FACILITY,550 West 20th Street,New York,NEW YORK,10011,NEW YORK,
BEACON CORRECTIONAL FACILITY,50 CAMP BEACON ROAD,BEACON,NEW YORK,12508,NEW YORK,
BEAUFORD H. JESTER I SUBSTANCE ABUSE FELONY PUNISHMENT FACILITY,1 JESTER ROAD,Richmond,TEXAS,77406,TEXAS,
BEAUFORD H. JESTER III UNIT,3 JESTER ROAD,Richmond,TEXAS,77406,TEXAS,
BEAUFORD H. JESTER IV UNIT,4 JESTER ROAD,Richmond,TEXAS,77406,TEXAS,
BEAUMONT CENTER,2495 Gulf Street,Beaumont,FEDERAL,77703,TEXAS,
BEAUMONT LOW FCI,5560 KNAUTH RD,BEAMONT,FEDERAL,77705,TEXAS,
BEAUMONT MED FCI,5830 KNAUTH RD,BEAUMONT,FEDERAL,77705,TEXAS,
BEAUMONT USP,6200 KNAUTH RD,BEAUMONT,FEDERAL,77705,TEXAS,
BEAUMONT USP-CAMP,6200 KNAUTH RD,BEAUMONT,FEDERAL,77705,TEXAS,
BEAVER  WORK CENTER,215 AVENUE E.,BEAVER,OKLAHOMA,73932,OKLAHOMA,
BECKLEY CORRECTIONAL CENTER,111 S. EISENHOWER DRIVE,BECKLEY,WEST VIRGINIA,25801,WEST VIRGINIA,
BECKLEY FCI,1600 INDUSTRIAL ROAD,BEAVER,WEST VIRGINIA,25813,WEST VIRGINIA,
BECKLEY-CAMP,1600 INDUSTRIAL ROAD,BEAVER,WEST VIRGINIA,25813,WEST VIRGINIA,
BEDFORD HILLS CORRECTIONAL FACILITY,247 Harris Road,Bedford Hills,NEW YORK,10507,NEW YORK,
Behavioral Systems Southwest,950 East Diversion Dam Road,Florence,ARIZONA,85232,ARIZONA,
"BEHAVIORAL SYSTEMS SOUTHWEST, INC. - TUCSON RRC",6420 SOUTH PARK AVENUE,TUCSON,ARIZONA,85706,ARIZONA,
BEJE CLARK RESIDENTIAL CENTER,818 15TH STREET SW,MASON CITY,IOWA,50402,IOWA,
BELL COUNTY  FORESTRY CAMP,560 CORRECTIONAL DRIVE,PINEVILLE,KENTUCKY,40977,KENTUCKY,
BELLAMY CREEK CORRECTIONAL FACILITY,1727 WEST BLUEWATER HIGHWAY,IONIA,MICHIGAN,48846,MICHIGAN,
BELLINGHAM WORK RELEASE,1127 N Garden,Bellingham,WASHINGTON,98225,WASHINGTON,
BELMONT CORRECTIONAL INSTITUTION,68518 BANNOCK ROAD,ST CLAIRSVILLE,OHIO,43950,OHIO,
BEN LOMON CONSERVATION CAMP,13575 EMPIRE GRADE ROAD,SANTA CRUZ,CALIFORNIA,95060,CALIFORNIA,
BENNETTSVILLE FCI,696 MUCKERMAN ROAD,FEDERAL,SOUTH CAROLINA,29512,SOUTH CAROLINA,
BENNETTSVILLE-CAMP,696 MUCKERMAN ROAD,FEDERAL,SOUTH CAROLINA,29512,SOUTH CAROLINA,
BENT COUNTY CORRECTIONAL FACILITY-CCA,11560 COUNTY ROAD FF 75,LAS ANIMAS,COLORADO,81054,COLORADO,
BENTON UNIT,6701 HIGHWAY 67,BENTON,ARKANSAS,72015,ARKANSAS,
BERKS CO. RE-ENTRY (297),1287 COUNTY WELFARE RD,LEESPORT,PENNSYLVANIA,19533,PENNSYLVANIA,
BERMAN TREATMENT CENTER,1095 BLUE HILLS AVEUNE,HARTFORD,CONNECTICUT,6002,CONNECTICUT,
BERRYDALE FORESTRY CAMP,6920 HWY 4,JAY,FLORIDA,32565,FLORIDA,
BERTIE CORRECTIONAL INSTITUTION,218 COOPER HILL RD.,WINDSOR,NORTH CAROLINA,27983,NORTH CAROLINA,
BETHEL WORK RELEASE PROGRAM,23 MESABA AVENUE,DULUTH,MINNESOTA,55806,MINNESOTA,
BIBB CORRECTIONAL FACILITY,565 BIBB LANE,BRENT,ALABAMA,35034,ALABAMA,
BIG MUDDY RIVER CORRECTIONAL CENTER,251 N ILLINOIS HWY 37,INA,ILLINOIS,62846,ILLINOIS,
BIG PINE KEY ROAD PRISON,P.O. BOX 430509,BIG PINE KEY,FLORIDA,33043,FLORIDA,
BIG SANDY - CAMP,1197 AIRPORT ROAD,INEZ,KENTUCKY,41224,KENTUCKY,
BIG SANDY USP,1197 AIRPORT ROAD,INEZ,KENTUCKY,41224,KENTUCKY,
BIG SPRING CI,1701 APRON DRIVE,BIG SPRING,TEXAS,79720,TEXAS,
BIG SPRING FCI,1900 SIMLER AVENUE,BIG SPRING,TEXAS,79720,TEXAS,
BIG SPRING-CAMP,1900 SIMLER AVE,BIG SPRING,TEXAS,79720,TEXAS,
BILLY MOORE CORRECTIONAL CENTER,8500 NORTH FM 3053,Overton,TEXAS,75684,TEXAS,
BIRMINGHAM CCC,1609 7th Street North,BIRMINGHAM,ALABAMA,35204,ALABAMA,
BIRMINGHAM Community Based Facility,1216 North 25th Street,Birmingham,ALABAMA,35234,ALABAMA,
BISHOP HOUSE,31 BISHOP STREET,WATERBURY,CONNECTICUT,6704,CONNECTICUT,
BISHOP LEWIS WORK RELEASE,703 8th Ave,Seattle,WASHINGTON,98104,WASHINGTON,
BISMARCK TRANSITION CENTER,2001 LEE AVE,BISMARCK,NORTH DAKOTA,58504,NORTH DAKOTA,
BLACK RIVER CORRECTIONAL CENTER,W6898 E. Staffon Rd,Black River Falls,WISCONSIN,54615,WISCONSIN,
BLACKBURN CORRECTIONAL COMPLEX,3111 SPURR ROAD,LEXINGTON,KENTUCKY,40511,KENTUCKY,
BLACKWATER RIVER CORRECTIONAL FACILITY,5914 JEFF ATES ROAD,MILTON,FLORIDA,32583,FLORIDA,
BLADEN CORRECTIONAL CENTER,5853 US 701 N,ELIZABETHTOWN,NORTH CAROLINA,28337,NORTH CAROLINA,
BLAND CORRECTIONAL CENTER,256 BLAND FARM ROAD,BLAND,VIRGINIA,24315,VIRGINIA,
BLECKLEY PROBATION DENTENTION CENTER,179 JAC ARTS ROAD,COCHRAN,GEORGIA,31014,GEORGIA,
BO ROBINSON EDUCATION & TRAINING CENTER,377 ENTERPRISE WAY,Trenton,NEW JERSEY,8638,NEW JERSEY,
BOBBY WHITWORTH PAROLE CENTER,414 VALLEY HART ROAD,HARTWELL,GEORGIA,30643,GEORGIA,
BOLDUC CORRECTIONAL FACILITY,516 CUSHING ROAD,WARREN,MAINE,4864,MAINE,
BOLIVAR COUNTY  COMMUNITY WORK CENTER,604 HIGHWAY 8,ROSEDALE,MISSISSIPPI,38769,MISSISSIPPI,
BOLIVAR COUNTY CORRECTIONAL FACILITY,2793 HIGHWAY 8 WEST,CLEVELAND,MISSISSIPPI,38732,MISSISSIPPI,
BONNEVILLE COMMUNITY CORRECTIONAL CENTER,1141 S 2475 W,SALT LAKE CITY,UTAH,84104,UTAH,
BOONVILLE TREATMENT CENTER,1216 E MORGAN STREET,BOONVILLE,MISSOURI,65233,MISSOURI,
BOSSIER TWP,204 BURT BLVD.,BENTON,LOUISIANA,71006,LOUISIANA,
BOSTON  PRE RELEASE CENTER,430 CANTERBURY STREET,ROSLINDALE,MASSACHUSETTS,2131,MASSACHUSETTS,
BOULDER COMMUNITY TREATMENT CENTER,1770 21ST ST,BOULDER,COLORADO,80302,COLORADO,
BRADENTON TRANSITION CENTER,2104 63RD AVENUE EAST,BRADENTON,FLORIDA,34203,FLORIDA,
BRADSHAW STATE JAIL,3900 WEST LOOP 571 NORTH,Henderson,TEXAS,75653,TEXAS,
BRANCHVILLE CORRECTIONAL FACILITY,21390 OLD STATE RD 37,BRANCHVILLE,INDIANA,47514,INDIANA,
BRAZOS VALLEY COUNCIL ON ALCOHOL & SUBSTANCE ABUSE,405 West 28th Street,Bryan,TEXAS,77803,TEXAS,
BREVARD WORK CAMP,855 CAMP ROAD,COCOA,FLORIDA,32927,FLORIDA,
BRIDGEPORT CORRECTIONAL CENTER,1106 N AVENUE,BRIDGEPORT,CONNECTICUT,6604,CONNECTICUT,
BRIDGEPORT CORRECTIONAL CENTER,4000 N 10TH STREET,Bridgeport,TEXAS,76426,TEXAS,
BRIDGEPORT PRE-PAROLE TRANSFER FACILTY,222 LAKE ROAD,Bridgeport,TEXAS,76426,TEXAS,
BRIDGES OF JACKSONVILLE WORK RELEASE CENTER,5110 12TH STREET,JACKSONVILLE,FLORIDA,32209,FLORIDA,
BRIDGES OF ORLANDO,2007 NORTH MERCY DRIVE,ORLANDO,FLORIDA,32831,FLORIDA,
BRIDGES OF POMPANO - TURNING POINT WRC,400 F SW 2ND STREET,POMPANO BEACH,FLORIDA,33060,FLORIDA,
BRIDGEWATER STATE HOSPITAL,20 ADMINISTRATION ROAD,BRIDGEWATER,MASSACHUSETTS,2324,MASSACHUSETTS,
"BRIDGEWAY, INC",620 W GRAND ST,PONCA CITY,OKLAHOMA,74601,OKLAHOMA,
BROAD RIVER CORRECTIONAL INSTITUTION,4460 BROAD RIVER ROAD,COLUMBIA,SOUTH CAROLINA,29210,SOUTH CAROLINA,
BROCKBRIDGE CORRECTIONAL FACILITY,7930 BROCK BRIDGE ROAD,JESSUP,MARYLAND,20794,MARYLAND,
Bronx Comm Corr,2534 Creston Ave,Bronx,NEW YORK,10468,NEW YORK,
BROOKLYN BRIDGE,76 HARTFORD RD,BROOKLYN,CONNECTICUT,6234,CONNECTICUT,
BROOKLYN CORRECTIONAL INSTITUTION,59 HARTFORD ROAD,BROOKLYN,CONNECTICUT,6234,CONNECTICUT,
BROWN CREEK CORRECTIONAL INSTITUTION,248 PRISON CAMP ROAD,POLKTON,NORTH CAROLINA,28135,NORTH CAROLINA,
BROWNSTONE WORK RELEASE,223 S Browne,Spokane,WASHINGTON,99201,WASHINGTON,
BRUNSWICK WORK CENTER,1147 PLANTERS ROAD,LAWRENCEVILLE,VIRGINIA,23868,VIRGINIA,
BRYAN FPC,1100 URSULINE AVENUE,BRYAN,TEXAS,77803,TEXAS,
BSSW- CSC MINT,2846 E. Roosevelt Road,Phoenix,ARIZONA,85008,ARIZONA,
BUCKINGHAM CORRECTIONAL CENTER,1349 Correctional Center Road Route 20N,Dillwyn,VIRGINIA,23936,VIRGINIA,
BUENA VISTA CORRECTIONAL FACILITY,15125 HWY 24 & 285,BUENA VISTA,COLORADO,81211,COLORADO,
BUENA VISTA MINIMUM CENTER,15125 HWY 24 & 285,BUENA VISTA,COLORADO,81211,COLORADO,
Buffalo Halfway House,115 Glenwood Ave,Buffalo,NEW YORK,14209,NEW YORK,
BULLOCH COUNTY PRISON,17301 US HIGHWAY 301 NORTH,STATESBORO,GEORGIA,30458,GEORGIA,
BULLOCK CORRECTIONAL FACILITY,"104 Bullock Dr., Hwy 82 E",Union Springs,ALABAMA,36089,ALABAMA,
Bullock Mental Health Facility,"104 Bullock Dr., Hwy 82 E",Union Springs,ALABAMA,36089,ALABAMA,
BUNCOMBE CORRECTIONAL CENTER,2995 RIVERSIDE DRIVE,"ASHEVILLE,",NORTH CAROLINA,28804,NORTH CAROLINA,
BURLINGTON RESIDENTIAL FACILITY,835 VALLEY ROAD,BURLINGTON,IOWA,52601,IOWA,
BURRUSS CORRECTIONAL TRAINING CENTER,1000 INDIAN SPRINGS DRIVE,FORSYTH,GEORGIA,31029,GEORGIA,
BUSTER COLE STATE JAIL,3801 Silo Road,Bonham,TEXAS,75418,TEXAS,
BUTLER CORRECTIONAL FACILITY,14001 WESTBURY CUTOFF RD.,RED CREEK,NEW YORK,13143,NEW YORK,
BUTNER CAMP,OLD NC HWY 75,Butner,FEDERAL,27509,NORTH CAROLINA,
BUTNER FMC,OLD N. CAROLINA HWY 75,BUTNER,FEDERAL,27509,NORTH CAROLINA,
BUTNER LOW FCI,OLD NC HWY 75,BUTNER,FEDERAL,27509,NORTH CAROLINA,
BUTNER MED I FCI,OLD NC HWY 75,BUTNER,FEDERAL,27509,NORTH CAROLINA,
BUTNER MED II FCI,OLD NC HWY 75,BUTNER,FEDERAL,27509,NORTH CAROLINA,
BUTTE PRE-RELEASE CENTER INC.,471 EAST MERCURY,BUTTE,MONTANA,59701,MONTANA,
C. PAUL PHELPS CORRECTIONAL CENTER,14925 HIGHWAY 27,DEQUINCY,LOUISIANA,70633,LOUISIANA,
"C.H., INCORPORATED",1310 South 17th Street,Council Bluffs,IOWA,51501,IOWA,
CADDO TWP,501 TEXAS ST. ROOM 101,SHREVEPORT,LOUISIANA,71101,LOUISIANA,
CALDWELL CORRECTIONAL CENTER,480 PLEASANT HILL ROAD,LENOIR,NORTH CAROLINA,28645,NORTH CAROLINA,
CALDWELL PARISH DETENTION CENTER LCS,701 HWY. 845,GREYSON,LOUISIANA,71435,LOUISIANA,
CALEDONIA COMMUNITY WORK CAMP,1266 US ROUTE 5,ST. JOHNSBURY,VERMONT,5819,VERMONT,
CALEDONIA CORRECTIONAL INSTITUTION,2787 CALEDONIA DRIVE,TILLERY,NORTH CAROLINA,27887,NORTH CAROLINA,
CALHOUN CORRECTIONAL INST,19562 SE INSTITUTION DRIVE,BLOUNTSTOWN,FLORIDA,32424,FLORIDA,
CALHOUN STATE PRISON,27823 MAIN STREET,MORGAN,GEORGIA,39866,GEORGIA,
CALHOUN WORK CAMP,PO BOX 2000 SOUTH,BLOUNTSTOWN,FLORIDA,32424,FLORIDA,
CALIFORNIA CORRECTIONAL CENTER,711-045 CENTER ROAD,SUSANVILLE,CALIFORNIA,96130,CALIFORNIA,
CALIFORNIA CORRECTIONAL INSTITUTION,24900 HWY 202,TEHACHAPI,CALIFORNIA,93561,CALIFORNIA,
CALIFORNIA INSTITUTION FOR MEN,14901 CENTRAL AVENUE,CHINO,CALIFORNIA,91710,CALIFORNIA,
CALIFORNIA INSTITUTION FOR WOMEN,16756 CHINO-CORONA ROAD,CORONA,CALIFORNIA,92880,CALIFORNIA,
CALIFORNIA MEDICAL FACILITY,1600 CALIFORNIA DRIVE,VACAVILLE,CALIFORNIA,95696,CALIFORNIA,
CALIFORNIA MENS COLONY,HIGHWAY 1,SAN LUIS OBISPO,CALIFORNIA,93409,CALIFORNIA,
CALIFORNIA REHABILITATION CENTER,5TH STREET & WESTERN,NORCO,CALIFORNIA,29860,CALIFORNIA,
"CALIFORNIA STATE PRISON, SACRAMENTO",300 PRISON ROAD,REPRESA,CALIFORNIA,95671,CALIFORNIA,
"CALIFORNIA STATE PRISON, SOLANO",2100 PEABODY ROAD,VACAVILLE,CALIFORNIA,95687,CALIFORNIA,
CALIFORNIA SUBSTANCE ATF - CORCORAN,900 QUEBEC AVENUE,CORCORAN,CALIFORNIA,93212,CALIFORNIA,
CALIPATRIA STATE PRISON,7018 BLAIR ROAD,CALIPATRIA,CALIFORNIA,92233,CALIFORNIA,
CALUMET TRANSITIONAL HOUSING UNIT,126 LOWELL STREET,MANCHESTER,NEW HAMPSHIRE,3104,NEW HAMPSHIRE,
CAMDEN COMMUNITY Based Facility,1780 AL Hwy 221,Camden,ALABAMA,36726,ALABAMA,
CAMPBELL PRE-RELEASE CENTER,4530 BROAD RIVER ROAD,COLUMBIA,SOUTH CAROLINA,29210,SOUTH CAROLINA,
CANAAN USP,3057 EASTON TURNPIKE,WAYMART,FEDERAL,18472,PENNSYLVANIA,
CANAAN-CAMP,3057 EASTON TURNPIKE,WAYMART,FEDERAL,18472,PENNSYLVANIA,
CAPE VINCENT CORRECTIONAL FACILITY,36560 STATE ROUTE 12E,CAPE VINCENT,NEW YORK,13618,NEW YORK,
Capitol Pavilion Community Correction Center,2012 North Forth Street,Harrisburg,PENNSYLVANIA,17102,PENNSYLVANIA,
CARLIN CONSERVATION CAMP,124 SUZIE CREEK ROAD,CARLIN,NEVADA,89822,NEVADA,
CARLTON COLWELL PROBATION DENTENTION CENTER,189 BEASLEY STREET,BLAIRSVILLE,GEORGIA,30512,GEORGIA,
CAROL S. VANCE UNIT,2 JESTER ROAD,Richmond,TEXAS,77406,TEXAS,
CAROLE S. YOUNG MEDICAL FACILITY,5509 Attwater Ave,Dickinson,TEXAS,77539,TEXAS,
CAROLINE CORRECTIONAL CENTER,31285 CAMP ROAD,HANOVER,VIRGINIA,23069,VIRGINIA,
CARROLL COUNTY PRISON,96 HORSLEY MILL ROAD,CARROLLTON,GEORGIA,30117,GEORGIA,
CARROLL/MONTGOMERY REGIONAL CORR FACILITY,33714 HIGHWAY 35,VAIDEN,MISSISSIPPI,39176,MISSISSIPPI,
CARSON CITY CORRECTIONAL FACILITY,10274 BOYER ROAD,CARSON CITY,MICHIGAN,48811,MICHIGAN,
CARSWELL FMC,NAVAL AIR STATION - J ST BLDG 3000 ROOM 1G015,FORT WORTH,FEDERAL,76127,TEXAS,
CARSWELL-CAMP,NAVAL AIR STATION - J ST BLDG 3000 ROOM 1G015,FORT WORTH,FEDERAL,76127,TEXAS,
CARTER COUNTY COMMUNITY WORK CENTER,5268 SANT FE ROAD,WILSON,OKLAHOMA,73463,OKLAHOMA,
CARTERET CORRECTIONAL CENTER,1084 ORANGE STREET,NEWPORT,NORTH CAROLINA,28570,NORTH CAROLINA,
CARVER TRANSITIONAL CENTER,400 S. May Avenue,Oklahoma City,OKLAHOMA,73108,OKLAHOMA,
CASA GRANDE TRANSITIONAL HOUSING,3955 W RUSSELL ROAD,LAS VEGAS,NEVADA,89118,NEVADA,
CASCADE COUNTY REGIONAL ADULT DETENTION CENTER,3800 ULM NORTH FRONTAGE ROAD,GREAT FALLS,MONTANA,59405,MONTANA,
CASPER RE-ENTRY CENTER,10007 LANDMARK LANE,CASPER,WYOMING,82604,WYOMING,
CASWELL CORRECTIONAL CENTER,444 COUNTY HOME RD,BLANCH,NORTH CAROLINA,27212,NORTH CAROLINA,
CATAHOULA CORRECTIONAL CENTER - LASALLE,499 OLD COLUMBIA ROAD,HARRISONBURG,LOUISIANA,71340,LOUISIANA,
CATALYST BEHAVIORAL SERVICES CAMEO,415 NW 8TH STREET,OKLAHOMA,OKLAHOMA,73102,OKLAHOMA,
CATALYST BEHAVIORAL SERVICES IVANHOE,415 NW 8TH STREET,OKLAHOMA CITY,OKLAHOMA,73102,OKLAHOMA,
CATALYST ENID HALFWAY HOUSE,1824 SOUTH VAN BURDEN STREET,ENID,OKLAHOMA,73703,OKLAHOMA,
CATAWBA CORRECTIONAL CENTER,1347 PRISON CAMP ROAD,NEWTON,NORTH CAROLINA,28658,NORTH CAROLINA,
CATAWBA PRE-RELEASE CENTER,1030 MILLING ROAD,ROCK HILL,SOUTH CAROLINA,29730,SOUTH CAROLINA,
CATHOLIC SOCIAL SERVICES,409 OLIVE STREET,SCRANTON,PENNSYLVANIA,18509,PENNSYLVANIA,
CAVALCORP COMM SANCTION CENTER,312 TRYON ROAD,RALEIGH,NORTH CAROLINA,27603,NORTH CAROLINA,
CAYUGA CORRECTIONAL FACILITY,2202 STATE ROUTE 38A,MORAVIA,NEW YORK,13118,NEW YORK,
CCC Alston Wilkes Society - Columbia,1218 BULL STREET,COLUMBIA,SOUTH CAROLINA,29601,SOUTH CAROLINA,
CCC Alston Wilkes Society - Florence,441 W CHEVES STREET,FLORENCE,SOUTH CAROLINA,29501,SOUTH CAROLINA,
CCC Alston Wilkes Society - North Charleston,3290 A Meeting Street,N. Charleston,SOUTH CAROLINA,29405,SOUTH CAROLINA,
CCC Dismas Charities,709 E. 49th St,Lubbock,TEXAS,79404,TEXAS,
CEDAR CREEK CORRECTIONAL CENTER,12200 BORDEAUX RD,Littlerock,WASHINGTON,98556,WASHINGTON,
CENTENNIAL COMMUNITY TRANSITION CENTER,14485 EAST FREMONT AVENUE,ENGLEWOOD,COLORADO,80112,COLORADO,
CENTENNIAL CORRECTIONAL FACILITY,E US HIGHWAY 50 & EVANS BOULEVARD,CANON CITY,COLORADO,81215,COLORADO,
CENTER FOR COMMUNITY TRANSITIONS-WOMEN,904 PECAN AVENUE,CHARLOTTE,NORTH CAROLINA,28205,NORTH CAROLINA,
"CENTER POINT, INC. OKC",5245 S I-35 SERVICE RD.,OKLAHOMA CITY,OKLAHOMA,73129,OKLAHOMA,
"CENTER POINT, INC. OSAGE COUNTY",1755 W 53RD ST. N,TULSA,OKLAHOMA,74126,OKLAHOMA,
"CENTER POINT, INC. TULSA",3637 N. LEWIS,TULSA,OKLAHOMA,74110,OKLAHOMA,
"CENTEX ALCOHOL REHABILITATION CENTER, INC.",2500 S. General Bruce Drive,Temple,TEXAS,76504,TEXAS,
CENTINELA STATE PRIOSN,2302 BROWN ROAD,IMPERIAL,CALIFORNIA,92251,CALIFORNIA,
CENTRAL ARKANSAS COMMUNITY CORRECTION CENTER,4823 West 7th St,Little Rock,ARKANSAS,72205,ARKANSAS,
CENTRAL AVENUE HOUSE,24 CENTRAL AVENUE,WATERBURY,CONNECTICUT,6702,CONNECTICUT,
CENTRAL CALIFORNIA WOMEN'S FACILITY,23370 ROAD 22,CHOWCHILLA,CALIFORNIA,93610,CALIFORNIA,
CENTRAL FLORIDA RECEPTION CENTER EAST,7000 H.C. KELLEY RD.,ORLANDO,FLORIDA,32831,FLORIDA,
CENTRAL FLORIDA RECEPTION CENTER MAIN,7000 H C KELLEY ROAD,ORLANDO,FLORIDA,32831,FLORIDA,
CENTRAL FLORIDA RECEPTION CENTER SOUTH,7000 H.C. KELLEY RD.,ORLANDO,FLORIDA,32831,FLORIDA,
CENTRAL MAINE PRE RELEASE CENTER,87 WINTHROP STREET,HALLOWELL,MAINE,4347,MAINE,
CENTRAL MD CORRECTIONAL FACILITY,7301 BUTTERCUP ROAD,SYKESVILLE,MARYLAND,21784,MARYLAND,
"Central Medical Unit, 5th Floor Security Unit, St. Francis Medical Center",601 HAMILTON AVENUE,TRENTON,NEW JERSEY,8629,NEW JERSEY,
CENTRAL MICHIGAN CORRECTIONAL FACILITY,320 NORTH HUBBARD,ST. LOUIS,MICHIGAN,48880,MICHIGAN,
CENTRAL MISSISSIPPI CORRECTIONAL FACILITY,3794 HIGHWAY 468,PEARL,MISSISSIPPI,39208,MISSISSIPPI,
CENTRAL NEW MEXICO CORRECTIONAL FACILITY,3201 HIGHWAY 314 S.W.,LOS LUNAS,NEW MEXICO,87031,NEW MEXICO,
CENTRAL NEW MEXICO CORRECTIONAL FACILITY LEVEL I,3201 Highway 314 SW,Los Lunas,NEW MEXICO,87031,NEW MEXICO,
CENTRAL NEW MEXICO CORRECTIONAL FACILITY LEVEL II,1525 MORRIS ROAD,LOS LUNAS,NEW MEXICO,87031,NEW MEXICO,
CENTRAL PRISON,1300 WESTERN BLVD,RALEIGH,NORTH CAROLINA,27606,NORTH CAROLINA,
CENTRAL RECEPTION & ASSIGNMENT FACILITY,STUYVESANT AVENUE,West Trenton,NEW JERSEY,8628,NEW JERSEY,
CENTRAL STATE PRISON,4600 FULTON MILL ROAD,MACON,GEORGIA,31208,GEORGIA,
CENTRAL VIOLATION OF PROBATION CENTER,875 Smyrna Landing Road,Smyrna,DELAWARE,19977,DELAWARE,
CENTRAL VIRGINA CORRECTIONAL UNIT #13,6900 Courthouse Road,Chestfield,VIRGINIA,23832,VIRGINIA,
CENTRALIA CORRECTIONAL CENTER,9330 SHATTUC ROAD,CENTRALIA,ILLINOIS,62801,ILLINOIS,
CENTRE FARGO,123 15TH STREET NORTH,FARGO,NORTH DAKOTA,58102,NORTH DAKOTA,
CENTRE INC. GRAND FORKS,201 S. 4th Street,Grand Forks,NORTH DAKOTA,58201,NORTH DAKOTA,
CENTRE INC. MANDAN,100 6th Ave SE,Mandan,NORTH DAKOTA,58554,NORTH DAKOTA,
CENTURY CORRECTIONAL INSTITUTION,400 TEDDER ROAD,CENTURY,FLORIDA,32535,FLORIDA,
CENTURY WORK CAMP,400 TEDDER ROAD,CENTURY,FLORIDA,32535,FLORIDA,
CHAIN O'LAKES CORRECTIONAL FACILITY,3516 E 75 S,ALBION,INDIANA,46701,INDIANA,
CHAMBERLAIN CREEK CONSERVATION CAMP,15800 HWY 20,FORT BRAGG,CALIFORNIA,95437,CALIFORNIA,
CHARLES B. BASS CORRECTIONAL COMPLEX,7177 COCKRILL BEND BLVD,NASHVILLE,TENNESSEE,37243,TENNESSEE,
CHARLES BILL JOHNSON CORRECTIONAL CENTER,1856 E FLYNN ST,ALVA,OKLAHOMA,73717,OKLAHOMA,
CHARLES EGELER RECEPTION & GUIDANCE CENTER,3855 COOPER STREET,JACKSON,MICHIGAN,49201,MICHIGAN,
CHARLES T. TERRELL UNIT,1300 FM 655,Rosharon,TEXAS,77583,TEXAS,
CHARLESTON CORRECTIONAL FACILITY,"RTE 15, 1202 DOVER ROAD",CHARLESTON,MAINE,4422,MAINE,
CHARLESTON WORK RELEASE CENTER,607 BROOKS STREET,CHARLESTON,WEST VIRGINIA,25301,WEST VIRGINIA,
CHARLOTTE CORRECTIONAL  INSTITUTION,33123 OIL WELL ROAD,PUNTA GODA,FLORIDA,33955,FLORIDA,
CHASE CENTER,21 CLIFF STREET,WATERBURY,CONNECTICUT,6710,CONNECTICUT,
CHATEAUGAY CORRECTIONAL TREATMENT FACILITY,7874 STATE ROUTE 11,CHATEAUGAY,NEW YORK,12920,NEW YORK,
CHENEY HOUSE,155 WETHERSFIELD AVENUE,HARTFORD,CONNECTICUT,6114,CONNECTICUT,
CHESAPEAKE DETENTION FACILITY,401 E. MADISON STREET,BALTIMORE,MARYLAND,21202,MARYLAND,
CHESHIRE CORRECTIONAL CENTER,900 HIGHLAND AVENUE,CHESHIRE,CONNECTICUT,6410,CONNECTICUT,
CHESTERFIELD WOMEN'S DETENTION CENTER,7000 Courthouse Road,Chesterfield,VIRGINIA,23832,VIRGINIA,
CHESTERFIELD WOMEN'S DIVERSON CENTER,7000 Courthouse Road,Chesterfield,VIRGINIA,23832,VIRGINIA,
"CHEYENNE CENTER, INC.",10525 Eastex Freeway,Houston,TEXAS,77093,TEXAS,
CHEYENNE MOUNTAIN RE-ENTRY CENTER,2925 EAST LAS VEGAS STREET,COLORADO SPRINGS,COLORADO,80906,COLORADO,
Cheyenne Transition Center,322 West 17th Street,Cheyenne,WYOMING,82717,WYOMING,
CHICKASAW REGIONAL CORRECTIONAL FACILITY,120 LANCASTER CIRCLE,HOUSTON,MISSISSIPPI,38851,MISSISSIPPI,
CHILDERSBURG COMMUNITY Based Facility,13501 Plant Road,Childersburg,ALABAMA,35044,ALABAMA,
CHILLICOTHE CORRECTIONAL CENTER,3151 Litton Road,Chillicothe,MISSOURI,64601,MISSOURI,
CHILLICOTHE CORRECTIONAL INSTITUTION,15802 STATE ROUTE 104 N,CHILLICOTHE,OHIO,45601,OHIO,
CHIPPEWA CORRECTIONAL FACILITY,4269 WEST M-80,KINCHELOE,MICHIGAN,49784,MICHIGAN,
CHIPPEWA VALLEY CORRECTIONAL TREATMENT FAC,2909 E PARK AVENUE,CHIPPEWA FALLS,WISCONSIN,54729,WISCONSIN,
CHITTENDEN REGIONAL CORRECTIONAL FACILITY,7 FARRELL STREET,SOUTH BURLINGTON,VERMONT,5403,VERMONT,
CHOICE MOORE TRANSFER FACILITY,1700 N FM 87,Bonham,TEXAS,75418,TEXAS,
CHRISTINA MELTON CRAIN UNIT,1401 State School Road,Gatesville,TEXAS,76599,TEXAS,
CHUCKAWALLA VALLEY STATE PRISON,19025 WILEY'S WELL RD,BLYTHE,CALIFORNIA,92225,CALIFORNIA,
Cibola County CI,2000 CIBOLA LOOP,MILAN,NEW MEXICO,87021,NEW MEXICO,
CIMARRON CORRECTIONAL FACILITY - CCA,3200 S KINGS HWY,CUSHING,OKLAHOMA,74023,OKLAHOMA,
CINC MEN (ST. MARTIN DEPORRES),1101 CANVASBACK STREET,LAKE CHARLES,LOUISIANA,70615,LOUISIANA,
CINC WOMEN (CEDARWOOD),1101 CANVASBACK STREET,LAKE CHARLES,LOUISIANA,70615,LOUISIANA,
City of Faith Monroe - Federal,1408 Jackson Street,Monroe,LOUISIANA,71202,LOUISIANA,
CITY OF FAITH MONROE - STATE (TWP),1814 JACKSON STREET,MONROE,LOUISIANA,71202,LOUISIANA,
City of Faith Residential Re-entry Center,1401 S Garfield Drive,Little Rock,ARKANSAS,72204,ARKANSAS,
CLAIBORNE PARISH DETENTION CENTER - LASALLE,1415 HWY 520,HOMER,LOUISIANA,71040,LOUISIANA,
CLALLAM BAY CORRECTIONAL CENTER,1830 EAGLE CREST WAY,Clallam Bay,WASHINGTON,98326,WASHINGTON,
CLARA WATERS COMMUNITY CORRECTIONS,9901 N I-35 SERVICE ROAD,OKLAHOMA  CITY,OKLAHOMA,73131,OKLAHOMA,
CLARENCE N. STEVENSON UNIT,1525 FM 766,Cuero,TEXAS,77002,TEXAS,
CLARINDA CORRECTIONAL FACILITY,2000 N. 16TH STREET,CLARINDA,IOWA,51632,IOWA,
CLARINDA CORRECTIONAL FACILITY LODGE,2000 N. 16th,Clarinda,IOWA,51632,IOWA,
CLARK COUNTY WORK RELEASE,5197 NW Lowwer River Road,Vancouver,WASHINGTON,98660,WASHINGTON,
CLAYTON COUNTY CORRECTIONAL INSTITUTION,11420 S.L.R. BOULEVARD,LOVEJOY,GEORGIA,30250,GEORGIA,
CLAYTON TRANSITIONAL CENTER,242 FALCON DRIVE,FOREST PARK,GEORGIA,30297,GEORGIA,
CLAYTON WORK CAMP,207 W. MORGAN STREET,CLAYTON,ILLINOIS,62324,ILLINOIS,
CLEMENS UNIT,11034 S HWY 36,Brazoria,TEXAS,77422,TEXAS,
CLEVELAND CORRECTIONAL CENTER,901 EAST 5TH STREET,Cleveland,TEXAS,77327,TEXAS,
CLINTON CORRECTIONAL FACILTY,1156 RT. 374,DANNEMORA,NEW YORK,12929,NEW YORK,
CLINTON HOUSE (NJAC),21 N CLINTON AVENUE,Trenton,NEW JERSEY,8609,NEW JERSEY,
"CLOVER HOUSE, INC.",700 North Dixie,Odessa,TEXAS,79761,TEXAS,
"CLOVER HOUSE, INC.",823 Idlewood,Odessa,TEXAS,79761,TEXAS,
"CLOVER HOUSE, INC.",300 North Jackson,Odessa,TEXAS,79761,TEXAS,
CLYDE M. JOHNSTON SUBSTANCE ABUSE FELONY PUNISHMENT FACILITY,703 AIRPORT ROAD,Winnsboro,TEXAS,77406,TEXAS,
CMI COLUMBINE FACILITY,4280 COLUMBINE ST,DENVER,COLORADO,80216,COLORADO,
CMI DAHLIA,4511 EAST 46TH AVENUE,DENVER,COLORADO,80216,COLORADO,
CMI FOX FACILITY,570 WEST 44TH AVENUE,DENVER,COLORADO,80216,COLORADO,
CMI ULSTER,3955 ULSTER STREET,DENVER,COLORADO,80216,COLORADO,
COASTAL PRE-RELEASE CENTER,3765 LEEDS AVENUE,CHARLESTON,SOUTH CAROLINA,29405,SOUTH CAROLINA,
COASTAL STATE PRISON,200 GULFSTREAM ROAD,GARDEN CITY,GEORGIA,31418,GEORGIA,
COASTAL TRANSITIONAL CENTER,309 STILES AVENUE,SAVANNAH,GEORGIA,31405,GEORGIA,
COCHEGAN HOUSE,976 NORWICH-NEW LONDON TURNPIKE,UNCASVILLE,CONNECTICUT,6382,CONNECTICUT,
COCOA WORK RELEASE CENTER,585 CAMP ROAD,COCOA,FLORIDA,32927,FLORIDA,
COFFEE CORRECTIONAL FACILITY,1153 NORTH LIBERTY STREET,NICHOLLS,GEORGIA,31554,GEORGIA,
COFFEE CREEK CORRECTIONAL FACILITY,24499 SW GRAHAMS FERRY ROAD,WILSONVILLE,OREGON,97070,OREGON,
COFFEE CREEK CORRECTIONAL MINIMUM,24499 SW GRAHAMS FERRY ROAD,WILSONVILLE,OREGON,97070,OREGON,
COFFEE CREEK INTATE CENTER,24499 SW GRAHAMS FERRY ROAD,WILSONVILLE,OREGON,97070,OREGON,
COFFEEWOOD CORRECTIONAL CENTER,12352 COFFEEWOOD DRIVE,MITCHELLS,VIRGINIA,22729,VIRGINIA,
COLD SPRINGS CORRECTIONAL UNIT,221 SPITLER CIRCLE,GREENVILLE,VIRGINIA,24440,VIRGINIA,
COLD SPRINGS WORK CENTER,192 Spitler Circle,Greenville,VIRGINIA,24440,VIRGINIA,
Coleman I USP,846 NE 54TH TERRACE,COLEMAN,FEDERAL,33521,FLORIDA,
Coleman II USP,846 NE 54TH TERRACE,COLEMAN,FEDERAL,33521,FLORIDA,
Coleman Low FCI,846 NE 54TH TERRACE,COLEMAN,FEDERAL,33521,FLORIDA,
Coleman Med FCI,846 NE 54TH TERRACE,COLEMAN,FEDERAL,33521,FLORIDA,
Coleman Med FCI - Camp,846 NE 54TH TERRACE,COLEMAN,FEDERAL,33521,FLORIDA,
COLLINS CORRECTIONAL FACILITY,MIDDLE ROAD,COLLINS,NEW YORK,14034,NEW YORK,
COLORADO CORRECTIONAL CENTER,15445 SOUTH GOLDEN ROAD,GOLDEN,COLORADO,80401,COLORADO,
COLORADO STATE PENITENTIARY,E US HIGHWAY 50 & EVANS BOULEVARD,CANON CITY,COLORADO,81215,COLORADO,
COLORADO TERRITORIAL CORRECTIONAL FACILITY,275 WEST US HIGHWAY 50,CANON CITY,COLORADO,81215,COLORADO,
COLQUITT COUNTY PRISON,2000 COUNTY FARM ROAD,MOULTRIE,GEORGIA,31768,GEORGIA,
COLUMBIA ANNEX,216 SE CORRECTIONS WAY,LAKE CITY,FLORIDA,32025,FLORIDA,
COLUMBIA CO. RE-ENTRY (294),721 IRON ST,BLOOMSBURG,PENNSYLVANIA,17815,PENNSYLVANIA,
COLUMBIA CORRECTIONAL INSTITUTION,216 SE CORRECTIONS WAY,LAKE CITY,FLORIDA,32025,FLORIDA,
COLUMBIA CORRECTIONAL INSTITUTION,2925 COLUMBIA DRIVE,PORTAGE,WISCONSIN,53901,WISCONSIN,
COLUMBIA RIVER CORRECTIONAL INSTITUTION,9111 NE SUNDERLAND AVENUE,PORTLAND,OREGON,97211,OREGON,
COLUMBUS CORRECTIONAL CENTER,1255 PRISON CAMP ROAD,WHITEVILLE,NORTH CAROLINA,28472,NORTH CAROLINA,
COLUMBUS TRANSITIONAL CENTER,3900 SCHATULGA ROAD,COLUMBUS,GEORGIA,31908,GEORGIA,
"COMCOR, INC.",3615 ROBERTS ROAD,COLORADO SPRINGS,COLORADO,80907,COLORADO,
Community Alternatives of Black Hills,5025 Highway 79 South,Rapid City,SOUTH DAKOTA,57709,SOUTH DAKOTA,
COMMUNITY ALTERNATIVES OF EL PASO COUNTY,2945 EAST LAS VEGAS STREET,COLORADO SPRINGS,COLORADO,80906,COLORADO,
Community Alternatives Program - Cherry Street Health SVCS,"801 College, SE",Grand Rapids,MICHIGAN,49507,MICHIGAN,
COMMUNITY ASSESSMENT & TREATMENT SERVICES,8415 BROADWAY AVE,CLEVELAND,OHIO,44127,OHIO,
COMMUNITY CORRECTIONAL CENTER - LINCOLN,2720 W VAN DORN SRTEET,LINCOLN,NEBRASKA,68522,NEBRASKA,
"Community Correctional Service, Inc (CCSI)",1901 N. Hudson,Pueblo,COLORADO,81001,COLORADO,
COMMUNITY CORRECTIONS CENTER - OMAHA,2320 Avenue J,Omaha,NEBRASKA,68110,NEBRASKA,
COMMUNITY EDUCATION CENTERS,10007 LAND MARK LANE,CASPER,WYOMING,82604,WYOMING,
COMMUNITY PARTNERS IN ACTION - MEN'S WORK RELEASE,121 WASHINGTON STREET,HARTFORD,CONNECTICUT,6106,CONNECTICUT,
Community Resources for Justice- Brooke House,107 Park Drive,Borston,MASSACHUSETTS,2215,MASSACHUSETTS,
COMMUNITY TRANSITIONS CENTER,151 E HUBERT AVENUE,LANCASTER,OHIO,43130,OHIO,
COMMUNITY TREATMENT & CORRECTION CENTER,1432 TUSCARAWAS STREET EAST,CANTON,OHIO,44707,OHIO,
Community Treatment Center- East,11105 East Jefferson Ave,Detroit,MICHIGAN,48214,MICHIGAN,
CONCORAN STATE PRISON,4001 KING AVENUE,CORCORAN,CALIFORNIA,93212,CALIFORNIA,
CONNECTION HOUSE,167 LIBERTY STREET,MIDDLETOWN,CONNECTICUT,6457,CONNECTICUT,
COOLIDGE HOUSE,307 HUNTINGTON AVENUE,BOSTON,MASSACHUSETTS,2115,MASSACHUSETTS,
COOPER STREET CORRECTIONAL FACILITY,3100 COOPER STREET,JACKSON,MICHIGAN,49201,MICHIGAN,
CORDOVA CENTER,130 CORDOVA STREET,ANCHORAGE,ALASKA,99501,ALASKA,
CORRECTIONAL ALTERNATIVE PLACEMENT PROGRAM,15505 S PLEASANT VALLEY ROAD,KUNA,IDAHO,83634,IDAHO,
"CORRECTIONAL ALTERNATIVE PLACEMENT SERVICES, INC",445 RANNEY STREET,CRAIG,COLORADO,81625,COLORADO,
"Correctional Alternatives, Inc",2727 Boston Avenue,San Diego,CALIFORNIA,92113,CALIFORNIA,
CORRECTIONAL INDUSTRIAL FACILITY,5124 W REFORMATORY RD,PENDLETON,INDIANA,46064,INDIANA,
CORRECTIONAL RECEPTION CENTER,11271 STATE ROUTE 762,ORIENT,OHIO,43146,OHIO,
CORRECTIONAL RELEASE CENTER,"307 South 60th Avenue, W.",Newton,IOWA,50208,IOWA,
CORRECTIONAL TRAINING FACILITY,HIGHWAY 101 NORTH,SOLEDAD,CALIFORNIA,93960,CALIFORNIA,
CORRECTIONS TRANSITIONAL WORK UNIT,281 NORTH STATE STREET,CONCORD,NEW HAMPSHIRE,3301,NEW HAMPSHIRE,
CORRIGAN-RADGOWSKI CORRECTIONAL CENTER,986 NORWICH-NEW LONDON TPKE,UNCASVILLE,CONNECTICUT,6382,CONNECTICUT,
COTULLA TRANSFER FACILITY,610 FM 624,Cotulla,TEXAS,78014,TEXAS,
COUNCIL BLUFFS RESIDENTIAL FACILITY,900 NINTH AVENUE,COUNCIL BLUFFS,IOWA,51501,IOWA,
COUNCIL BLUFFS WOMEN'S RESIDENTIAL FACILITY,1102 9TH STREET,COUNCIL BLUFFS,IOWA,51501,IOWA,
COUNTY REHABILITATION CENTER,12133 CR 46,Tyler,TEXAS,75704,TEXAS,
COWETA COUNTY PRISON,101 SELT ROAD,NEWNAN,GEORGIA,30263,GEORGIA,
COXSACKIE CORRECTIONAL  FACILITY,11260 ROUTE 9W,COXSACKIE,NEW YORK,12051,NEW YORK,
COYOTE RIDGE CORRECTIONS CENTER,1301 N EPHRATA AVE,Connell,WASHINGTON,99326,WASHINGTON,
CPA HARTFORD - CSSD AIC,119-121 WASHINGTON STREET,HARTFORD,CONNECTICUT,6106,CONNECTICUT,
CRAGGY CORRECTIONAL CENTER,2992 RIVERSIDE DR.,ASHEVILLE,NORTH CAROLINA,28804,NORTH CAROLINA,
Craine House Work Release,3535 North Pennsylvania,Indianapolis,INDIANA,46208,INDIANA,
CRAVEN CORRECTIONAL INSTITUTION,600 ALLIGATOR ROAD,VANCEBORO,NORTH CAROLINA,28586,NORTH CAROLINA,
CREMER THERAPEUTIC COMMUNITY CENTER,689 State Road O,Fulton,MISSOURI,65251,MISSOURI,
CROSS CITY CORRECTIONAL INST WORK CAMP,315 N.E. 255TH STREET,CROSS CITY,FLORIDA,32628,FLORIDA,
CROSS CITY CORRECTIONAL INSTITUTION,568 NE 255TH STREET,CROSS CITY,FLORIDA,32628,FLORIDA,
Crosspoint CSC,420 Baltimore St.,San Antonio,FEDERAL,78215,TEXAS,
CROSSROADS ADULT TRANSITIONAL CENTER,3210 W. Arthington,Chicago,ILLINOIS,60624,ILLINOIS,
CROSSROADS CORRECTIONAL CENTER,115 EAST PENCE ROAD,CAMERON,MISSOURI,64429,MISSOURI,
CROSSROADS CORRECTIONAL CENTER - CCA,75 HEATH ROAD,SHELBY,MONTANA,59474,MONTANA,
CROWLEY COUNTY CORRECTIONAL FACILITY- CSC,6564 HIGHWAY 96,OLNEY SPRINGS,COLORADO,81062,COLORADO,
CSC - DISMAS HOUSE OF ATLANTA WEST,300 WENDELL COURT,ATLANTA,GEORGIA,30336,GEORGIA,
CT RENNAISSANCE - DRUG TREATMENT,31 WOLCOTT STREET,WATERBURY,CONNECTICUT,6702,CONNECTICUT,
CTC West,15380 Monica Street,Detroit,MICHIGAN,48238,MICHIGAN,
CTS - Russell,1407 West Jefferson Street,Louisville,KENTUCKY,40203,KENTUCKY,
CUESTA CONSERVATION CAMP,635 N SANTA ROSA ST,SAN LUIS OBISPO,CALIFORNIA,93405,CALIFORNIA,
CUMBERLAND CAMP,14601 BURBRIDGE RD SE,CUMBERLAND,FEDERAL,21502,MARYLAND,
CUMBERLAND FCI,14601 BURBRIDGE RD SE,CUMBERLAND,FEDERAL,21502,MARYLAND,
CUMMINS UNIT,2540 ST. HIGHWAY 388,GOULD,ARKANSAS,71643,ARKANSAS,
CURT FORBES RESIDENTIAL CENTER,111 N SHERMAN AVENUE,AMES,IOWA,50010,IOWA,
D. Ray James Corr Facl CI,HIGHWAY 252 EAST,FOLKSTON,FEDERAL,31537,GEORGIA,
DADE CORRECTIONAL INSTITUTION,19000 SW 377TH STREET,FLORIDA CITY,FLORIDA,33034,FLORIDA,
Dakota Counseling Institute - Stepping Stones,910 West Havens Avenue,SD,SOUTH DAKOTA,57301,SOUTH DAKOTA,
DAKOTA WOMEN'S CORRECTIONAL & REHAB CENTER,440 MCKENZIE STREET,NEW ENGLAND,NORTH DAKOTA,58647,NORTH DAKOTA,
DALBY CI,805 N AVENUEF,POST,TEXAS,79356,TEXAS,
DALHART UNIT,11950 FM 998,Dalhart,TEXAS,79022,TEXAS,
DALLAS TRANSITIONAL CENTER,899 North Stemmons Freeway,Dallas,TEXAS,75207,TEXAS,
Damascus Way - Golden Valley,5730 Olson Memorial Hwy,Golden Valley,MINNESOTA,55422,MINNESOTA,
DAMASCUS WAY - Rochester,1449 Fourth Avenue SE,Rochester,MINNESOTA,55904,MINNESOTA,
DAN RIVER PRISON WORK FARM,981 MURRAY ROAD,YANCEYVILLE,NORTH CAROLINA,27379,NORTH CAROLINA,
DANBURY - CAMP,ROUTE 37,DANBURY,FEDERAL,6811,CONNECTICUT,
Danbury FCI,ROUTE 37,DANBURY,FEDERAL,6811,CONNECTICUT,
DANIEL WEBSTER WALLACE UNIT,1675 S. FM 3525,Colorado City,TEXAS,79512,TEXAS,
DANVILLE CORRECTIONAL CENTER,3820 East Main Street,Danville,ILLINOIS,61834,ILLINOIS,
DARRINGTON UNIT,59 DARRINGTON ROAD,Rosharon,TEXAS,77583,TEXAS,
DAVENPORT RESIDENTIAL FACILITY,1330 W 3RD STREET,DAVENPORT,IOWA,52802,IOWA,
DAVENPORT WORK RELEASE CENTER,605 MAIN STREET,DAVENPORT,IOWA,52802,IOWA,
DAVID WADE CORRECTIONAL CENTER,670 BELL HILL ROAD,HOMER,LOUISIANA,71040,LOUISIANA,
DAVIDSON CORRECTIONAL CENTER,1400 THOMASON ST,LEXINGTON,NORTH CAROLINA,27292,NORTH CAROLINA,
DAVIS COMMUNITY WORK CENTER,3297 N 369 Road,Holdenville,OKLAHOMA,74848,OKLAHOMA,
DAVIS CORRECTIONAL FACILITY - CCA,6888 EAST 133RD ROAD,HOLDENVILLE,OKLAHOMA,74848,OKLAHOMA,
DAWSON COUNTY DETENTION CENTER,440 COLORADO BLVD.,GLENDIVE,MONTANA,59330,MONTANA,
DAWSON STATE JAIL,106 WEST COMMERCE STREET,Dallas,TEXAS,75265,TEXAS,
DAYTON CORRECTIONAL INSTITUTION,4104 GERMANTOWN ST,DAYTON,OHIO,45417,OHIO,
DAYTONA BEACH WORK RELEASE CENTER,3601 U.S. HIGHWAY 92,DAYTONA BEACH,FLORIDA,32124,FLORIDA,
DEADWOOD CONSERVATION CAMP,17148 MC ADAMS CREEK ROAD,FORT JONES,CALIFORNIA,96032,CALIFORNIA,
DECATUR ADULT TRANSITIONAL CENTER,2175 E PERSHING ROAD,DECATUR,ILLINOIS,62526,ILLINOIS,
DECATUR COMMUNITY Based Facility,1401 Highway 20 West,Decatur,ALABAMA,35601,ALABAMA,
DECATUR COOUNTY PRISON,1153 AIRPORT ROAD,BAINBRIDGE,GEORGIA,39817,GEORGIA,
DECATUR CORRECTIONAL CENTER,2310 E MOUND ROAD,DECATUR,ILLINOIS,62526,ILLINOIS,
DEEP MEADOW CORRECTIONAL CENTER,3500 Woods Way,State Farm,VIRGINIA,23160,VIRGINIA,
DEER RIDGE CORRECTIONAL MINIMUM,3920 EAST ASHWOOD ROAD,MADRAS,OREGON,97741,OREGON,
DEERFIELD CORRECTIONAL CENTER,21360 DEERFIELD DRIVE,CAPRON,VIRGINIA,23829,VIRGINIA,
DEERFIELD WORK CENTER FOR MEN,15172 OLD BELFIELD ROAD,CAPRON,VIRGINIA,23829,VIRGINIA,
DEERFIELD WORK CENTER FOR WOMEN,15080 OLD BELFIELD ROAD,CAPRON,VIRGINIA,23829,VIRGINIA,
DELORES J BAYLOR WOMENS CORRECTIONAL INSTITUTION,660 BAYLOR BLVD,NEW CASTLE,DELAWARE,19720,DELAWARE,
DELTA CONSERVATION CAMP,6246 LAMBIE ROAD,SUISUN CITY,CALIFORNIA,94585,CALIFORNIA,
DELTA CORRECTIONAL CENTER,4102 SAWMILL MESA ROAD,DELTA,COLORADO,81416,COLORADO,
DELTA REGIONAL UNIT,880 EAST GAINES STREET,DERMOTT,ARKANSAS,71638,ARKANSAS,
DEMPSIE HENLEY STATE JAIL,7581 Hwy 321,Dayton,TEXAS,77535,TEXAS,
DENMAR CORRECTIONAL CENTER,HC64 BOX 125,HILLSBORO,WEST VIRGINIA,24946,WEST VIRGINIA,
DENVER RECEPTION & DIAGNOSTIC CENTER,10900 SMITH ROAD,DENVER,COLORADO,80239,COLORADO,
DENVER WOMEN'S CORRECTIONAL FACILITY,3600 HAVANA,DENVER,COLORADO,80239,COLORADO,
DES MOINES WOMEN'S RESIDENTIAL FACILITY,1917 HICKMAN ROAD,DES MOINES,IOWA,50314,IOWA,
DESOTO ANNEX,HIGHWAY 70 EAST,ARCADIA,FLORIDA,34266,FLORIDA,
DESOTO CORRECTIONAL INSTITUTION,HIGHWAY 70 EAST,"ARCADIA, FL",FLORIDA,34266,FLORIDA,
DEUEL VOCATIONAL INSTITUTION,23500 KASSON ROAD,TRACY,CALIFORNIA,95304,CALIFORNIA,
DEVENS CAMP,42 PATTON ROAD,AYER,FEDERAL,1432,MASSACHUSETTS,
DEVENS FMC,42 PATTON ROAD,AYER,FEDERAL,1432,MASSACHUSETTS,
DEVIL'S GARDEN CONSERVATION CAMP,2300 COUNTY RD 74,ALTURAS,CALIFORNIA,96101,CALIFORNIA,
DIAGNOSTIC & EVALUATION CENTER,3220 WEST VAN DORN,LINCOLN,NEBRASKA,68522,NEBRASKA,
DIBOLL CORRECTIONAL CENTER,1604 S 1ST STREET,Diboll,TEXAS,75941,TEXAS,
DICK CONNER CORRECTIONAL CENTER,129 CONNER ROAD,HOMINY,OKLAHOMA,74035,OKLAHOMA,
DICK WARE TRANSFER FACILITY,1681 South FM 3525,Colorado City,TEXAS,79512,TEXAS,
DIERSEN CHARTIES MEMPHIS,1629 WINCHESTER ROAD,MEMPHIS,TENNESSEE,38116,TENNESSEE,
DIERSEN NASHVILLE,808 LEA STREET,NASHVILLE,TENNESSEE,37203,TENNESSEE,
DILLWYN CORRECTIONAL CENTER,1522 PRISON ROAD,DILLWYN,VIRGINIA,23936,VIRGINIA,
DINSMORE WORK RELEASE CENTER,13200 OLD KINGS ROAD,JACKSONVILLE,FLORIDA,32219,FLORIDA,
Dismas CCC - Tucson,3443 S. Richey Blvd,Tucson,ARIZONA,85713,ARIZONA,
Dismas Charities - Diersen,128 West Oaks street,Louisville,KENTUCKY,40210,KENTUCKY,
DISMAS CHARITIES - LEXINGTON,909 GEORGETOWN STREET,LEXINGTON,KENTUCKY,40511,KENTUCKY,
DISMAS CHARITIES - LOUISVILLE,124 WEST OAK STREET,LOUISVILLE,KENTUCKY,40203,KENTUCKY,
DISMAS CHARITIES - PORTLAND,1501 LYTLE STREET,LOUISVILLE,KENTUCKY,40203,KENTUCKY,
DISMAS CHARITIES - ST. ANN'S,1515 ALGONQUIN PARKWAY,LOUISVILLE,KENTUCKY,40210,KENTUCKY,
Dismas Charities - St. Patrick's,1301 West Market Street,Louisville,KENTUCKY,40203,KENTUCKY,
Dismas Charities CCC,307 N. Church Street,Greensboro,NORTH CAROLINA,27401,NORTH CAROLINA,
DISMAS CHARITIES OWENSBORO,615 CARLTON DRIVE,OWENSBORO,KENTUCKY,42303,KENTUCKY,
"DISMAS CHARITIES, CSC - Albuquerque","2331 MENAUL BLVD, NE",ALBUQUERQUE,NEW MEXICO,87107,NEW MEXICO,
"Dismas Charities, CSC - El Paso",7011 ALAMEDA AVENUE,El Paso,TEXAS,79915,TEXAS,
"Dismas Charities, CSC - Laredo",6752 GILBERT ROAD,Laredo,TEXAS,78041,TEXAS,
"DISMAS CHARITIES, CSC - Las Cruces",1595 W PICACHO,LAS CRUCES,NEW MEXICO,88005,NEW MEXICO,
"Dismas Charities, CSC - Midland",24 INDUSTRIAL LOOP,Midland,TEXAS,79701,TEXAS,
"Dismas House Charities, Inc",141 NW 1st avenue,Dania,FLORIDA,33004,FLORIDA,
Dismas House of Macon,744 2nd Street,Macon,GEORGIA,31201,GEORGIA,
Dismas House of Saint Louis,5025 Cote Brillainte,Saint Louis,MISSOURI,63113,MISSOURI,
DIXON CORRECTIONAL CENTER,2600 N BRINTON AVENUE,DIXON,ILLINOIS,61021,ILLINOIS,
DIXON CORRECTIONAL INSTITUTE,5568 HIGHWAY 68,JACKSON,LOUISIANA,70748,LOUISIANA,
DIXON SPRINGS IMPACT INCARSERATION PROGRAM,"R. R. 2, Box 500",Golconda,ILLINOIS,62938,ILLINOIS,
DODGE CORRECTIONAL INSTITUTION,1 W. LINCOLN STREET,WAUPUN,WISCONSIN,53963,WISCONSIN,
DODGE STATE PRISON,2971 OLD BETHEL ROAD,CHESTER,GEORGIA,31012,GEORGIA,
DOLPH BRISCOE UNIT,1459 West Hwy 85,Dilley,TEXAS,78017,TEXAS,
DONALDSON CORRECTIONAL FACILITY,100 WARRIOR LANE,BESSEMER,ALABAMA,35023,ALABAMA,
DOOLY STATE PRISON,1412 PLUNKETT ROAD,UNADILLA,GEORGIA,31091,GEORGIA,
DOWNEAST CORRECTIONAL FACILITY,64 BASE ROAD,MACHIASPORT,MAINE,4655,MAINE,
DOWNSTATE CORRECTIONAL FACILITY,121 RED SCHOOLHOUSE ROAD,FISHKILL,NEW YORK,12524,NEW YORK,
DR. LANE MURRAY UNIT,1916 N HWY 36 BYPASS,Gatesville,TEXAS,76596,TEXAS,
DRAPELICK CENTER,1095 BKLUE HILLS AVENUE,BLOOMFIELD,CONNECTICUT,6002,CONNECTICUT,
DRAPER CORRECTIONAL FACILITY,2828 ALABAMA HIGHWAY 143,ELMORE,ALABAMA,36025,ALABAMA,
DRAPER STATE PRISON,P.O. Box 250,Draper,UTAH,84020,UTAH,
DRC (116),3200 HENRY AVENUE,PHILADELPHIA,PENNSYLVANIA,19129,PENNSYLVANIA,
Drug Abuse Correctional Center,4280 North Sherman Road,Winnebago,WISCONSIN,54985,WISCONSIN,
DUBLIN - CAMP,5701 8TH ST - Camp Parks,DUBLIN,FEDERAL,94568,CALIFORNIA,
Dublin FCI,5701 8TH ST - CAMP PARKS,DUBLIN,FEDERAL,94568,CALIFORNIA,
DUBUQUE RESIDENTIAL FACILITY,1494 ELM STREET,DUBUQUE,IOWA,52001,IOWA,
DULUTH FPC,4464 RALSTON DRIVE,DULUTH,MINNESOTA,55811,MINNESOTA,
DUPLIN CORRECTIONAL CENTER,364 HWY 11 SOUTH & 903,KENANSVILLE,NORTH CAROLINA,28349,NORTH CAROLINA,
DUQUOIN IMPACT INCARSERATION PROGRAM,"275 Agriland Acres, R.R. 1",DUQUOIN,ILLINOIS,62832,ILLINOIS,
DWIGHT CORRECTIONAL CENTER,23813 E. 3200 North Road,Dwight,ILLINOIS,60420,ILLINOIS,
"E.P. HORIZON MGT., LLC","1700 N. Horizon Blvd., Dorm F",Horizon City,TEXAS,79927,TEXAS,
EARNEST C. BROOKS CORRECTIONAL FACILITY,2500 SOUTH SHERIDAN DRIVE,MUSKEGON HEIGHTS,MICHIGAN,49444,MICHIGAN,
EAST ARKANSAS REGIONAL UNIT,326 LEE 601,BRICKEYS,ARKANSAS,72320,ARKANSAS,
EAST BATON ROUGE TWP,2867 GENERAL ISSAC SMITH AVENUE,BATON ROUGE,LOUISIANA,70807,LOUISIANA,
EAST BOISE COMMUNITY WORK CENTER,2366 OLD PENITENTIARY RD.,BOISE,IDAHO,83712,IDAHO,
EAST FELICIANA CONTRACT TWP,12306 HAYNES STREET,CLINTON,LOUISIANA,70722,LOUISIANA,
EAST JERSEY STATE PRISON,1100 Rahway Avenue,Avenel,NEW JERSEY,7001,NEW JERSEY,
EAST MISSISSIPPI CORRECTIONAL FACILITY,10641 HIGHWAY 80 WEST,MERIDIAN,MISSISSIPPI,39307,MISSISSIPPI,
EAST MOLINE CORRECTIONAL CENTER,100 Hillcrest Road,East Moline,ILLINOIS,61244,ILLINOIS,
East Moline Work Camp,100 Hillcrest Road,East Moline,ILLINOIS,61244,ILLINOIS,
EAST TEXAS MULTI-USE FACILITY,900 Industrial Drive,Henderson,TEXAS,75653,TEXAS,
EASTERLING CORRECTIONAL FACILITY,200 WALLACE DRIVE,CLIO,ALABAMA,36017,ALABAMA,
EASTERN CORRECTIONAL INSTITUTION,30420 REVELLS NECK ROAD,WESTOVER,MARYLAND,21890,MARYLAND,
EASTERN CORRECTIONAL INSTITUTION,2821 HWY 903 N,MAURY,NORTH CAROLINA,28554,NORTH CAROLINA,
EASTERN CORRECTIONAL INSTITUTION-ANNEX,30430 REVELLS NECK ROAD,WESTOVER,MARYLAND,21890,MARYLAND,
EASTERN KENTUCKY CORRECTIONAL COMPLEX,200 ROAD TO JUSTICE,WEST LIBERTY,KENTUCKY,41472,KENTUCKY,
EASTERN NY CORRECTIONAL  FACILITY,30 INSTITUTION ROAD,NAPANOCH,NEW YORK,12458,NEW YORK,
EASTERN OREGON CORRECTIONAL INSTITUTION,2500 WESTGATE,PENDLETON,OREGON,97801,OREGON,
EASTERN PRE-RELEASE UNIT,700 FLAT IRON SQUARE ROAD,CHURCH HILL,MARYLAND,21623,MARYLAND,
EASTERN RECEPTION DIAGNOSTIC & CORR CTR,2727 HIGHWAY K,BONNE TERRE,MISSOURI,63628,MISSOURI,
EASTHAM UNIT,2665 PRISON ROAD #1,Lovelady,TEXAS,75851,TEXAS,
Ecumenical House,6753 Cezanne Avenue,Baton Rouge,LOUISIANA,70806,LOUISIANA,
EDDIE WARRIOR CORRECTIONAL CENTER,400 OAK STREET,TAFT,OKLAHOMA,74463,OKLAHOMA,
EDDY CENTER,1 LABELLA CIRCLE,MIDDLETOWN,CONNECTICUT,6457,CONNECTICUT,
EDEN CI,702 EAST BROADWAY,EDEN,TEXAS,76837,TEXAS,
EDGECOMBE CORRECTIONAL FACILITY,611 Edgecombe Avenue,New York,NEW YORK,10032,NEW YORK,
EDGEFIELD FCI,501 GARY HILL ROAD,EDGEFIELD,SOUTH CAROLINA,29824,SOUTH CAROLINA,
EDGEFIELD-CAMP,501 GARY HILL ROAD,EDGEFIELD,SOUTH CAROLINA,29824,SOUTH CAROLINA,
EDINBURGH CORRECTIONAL FACILITY,23RD & SCHOOLHOUSE RD,EDINBURGH,INDIANA,46124,INDIANA,
EDNA MAHAN CORRECTIONAL FACILITY FOR WOMEN,30 COUNTY ROUTE 513,Clinton,NEW JERSEY,8809,NEW JERSEY,
EEL RIVER CONSERVATION CAMP,3850 REDWOOD DR,REDWAY,CALIFORNIA,95560,CALIFORNIA,
EFFINGHAM COUNTY PRISON,321 HIGHWAY 119 SOUTH,SPRINGFIELD,GEORGIA,31329,GEORGIA,
EFFORTS FROM EX-CONVICTS,1514 8TH STREET NW,WASHINGTON,DISTRICT OF COLUMBIA,20001,DISTRICT OF COLUMBIA,
EL DORADO CORRECTIONAL FACILITY,1737 SE US HWY 54,EL DORADO,KANSAS,67042,KANSAS,
El Monte Center- Cornell Corrections,11750 Ramona Blvd,El Monte,CALIFORNIA,91732,CALIFORNIA,
EL PASO TRANSITIONAL CENTER  (SOUTH),1650 Horizon Blvd,El Paso,TEXAS,79928,TEXAS,
EL PASO TRANSITIONAL CENTER (NORTH),1700 Horizon Blvd.,"El Paso,",TEXAS,79928,TEXAS,
EL RENO FCI,4205 HIGHWAY 66 WEST,EL RENO,OKLAHOMA,73036,OKLAHOMA,
EL RENO-CAMP,4205 HIGHWAY 66 WEST,EL RENO,OKLAHOMA,73036,OKLAHOMA,
ELANOR CHASE HOUSE WORK RELEASE,427 W 7th Ave,Spokane,WASHINGTON,99204,WASHINGTON,
ELAYN HUNT CORRECTIONAL CENTER,6925 HIGHWAY 74,ST. GABRIEL,LOUISIANA,70776,LOUISIANA,
ELBA COMMUNITY Based Facility,1620 BOSWELL STREET,ELBA,ALABAMA,36323,ALABAMA,
ELK CITY COMMUNITY WORK CENTER,1309 AIRPORT INDUSTRIAL ROAD,ELK CITY,OKLAHOMA,73648,OKLAHOMA,
ELKTON FCI,8730 SCROGGS ROAD,ELKTON,FEDERAL,44432,OHIO,
ELKTON FSL,8730 SCROGGS ROAD,ELKTON,FEDERAL,44432,OHIO,
ELLEN HALBERT SUBSTANCE ABUSE FELONY PUNISHMENT FACILITY,800 Ellen Halbert Drive,Burnet,TEXAS,78611,TEXAS,
ELLSWORTH CORRECTIONAL FACILITY,1607 STATE STREET,ELLSWORTH,KANSAS,67439,KANSAS,
ELMIRA CORRECTIONAL FACILITY,1879 DAVIS STREET,ELMIRA,NEW YORK,14901,NEW YORK,
ELMORE CORRECTIONAL FACILITY,3520 MARION SPILLWAY ROAD,ELMORE,ALABAMA,36025,ALABAMA,
ELY CONSERVATION CAMP,HORSE & CATTLE CAMP ROAD,ELY,NEVADA,89301,NEVADA,
ELY STATE PRISON,4569 NORTH STATE RT. 490,ELY,NEVADA,89301,NEVADA,
EMANUEL PROBATION DETENTION CTR,121 CASA DRIVE,TWIN CITY,GEORGIA,30471,GEORGIA,
EMANUEL WOMEN'S FACILITY,714 GUMLOG ROAD,SWAINSBORO,GEORGIA,30401,GEORGIA,
ENFIELD CORRECTIONAL INSTITUTION,289 SHAKER RD,ENFIELD,CONNECTICUT,6082,CONNECTICUT,
ENGLEWOOD - CAMP,9595 WEST QUINCY AVENUE,LITTLETON,FEDERAL,80123,COLORADO,
Englewood FCI,9595 WEST QUINCY AVENUE,LITTLETON,FEDERAL,80123,COLORADO,
ENID COMMUNITY CORRECTIONS CENTER,2020 E. MAINE AVENUE,ENID,OKLAHOMA,73701,OKLAHOMA,
ENTERPRISE HOUSE,500-532 WEST AVENUE,BRIDGEPORT,CONNECTICUT,6604,CONNECTICUT,
ERIE CENTER (304),137 W 2ND STREET,ERIE,PENNSYLVANIA,16507,PENNSYLVANIA,
ESTILL FCI,100 PRISON ROAD,ESTILL,FEDERAL,29918,SOUTH CAROLINA,
ESTILL-CAMP,100 PRISON ROAD,ESTILL,FEDERAL,29918,SOUTH CAROLINA,
EVANS CORRECTIONAL  INSTITUTION,610 HIGHWAY 9 WEST,BENNETTSVILLE,SOUTH CAROLINA,29512,SOUTH CAROLINA,
EVERGLADES CORRECTIONAL INSTITUTION,1599 SW 187TH AVE,MIAMI,FLORIDA,33194,FLORIDA,
FABIAN DALE DOMINGUEZ STATE JAIL,6535 Cagnon Road,San Antonio,TEXAS,78252,TEXAS,
FAIRBANKS CORRECTIONAL CENTER,1931 EGAN AVENUE,FAIRBANKS,ALASKA,99701,ALASKA,
FAIRTON CAMP,655 FAIRTON-MILLVILLE ROAD,FAIRTON,FEDERAL,8320,NEW JERSEY,
FAIRTON FCI,655 FAIRTON-MILLVILLE ROAD,FAIRTON,FEDERAL,8320,NEW JERSEY,
Fairview/Reynolds & Associates Inc.,1430 G Street NE,Washington,DISTRICT OF COLUMBIA,20002,DISTRICT OF COLUMBIA,
FAMILY FOUNDATIONS PROGRAM - FRESNO,2855 WEST WHITESBRIDGE AVENUE,FRESNO,CALIFORNIA,93706,CALIFORNIA,
Family Guidance Center at Triangle Center,120 North 11th Street,Springfield,ILLINOIS,62703,ILLINOIS,
FARMINGTON CORRECTIONAL CENTER,1012 WEST COLUMBIA STREET,FARMINGTON,MISSOURI,63640,MISSOURI,
FARQUHAR CATTLE RANCH,1132 COUNTY ROAD 73,GREENSBORO,ALABAMA,36744,ALABAMA,
FELLOWSHIP HOUSE,466 LONG HILL ROAD,GROTON,CONNECTICUT,6340,CONNECTICUT,
FELMERS CHANEY CORRECTIONAL CENTER,2825 NORHT 30TH STREET,MILWAUKEE,WISCONSIN,53210,WISCONSIN,
FEMALE REHABILITATIVE CORRECTIONAL COMMUNITY CENTER (FRCCC),1932 JESSIE STREET,BAKERSFIELD,CALIFORNIA,93305,CALIFORNIA,
FENNER CANYON CONSERVATION CAMP,FOREST SERVICE ROAD 4N55,VALYERMO,CALIFORNIA,93563,CALIFORNIA,
FENWICK HOUSE (NJAC),369-371 MARKET STREET,Patterson,NEW JERSEY,7501,NEW JERSEY,
FIELD HOUSE (VOA/N),45 LENOX AVENUE,East Orange,NEW JERSEY,7018,NEW JERSEY,
FISHKILL CORRECTIONAL FACILTY,18 Strack Drive,Beacon,NEW YORK,12508,NEW YORK,
FIVE POINTS CORRECTIONAL FACILITY,6600 STATE ROUTE 96,ROMULUS,NEW YORK,14541,NEW YORK,
FLAMBEAU CORRECTIONAL CENTER,N671 COUNTY RD M,HAWKINS,WISCONSIN,54530,WISCONSIN,
FLETCHER HOUSE (VOA/DV),517 PENN STREET,Camden,NEW JERSEY,8102,NEW JERSEY,
Florence Admax USP,5880 HWY 67 SOUTH,FLORENCE,COLORADO,81226,COLORADO,
Florence FCI,5880 HWY 67 SOUTH,FLORENCE,COLORADO,81226,COLORADO,
Florence High USP,5880 HWY 67 SOUTH,FLORENCE,COLORADO,81226,COLORADO,
FLORENCE MCCLURE WOMEN'S CORRECTIONAL CENTER,4370 SMILEY ROAD,NORTH LAS VEGAS,NEVADA,89115,NEVADA,
FLORENCE USP - CAMP,5880 HWY 67 SOUTH,FLORENCE,COLORADO,81226,COLORADO,
FLORIDA STATE PRISON MAIN,7819 NW 228TH STREET,RAIFORD,FLORIDA,32026,FLORIDA,
FLORIDA STATE PRISON WEST,S.R. 16 WEST,RAIFORD,FLORIDA,32026,FLORIDA,
FLOWOOD RESTITUTION CENTER,1632 HIGHWAY 80 EAST,FLOWOOD,MISSISSIPPI,39232,MISSISSIPPI,
FLOYD COUNTY PRISON,"329 BLACK BLUFF ROAD, SW",ROME,GEORGIA,30161,GEORGIA,
FLUVANNA CORRECTIONAL CENTER,144 Prison Lane Rt. 250 west,Troy,VIRGINIA,22974,VIRGINIA,
FOLSOM STATE PRISON,300 PRISON ROAD,REPRESA,CALIFORNIA,95671,CALIFORNIA,
FOOTHILLS CORRECTIONAL INSTITUTION,5150 WESTERN AVE,MORGANTON,NORTH CAROLINA,28655,NORTH CAROLINA,
FORMBY STATE JAIL,998 COUNTY ROAD AA,Plainview,TEXAS,79072,TEXAS,
Forrest City FCI,1400 DALE BUMPERS ROAD,FORREST CITY,ARKANSAS,72335,ARKANSAS,
FORREST CITY FCI - CAMP,1400 DALE BUMPERS ROAD,FORREST CITY,ARKANSAS,72335,ARKANSAS,
Forrest City Med FCI,1400 DALE BUMPERS ROAD,FORREST CITY,ARKANSAS,72335,ARKANSAS,
FORREST COUNTY COMMUNITY WORK CENTER,112 ALCORN AVENUE,HATTIESBURG,MISSISSIPPI,39401,MISSISSIPPI,
FORSYTH CORRECTIONAL CENTER,307 CRAFT DRIVE,WINSTON-SALEM,NORTH CAROLINA,27105,NORTH CAROLINA,
FORT DES MOINES COMMUNITY  CORRECTIONS FACILITY - BLDG 68,68 THAYER STREET,DES MOINES,IOWA,50315,IOWA,
FORT DES MOINES COMMUNITY CORRECTIONS FACILITY - BRIDGES UNIT,65 GRUBER STREET,DES MOINES,IOWA,50314,IOWA,
FORT DES MOINES COMMUNITY CORRECTIONS FACILITY - HONORS UNIT,65 GRUBER STREET,DES MOINES,IOWA,50315,IOWA,
FORT DES MOINES RESIDENTIAL FACILITY - BLDG 70,70 THAYER STREET,DES MOINES,IOWA,50315,IOWA,
FORT DIX CAMP,5756 HARTFORD & POINTVILLE ROAD,FORT DIX,NEW JERSEY,8640,NEW JERSEY,
FORT DIX FCI,5756 HARTFORD & POINTVILLE RD,FORT DIX,NEW JERSEY,8640,NEW JERSEY,
FORT DODGE CORRECTIONAL FACILITY,1550 L STREET,FORD DODGE,IOWA,50501,IOWA,
FORT DODGE RESIDENTIAL CENTER,311 1ST AVENUE S,FORT DODGE,IOWA,50501,IOWA,
FORT STOCKTON TRANSFER FACILITY,1536 IH 10 East,Fort Stockton,TEXAS,79735,TEXAS,
Fort Worth FCI,3150 HORTON ROAD,FORT WORTH,TEXAS,76119,TEXAS,
FORT WORTH TRANSITIONAL CENTER,600 North Henderson,Fort Worth,TEXAS,76107,TEXAS,
FOUNTAIN CORRECTIONAL CENTER FOR WOMEN,300 FOUNTAIN SCHOOL ROAD,ROCKY MOUNT,NORTH CAROLINA,27804,NORTH CAROLINA,
FOUNTAIN CORRECTIONAL FACILITY,9677 HIGHWAY 21 NORTH,ATMORE,ALABAMA,36503,ALABAMA,
FOUR MILE CORRECTIONAL CENTER,E US HIGHWAY 50 & EVANS BOULEVARD,CANON CITY,COLORADO,81212,COLORADO,
FOX LAKE CORRECTIONAL INSTITUTION,W10237 LAKE EMILY RD,FOX LAKE,WISCONSIN,53933,WISCONSIN,
FOX VALLEY ADULT TRANSITION CENTER,1329 North Lake Street,Aurora,ILLINOIS,60506,ILLINOIS,
FRANCISQUITO CONSERVATION CAMP,35100 N SAN FRANCISCO CANYON RD,SANTA CLARITA,CALIFORNIA,91390,CALIFORNIA,
FRANK LEE Work Release,5305 Ingram Rd,Deatsville,ALABAMA,36022,ALABAMA,
FRANKLIN CO. RE-ENTRY (292),1804 OPPORTUNITY AVE,CHAMBERSBURG,PENNSYLVANIA,17201,PENNSYLVANIA,
FRANKLIN CORRECTIONAL CENTER,5918 NC HIGHWAY 39 SOUTH,BUNN,NORTH CAROLINA,27508,NORTH CAROLINA,
FRANKLIN CORRECTIONAL FACILITY,62 BARE HILL ROAD,MALONE,NEW YORK,12953,NEW YORK,
FRANKLIN CORRECTIONAL INSTITUTION,1760 HIGHWAY 67N,CARRABELLE,FLORIDA,32322,FLORIDA,
FRANKLIN MEDICAL CENTER,1800 HARMON AVENUE,COLUMBUS,OHIO,43223,OHIO,
FREDERICK COMMUNITY WORK CENTER,"18205 COUNTY ROAD, NS 215",FREDERICK,OKLAHOMA,73542,OKLAHOMA,
FREMONT CORRECTIONAL CENTER,2588 W 2365 S,SALT LAKE CITY,UTAH,84119,UTAH,
FREMONT CORRECTIONAL FACILITY,E US HIGHWAY 50 & EVANS BOULEVARD,CANON CITY,COLORADO,81215,COLORADO,
FRENCH ROBERTSON UNIT,12071 FM 3522,Abilene,TEXAS,79601,TEXAS,
FT. MYERS WORK CAMP,2575 ORTIZ AVE.,FT. MYERS,FLORIDA,33905,FLORIDA,
FT. PIERCE WORK RELEASE CENTER,1203 BELL AVENUE,FORT PIERCE,FLORIDA,34982,FLORIDA,
FULTON RECEPTION & DIAGNOSTIC CENTER,12393 Highway O,Fulton,MISSOURI,65251,MISSOURI,
G. ROBERT COTTON CORRECTIONAL FACILITY,3500 NORTH ELM ROAD,JACKSON,MICHIGAN,49201,MICHIGAN,
GABILAN CONSERVATION CAMP,ROUTE 1,SOLEDAD,CALIFORNIA,94694,CALIFORNIA,
GADSDEN CORRECTIONAL FACILITY,6044 GREENSBORO HWY,QUNICY,FLORIDA,32351,FLORIDA,
GAINESVILLE CORRECTIONAL INST WORK CAMP,1000 NE 55TH BLVD.,GAINESVILLE,FLORIDA,32609,FLORIDA,
GALLATIN COUNTY REENTRY PROGRAM,675 S. 16TH AVE,BOZEMAN,MONTANA,59715,MONTANA,
Garden Grove Residential Re-entry Center,11112 Barclay Dr.,Garden Grove,CALIFORNIA,92841,CALIFORNIA,
GARDEN STATE YOUTH CORRECTIOAL FACILITY,HIGHBRIDGE ROAD,YARDVILLE,NEW JERSEY,8620,NEW JERSEY,
GARFIELD COUNTY COMMUNITY CORRECTIONS,0224 COUNTY ROAD 333A,RIFLE,COLORADO,81650,COLORADO,
GARNER CORRECTIONAL INSTITUTION,50 NUNNAWAUK ROAD,NEWTOWN,CONNECTICUT,6470,CONNECTICUT,
GARRETT HOUSE-VOA/DV,509 COOPER STREET,Camden,NEW JERSEY,8102,NEW JERSEY,
GARZA EAST TRANSFER FACILITY,4304 HWY 202,Beeville,TEXAS,78102,TEXAS,
GARZA WEST TRANSFER FACILITY,4250 HWY 202,Beeville,TEXAS,78102,TEXAS,
GASTON CORRECTIONAL CENTER,520 JUSTICE COURT,DALLAS,NORTH CAROLINA,28034,NORTH CAROLINA,
GATEWAY- BRADDOCK (321),426 GEORGE STREET,BRADDOCK,PENNSYLVANIA,15104,PENNSYLVANIA,
GATEWAY- ERIE (322),1928 WAGNER ROAD,ERIE,PENNSYLVANIA,16510,PENNSYLVANIA,
GATEWAY- SHEFFIELD TOWERS (324),100 SUPERIOR AVE,ALIQUIPPA,PENNSYLVANIA,15001,PENNSYLVANIA,
Gateways RRC,1801 Lakeshore Drive,Los Angeles,CALIFORNIA,90026,CALIFORNIA,
GAUDENZIA - SIENA HOUSE (225),2101 N. CAMERON STREET,HARRISBURG,PENNSYLVANIA,17110,PENNSYLVANIA,
GAUDENZIA CROSSROADS HALL- ERIE (309),414 WEST 5TH STREET,ERIE,PENNSYLVANIA,16507,PENNSYLVANIA,
GAUDENZIA- CONCEPT 90 (227),124 E. AZALEA DRIVE,HARRISBURG,PENNSYLVANIA,17110,PENNSYLVANIA,
GAUDENZIA- FIRST (126),1306 SPRING GARDEN ST,PHILADELPHIA,PENNSYLVANIA,19123,PENNSYLVANIA,
GAUDENZIA- PHILLY HOUSE (133),2100 W VENANGO ST,PHILADELPHIA,PENNSYLVANIA,19140,PENNSYLVANIA,
GAUDENZIA- WEST CHESTER (106),1030 S. CONCORD RD,WEST CHESTER,PENNSYLVANIA,19382,PENNSYLVANIA,
Genesis Residential Reentry Center,3875 LILLIBRIDGE,Detroit,MICHIGAN,48214,MICHIGAN,
GEORGE BETO UNIT,1391 FM 3328,Tennessee Colony,TEXAS,75880,TEXAS,
GEORGE COUNTY COMMUNITY WORK CENTER,156 INDUSTRIAL PARK ROAD,LUCEDALE,MISSISSIPPI,39452,MISSISSIPPI,
GEORGE/GREENE COUNTY CORRECTIONAL FACILITY,154 INDUSTRIAL PARK ROAD,LUCEDALE,MISSISSIPPI,39452,MISSISSIPPI,
GEORGIA DIAGNOSTIC AND CLASSIFICATION STATE PRISON,"2979 HWY 36, West",Jackson,GEORGIA,30233,GEORGIA,
GEORGIA STATE PRISON,300 1ST AVENUE SOUTH,REIDSVILLE,GEORGIA,30453,GEORGIA,
GERALD R. HINZMAN RESIDENTIAL FACILITY,1051 29TH AVENUE SW,CEDAR RAPIDS,IOWA,52404,IOWA,
GIB LEWIS UNIT,777 FM 3497,Woodville,TEXAS,75990,TEXAS,
GILMER FCI,201 FCI LANE,GLENVILLE,FEDERAL,26351,WEST VIRGINIA,
GILMER-CAMP,201 FCI LANE,GLENVILLE,FEDERAL,26351,WEST VIRGINIA,
GLACIER MANOR,5597 AISEK STREET,Juneau,ALASKA,99801,ALASKA,
GLADES WORK CAMP,2600 STATE ROAD 15,BELLE GLADE,FLORIDA,33430,FLORIDA,
GLEN RAY GOODMAN TRANSFER FACILITY,349 Private Road 8430,Jasper,TEXAS,75951,TEXAS,
GLENWOOD CENTER,835 D STREET,Anchorage,ALASKA,99501,ALASKA,
GLORY HOUSE OF SIOUX FALLS,4000 S WEST AVENUE,SIOUX FALLS,SOUTH DAKOTA,57109,SOUTH DAKOTA,
GLORY HOUSE SANDS FREEDOM CENTER,3930 S. WEST,SIOUX FALLS,SOUTH DAKOTA,57109,SOUTH DAKOTA,
GLOSSBRENNER SUBSTANCE ABUSE FELONY PUNISHMENT FACILITY,5100 SOUTH FM 1329,San Diego,TEXAS,78384,TEXAS,
Golden State Modified Community Correctional Facility - GEO,611 FRONTAGE ROAD,MCFARLAND,CALIFORNIA,93250,CALIFORNIA,
GOODMAN CORRECTIONAL INSTITUTION,4456 BROAD RIVER ROAD,COLUMBIA,SOUTH CAROLINA,29210,SOUTH CAROLINA,
GORDON CORRECTIONAL CENTER,10401 EAST COUNTY ROAD G,GORDON,WISCONSIN,54838,WISCONSIN,
GOUVERNEUR CORRECTIONAL FACILITY,112 SCOTCH SETTLEMENT ROAD,GOUVERNEUR,NEW YORK,13642,NEW YORK,
GOWANDA CORRECTIONAL FACILITY,SOUTH ROAD,GOWANDA,NEW YORK,14070,NEW YORK,
GRACEVILLE CORRECTIONAL FACILITY,5168 EZELL ROAD,GRACEVILLE,FLORIDA,32440,FLORIDA,
GRACEVILLE WORK CAMP,5230 EZELL STREET,GRACEVILLE,FLORIDA,32440,FLORIDA,
GRAFTON CORRECTIONAL INSTITUTION,2500 SOUTH AVON BELDEN ROAD,GRAFTON,OHIO,44044,OHIO,
GRAHAM (CAMILLE GRIFFIN ) CORRECTIONAL INST,4450 BROAD RIVER ROAD,COLUMBIA,SOUTH CAROLINA,29210,SOUTH CAROLINA,
GRAHAM CORRECTIONAL CENTER,12078 Illinois Route 185,Hillsboro,ILLINOIS,62049,ILLINOIS,
GREAT FALLS PRE-RELEASE,1019 15TH STREET N,GREAT FALLS,MONTANA,59401,MONTANA,
Great Lakes Recovery Center,241 Wright Street,Marquette,MICHIGAN,49855,MICHIGAN,
GREAT MEADOW CORRECTIONAL FACILITY,11739 STATE ROUTE 22,COMSTOCK,NEW YORK,12821,NEW YORK,
GREEN BAY CORRECTIONAL INSTITUTION,2833 RIVERSIDE DRIVE,GREEN BAY,WISCONSIN,54301,WISCONSIN,
GREEN HAVEN CORRECTIONAL FACILITY,594 Route 216,Stormville,NEW YORK,12582,NEW YORK,
GREEN RIVER CORRECTIONAL COMPLEX,1200 RIVER ROAD,CENTRAL CITY,KENTUCKY,42330,KENTUCKY,
GREEN ROCK CORRECTIONAL CENTER,475 GREEN ROCK LANE,CHATHAM,VIRGINIA,24531,VIRGINIA,
Greenbrier Birthing Center - MINT,Denmar Road,Hillsboro,WEST VIRGINIA,24946,WEST VIRGINIA,
GREENE CORRECTIONAL  FACILITY,165 PLANK ROAD,COXSACKIE,NEW YORK,12051,NEW YORK,
GREENE CORRECTIONAL CENTER,2699 HWY 903 N,MAURY,NORTH CAROLINA,28554,NORTH CAROLINA,
GREENE COUNTY WORK CAMP,US 67 South,Roodhouse,ILLINOIS,62082,ILLINOIS,
GREENSVILLE CORRECTIONAL CENTER,901 CORRECTIONS WAY,JARRATT,VIRGINIA,23870,VIRGINIA,
GREENSVILLE WORK CENTER,901 Corrections Way,Jarratt,VIRGINIA,23870,VIRGINIA,
GREENVILLE - CAMP,100 U.S. HWY 40,GREENVILLE,ILLINOIS,62246,ILLINOIS,
GREENVILLE FCI,100 U.S. HWY 40,GREENVILLE,ILLINOIS,62246,ILLINOIS,
GREENWOOD RESTITUTION CENTER,308 HIGHWAY 7 NORTH REAR,GREENWOOD,MISSISSIPPI,38930,MISSISSIPPI,
GRIMES UNIT,300 CORRECTIONS DRIVE,NEWPORT,ARKANSAS,72112,ARKANSAS,
"Grossman Center - GEO Group, Inc",4715 Brewer Place,Leavenworth,KANSAS,66048,KANSAS,
GROVELAND CORRECTIONAL  FACILITY,7000 SONYEA ROAD,SONYEA,NEW YORK,14556,NEW YORK,
GROWLERBERG CONSERVATION CAMP,5440 LONGVIEW LANE,GEORGETOWN,CALIFORNIA,95634,CALIFORNIA,
GUADALUPE COUNTY CORR FACILITY-THE GEO GROUP,"SOUTH HWY, 54, EXIT 3B",SANTA ROSA,NEW MEXICO,88435,NEW MEXICO,
GULF CORRECTIONAL INSTITUTION,500 IKE STEELE ROAD,WEWAHITCHKA,FLORIDA,32465,FLORIDA,
GULF CORRECTIONAL INSTITUTION- ANNEX,699 IKE STEELE ROAD,WEWAHITCHKA,FLORIDA,32465,FLORIDA,
GULF FORESTRY CAMP,3222 DOC WHITFIELD RD.,WHITE CITY,FLORIDA,32465,FLORIDA,
GUNNISON PRISON,255 East 300 North,Gunnison,UTAH,84634,UTAH,
GUS HARRISON CORRECTIONAL FACILITY,2727 EAST BEECHER STREET,ADRIAN,MICHIGAN,49221,MICHIGAN,
GWINNETT COUNTY PRISON,750 HIGH HOPE ROAD,LAWRENCEVILLE,GEORGIA,30043,GEORGIA,
H.H. COFFIELD UNIT,2661 FM 2054,Tennessee Colony,TEXAS,75884,TEXAS,
HALAWA CORRECTIONAL FACILITY,99-902 Moanalua Hwy,Aiea,HAWAII,96701,HAWAII,
HALE CREEK ASA TREATMENT CENTER,279 Maloney Road,Johnstown,NEW YORK,12095,NEW YORK,
HALIFAX CORRECTIONAL UNIT,1200 FARM ROAD,South Boston,VIRGINIA,24592,VIRGINIA,
HALL COUNTY PRISON,1694 BARBER ROAD,GAINESVILLE,GEORGIA,30507,GEORGIA,
HAMILTON AGED & INFIRMED,223 SASSER DRIVE,HAMILTON,ALABAMA,35570,ALABAMA,
HAMILTON ANNEX,LAKE BASIN ROAD,JASPER,FLORIDA,32052,FLORIDA,
HAMILTON COMMUNITY Based Facility,1826 Beyar Avenue East,Hamilton,ALABAMA,35570,ALABAMA,
HAMILTON CORRECTIONAL INSTITUTION,10650 SW 46TH STREET,JASPER,FLORIDA,32052,FLORIDA,
HANCOCK STATE PRISON,701 Prison Boulvard,Sparta,GEORGIA,31087,GEORGIA,
HANNAH HOUSE (114),2831 NORTH HUTCHINSON STREET,PHILADELPHIA,PENNSYLVANIA,19133,PENNSYLVANIA,
HARDEE CORRECTIONAL INSTITUTION,6901 STATE RD 62,BOWLING GREEN,FLORIDA,33834,FLORIDA,
HARDEE CORRECTIONAL INSTITUTION WORK CAMP,6899 S.R. 62,BOWLING GREEN,FLORIDA,33834,FLORIDA,
HARDEMAN COUNTY CORRECTIONAL CENTER-CCA,2520 UNION SPRINGS ROAD,WHITEVILLE,TENNESSEE,38075,TENNESSEE,
HARDIN COUNTY WORK CAMP,"Box 99, Route 1",Cave-In-Rock,ILLINOIS,62919,ILLINOIS,
HARNETT CORRECTIONAL INSTITUTION,1210 E MCNEIL STREET,LILLINGTON,NORTH CAROLINA,27546,NORTH CAROLINA,
HARRIS COUNTY PRISON,9982 GEORGIA HIGHWAY 116,HAMILTON,GEORGIA,31811,GEORGIA,
HARRISBURG CENTER (203),27 N CAMERON STREET,HARRISBURG,PENNSYLVANIA,17101,PENNSYLVANIA,
HARRISON COUNTY COMMUNITY WORK CENTER,3820 8TH AVENUE,GULFPORT,MISSISSIPPI,39501,MISSISSIPPI,
HARRISONBURG MEN'S DIVERSION CENTER,6624 Beard Woods Lane,Harrisburg,VIRGINIA,22802,VIRGINIA,
HARTFORD CORRECTIONAL CENTER,177 WESTON STREET,HARTFORD,CONNECTICUT,6120,CONNECTICUT,
HARTFORD HOUSE,10 IRVING STREET,HARTFORD,CONNECTICUT,6112,CONNECTICUT,
Hattiesburg Community Correctional Center - Dismas Charities,5209 Hwy 42 Bypass,Hattiesburg,MISSISSIPPI,39401,MISSISSIPPI,
HAWAII COMMUNITY CORRECTIONAL CENTER,60 PUNAHELE STREET,HILO,HAWAII,96720,HAWAII,
HAYNESVILLE CORRECTIONAL CENTER,650 Barn-Field Road,Haynesville,VIRGINIA,22472,VIRGINIA,
HAYNESVILLE CORRECTIONAL UNIT #17,363 CAMP SEVENTEEN ROAD,HAYNESVILLE,VIRGINIA,22472,VIRGINIA,
HAYS STATE PRISON,777 Underwood Road,Trion,GEORGIA,30753,GEORGIA,
HAZEL D. PLANT WOMEN'S TREATMENT FACILITY,620 Baylor Boulevard,New Castle,DELAWARE,19720,DELAWARE,
HAZELTON USP,1640 SKY VIEW DRIVE,BRUCETON MILLS,FEDERAL,26525,WEST VIRGINIA,
HAZELTON-CAMP,1640 SKY VIEW DRIVE,BRUCETON MILLS,FEDERAL,26525,WEST VIRGINIA,
HAZELTON-FEMALE,1640 SKY VIEW DRIVE,BRUCETON MILLS,FEDERAL,26525,WEST VIRGINIA,
HAZLETON TREATMENT CTR (229),145 WEST BROAD STREET,HAZLETON,PENNSYLVANIA,18201,PENNSYLVANIA,
"Heartline, Inc",8201 Sylvester Street,Detroit,FEDERAL,48214,MICHIGAN,
HELEN B RATCLIFF WORK RELEASE,1531 13th Ave S,Seattle,WASHINGTON,98144,WASHINGTON,
HELENA PRE-RELEASE CENTER,805 COLLEN STREET,HELENA,MONTANA,59101,MONTANA,
Helms Facility,1275 CONSTITUTION ROAD,ATLANTA,GEORGIA,30316,GEORGIA,
HENNEPIN COUNTY ADULT CORRECTIONS FACILITY,1145 SHENANDOAH LANE,PLYMOUTH,MINNESOTA,55447,MINNESOTA,
HENRYVILLE CORRECTIONAL FACILITY,1504 SCHLAMN LAKE,HENRYVILLE,INDIANA,47126,INDIANA,
HERLONG - CAMP,741-925 ACCESS ROAD A-25,HERLONG,FEDERAL,96113,CALIFORNIA,
Herlong FCI,741-925 ACCESS ROAD A-25,HERLONG,FEDERAL,96113,CALIFORNIA,
HERNANDO CORRECTIONAL INSTITUTION,16415 SPRINGHILL DRIVE,BROOKSVILLE,FLORIDA,34604,FLORIDA,
HIGH DESERT STATE PRISON,475-750 RICE CANYON ROAD,SUSANVILLE,CALIFORNIA,96130,CALIFORNIA,
HIGH DESERT STATE PRISON,22010 COLD CREEK ROAD,INDIAN SPRINGS,NEVADA,89070,NEVADA,
HIGH ROCK CONSERVATION CAMP,2332 AVE OF THE GIANTS,WEOTT,CALIFORNIA,95571,CALIFORNIA,
HIGH SECURITY CENTER,54 POWER ROAD,CRANSTON,RHODE ISLAND,2920,RHODE ISLAND,
HILAND MOUNTAIN CORRECTIONAL CENTER,9101 HESTERBERG ROAD,EAGLE RIVER,ALASKA,99577,ALASKA,
HILL CORRECTIONAL CENTER,600 SOUTH LINWOOD ROAD,GALESBURG,ILLINOIS,61401,ILLINOIS,
Hillsborough Co CSC,4102 W Hillsborough Ave,Tampa,FEDERAL,-9,FLORIDA,
Hillside Community Corrections Center,3200 NW 39TH STREET,OKLAHOMA CITY,OKLAHOMA,73112,OKLAHOMA,
HILLSIDE COMMUNITY CORRECTIONS CENTER,3300 MARTIN LUTHER KING AVENUE,OKLAHOMA CITY,OKLAHOMA,73111,OKLAHOMA,
HILLTOP HOUSE,1050 AVENIDA DEL SOL,DURANGO,COLORADO,81301,COLORADO,
HILLTOP UNIT,1500 STATE SCHOOL ROAD,Gatesville,TEXAS,76598,TEXAS,
HINDS COUNTY RESTITUTION CENTER,429 SOUTH GALLATIN STREET,JACKSON,MISSISSIPPI,39203,MISSISSIPPI,
HOBART COMMUNITY WORK CENTER,311 S WASHINGTON STREET,HOBART,OKLAHOMA,73651,OKLAHOMA,
HOCKING CORRECTIONAL FACILITY,16759 SNAKE HOLLOW ROAD,NELSONVILLE,OHIO,45764,OHIO,
HOKE CORRECTIONAL INSTITUTION,243 OLD HIGHWAY 211,RAEFORD,NORTH CAROLINA,28376,NORTH CAROLINA,
HOLLIS COMMUNITY WORK CENTER,105 W JONES STREET,HOLLIS,OKLAHOMA,73550,OKLAHOMA,
HOLLYWOOD WORK RELEASE CENTER,8501 W. CYPRESS DRIVE,PEMBROKE PINES,FLORIDA,33025,FLORIDA,
HOLMAN CORRECTIONAL FACILITY,866 ROSS ROAD,ATMORE,ALABAMA,36503,ALABAMA,
HOLMES CORRECTIONAL INSTITUTION,3142 THOMAS DRIVE,BONIFAY,FLORIDA,32425,FLORIDA,
HOLMES WORK CAMP,3182 THOMAS DRIVE,BONIFAY,FLORIDA,32425,FLORIDA,
HOLMES/HUMPHREYS COUNTY CORRECTIONAL FACILITY,23234 HIGHWAY 12 EAST,LEXINGTON,MISSISSIPPI,39095,MISSISSIPPI,
HOMESTEAD CORRECTIONAL INSTITUTION,19000 SW 377TH STREET,FLORIDA CITY,FLORIDA,33034,FLORIDA,
HOPE HALL (VOA/DV),676 FAIRVIEW STREET,Camden,NEW JERSEY,8104,NEW JERSEY,
HOPE HOUSE RESIDENTIAL FACILITY,2501 HOLIDAY ROAD,CORALVILLE,IOWA,52241,IOWA,
"HOPE VILLAGE, INC","2840 LANGSTON PLACE, SE",WASHINGTON,DISTRICT OF COLUMBIA,20020,DISTRICT OF COLUMBIA,
HOSPITAL GALVESTON,809 HARBORSIDE DRIVE,Galveston,TEXAS,77555,TEXAS,
HOWARD MCLEOD CORRECTIONAL CENTER,1970 E WHIPPOORWILL LANE,ATOKA,OKLAHOMA,74525,OKLAHOMA,
HOWARD R. YOUNG CORRECTIONAL INSTITUTION,1301 E 12TH STREET,WILMINGTON,DELAWARE,19802,DELAWARE,
HUDSON CORRECTIONAL FACILITY,3001 NORTH JUNIPER STREET,HUDSON,COLORADO,80642,COLORADO,
HUDSON CORRECTIONAL FACILITY,50 EAST COURT STREET,HUDSON,NEW YORK,12534,NEW YORK,
HUMBOLDT CONSERVATION CAMP,8105 CONVERSATION ROAD,WINNEMUCCA,NEVADA,89446,NEVADA,
HUNTINGTON WORK RELEASE CENTER,1236 5TH AVE,HUNTINGTON,WEST VIRGINIA,25701,WEST VIRGINIA,
HUNTSVILLE UNIT,815 12TH STREET,Huntsville,TEXAS,77348,TEXAS,
HURON VALLEY CORRECTIONAL FACILITY - WOMEN,3201 Bemis Road,Ypsilanti,MICHIGAN,48197,MICHIGAN,
HUTCHINS STATE JAIL,1500 E LANGDON ROAD,Dallas,TEXAS,75241,TEXAS,
HUTCHINSON CORRECTIONAL FACILITY,500 REFORMATORY RD,HUTCHINSON,KANSAS,67501,KANSAS,
HUTTONSVILLE CORRECTIONAL CENTER,ROUTE 250 SOUTH,HUTTONSVILLE,WEST VIRGINIA,26273,WEST VIRGINIA,
HUTTONSVILLE WORK CAMP,ROUTE 250 SOUTH,HUTTONSVILLE,WEST VIRGINIA,26273,WEST VIRGINIA,
HYDE CORRECTIONAL INSTITUTION,620 PRISON ROAD,SWAN QUARTER,NORTH CAROLINA,27885,NORTH CAROLINA,
IBERIA TWP,3701 BROKEN ARROW ROAD,NEW IBERIA,LOUISIANA,70772,LOUISIANA,
IDABEL COMMUNITY WORK CENTER,1800 W MARTIN LUTHER KING ST.,IDABEL,OKLAHOMA,74745,OKLAHOMA,
IDAHO CORRECTIONAL CENTER,14601 PLEASANT VALLEY ROAD,KUNA,IDAHO,83634,IDAHO,
IDAHO CORRECTIONAL INSTITUTION - OROFINO,381 WEST HOSPITAL DRIVE,OROFINO,IDAHO,83544,IDAHO,
IDAHO FALLS COMMUNITY WORK CENTER,3955 BOMBARDIER AVENUE,IDAHO FALLS,IDAHO,83402,IDAHO,
IDAHO MAXIMUM SECURITY INSTITUTION,13400 PLEASANT VALLEY ROAD,KUNA,IDAHO,83634,IDAHO,
IDAHO STATE CORRECTIONAL INSTITUTION,13500 S PLEASANT VALLEY ROAD,KUNA,IDAHO,83634,IDAHO,
ILLINOIS RIVER CORRECTIONAL CENTER,"1300 W LOCUST STREET, Route 9 West",CANTON,ILLINOIS,61520,ILLINOIS,
INDEPENDENCE HOUSE  PECOS,4101 PECOS STREET,DENVER,COLORADO,80211,COLORADO,
INDEPENDENCE HOUSE - FILLMORE,1479 FILLMORE STREET,DENVER,COLORADO,80206,COLORADO,
INDIAN CREEK CORRECTIONAL CENTER,801 SANDERSON ROAD,CHESAPEAKE,VIRGINIA,23328,VIRGINIA,
INDIANA STATE PRISON,1 PARK ROW,MICHIGAN CITY,INDIANA,46360,INDIANA,
INDIANA WOMEN'S PRISON,2596 GIRL'S SCHOOL RD,INDIANAPOLIS,INDIANA,46214,INDIANA,
INDIANAPOLIS REENTRY EDUCATIONAL FACILITY,401 North Randolph Street,Indianapolis,INDIANA,46201,INDIANA,
Indianapolis Work Release (Liberty Hall),675 East Washington Street,Indianapolis,INDIANA,46184,INDIANA,
INTENSIVE REENTRY PROGRAM- Males and Females,3100 Cooper Street,Jackson,MICHIGAN,49201,MICHIGAN,
INTERMOUNTAIN CONSERVATION CAMP,651025 FOOTHILL ROAD,BIEBER,CALIFORNIA,96009,CALIFORNIA,
INTERVENTION COMMUNITY CORRECTIONS SERVICES,1101 H. STREET,GREELEY,COLORADO,80631,COLORADO,
INTERVENTION COMMUNITY CORRECTIONS SERVICES - JEFFCO,1651 KENDALL STREET,LAKEWOOD,COLORADO,80214,COLORADO,
INTERVENTION COMMUNITY CORRECTIONS SERVICES - WEST,11500 WEST SECURITY AVE,LAKEWOOD,COLORADO,80215,COLORADO,
IONIA CORRECTIONAL FACILITY,1576 WEST BLUEWATER HIGHWAY,IONIA,MICHIGAN,48846,MICHIGAN,
IOWA CORRECTIONAL INSTITUTE for WOMEN,300 ELM AVENUE SW,MITCHELLVILLE,IOWA,50169,IOWA,
IOWA MEDICAL & CLASSIFICATION CENTER,2700 CORAL RIDGE AVE.,CORALVILLE,IOWA,52241,IOWA,
IOWA STATE PENITENTIARY,3 JOHN BENNETT DRIVE,FORT MADISON,IOWA,52627,IOWA,
IRONWOOD STATE PRISON,19005 WILEY'S WELL ROAD,BLYTHE,CALIFORNIA,92226,CALIFORNIA,
ISAIAH HOUSE,"112, 120 and 341 Clinton Street",Bridgeport,CONNECTICUT,6605,CONNECTICUT,
ISHI CONSERVATION CAMP,30500 PLUM CREEK ROAD,PAYNES CREEK,CALIFORNIA,96075,CALIFORNIA,
ISSAQUENA COUNTY CORRECTIONAL FACILITY,22746 HIGHWAY 1 SOUTH,MAYERSVILLE,MISSISSIPPI,39113,MISSISSIPPI,
J. AARON HAWKINS CENTER,22522 ASHER ROAD,LITTLE ROCK,ARKANSAS,72206,ARKANSAS,
J. B. WHEELER STATE JAIL,986 COUNTY ROAD AA,Plainview,TEXAS,79072,TEXAS,
J. LEVY DABABIE CORRECTIONAL CENTER,1453 15TH STREET,PINEVILLE,LOUISIANA,71360,LOUISIANA,
J. O. Davis Correctional Facility,9681 Highway 21 North,Atmore,ALABAMA,36503,ALABAMA,
J.W. HAMILTON PRE-RELEASE FACILITY,200 Lee Morrison Lane,Bryan,TEXAS,77807,TEXAS,
JACKIE BRANNON CORRECTIONAL CENTER,900 N WEST STREET,MCALESTER,OKLAHOMA,74502,OKLAHOMA,
JACKSON CORRECTIONAL INSTITUTION,5563 10TH STREET,MALONE,FLORIDA,32445,FLORIDA,
JACKSON CORRECTIONAL INSTITUTION,N6500 HAIPEK RD.,BLACK RIVER FALLS,WISCONSIN,54615,WISCONSIN,
JACKSON COUNTY COMMUNITY WORK CENTER,1717 KENNETH AVENUE,PASCAGOULA,MISSISSIPPI,39567,MISSISSIPPI,
JACKSON COUNTY PRISON,255 CURTIS SPENCE DRIVE,JEFFERSON,GEORGIA,30549,GEORGIA,
JACKSON PARISH CORRECTIONAL CENTER - LaSalle,327 INDUSTRIAL DR.,JONESBORO,LOUISIANA,71251,LOUISIANA,
JACKSON WORK CAMP,5607 10TH STREET,MALONE,FLORIDA,32445,FLORIDA,
Jacksonville Community Service Center,2020 DAHLIA STREET,JACKSONVILLE,FLORIDA,32254,FLORIDA,
JACKSONVILLE CORRECTIONAL CENTER,2268 East Morton Ave,Jacksonville,ILLINOIS,62650,ILLINOIS,
JAMES (JAY) H. BYRD UNIT,21 FM 247,Huntsville,TEXAS,77320,TEXAS,
JAMES CRABTREE CORRECTIONAL CENTER,3RD AND MURRAY,HELENA,OKLAHOMA,73741,OKLAHOMA,
JAMES LYNAUGH UNIT,1098 SOUTH HWY 2037,Fort Stockton,TEXAS,79735,TEXAS,
JAMES RIVER CORRECTIONAL CENTER,2521 CIRCLE DRIVE,JAMESTOWN,NORTH DAKOTA,58401,NORTH DAKOTA,
JAMES RIVER WORK CENTER,1954 STATE FARM RD,STATE FARM,VIRGINIA,23160,VIRGINIA,
JAMES T. VAUGHN CORRECTIONAL CENTER,1181 PADDOCK RD,SMYRNA,DELAWARE,19977,DELAWARE,
JAMES V. ALLRED UNIT,2101 FM 369 North,Iowa Park,TEXAS,76367,TEXAS,
JAMESON ANNEX,1600 NORTH DRIVE,SIOUX FALLS,SOUTH DAKOTA,57117,SOUTH DAKOTA,
JANUARY CENTER,984 NORWICH-NEW LONDON TURNPIKE,MONTVILLE,CONNECTICUT,6382,CONNECTICUT,
JEAN CONSERVATION CAMP,3 PRISON ROAD,JEAN,NEVADA,89019,NEVADA,
JEFFERSON CITY CORRECTIONAL CENTER,8200 NO MORE VICTIMS ROAD,JEFFERSON CITY,MISSOURI,65101,MISSOURI,
JEFFERSON CORRECTIONAL CENTER,1050 BIG JOE ROAD,MONTICELLO,FLORIDA,32344,FLORIDA,
JEFFERSON COUNTY COMMUNITY WORK CENTER,101 CORRECTIONS ROAD,FAYETTE,MISSISSIPPI,39069,MISSISSIPPI,
JEFFERSON COUNTY PRISON,1159 CLARKS MILL ROAD,LOUISVILLE,GEORGIA,30434,GEORGIA,
JEFFERSON/FRANKLIN COUNTY CORRECTIONAL FACILITY,279 HIGHWAY 33,FAYETTE,MISSISSIPPI,39069,MISSISSIPPI,
Jenkins Correctional Facility,34404 Kent Farm Dr.,Millen,GEORGIA,30442,GEORGIA,
JERRY H. HODGE DEVELOPMENTALLY DISABLED PROGRAM,379 FM 2972,Rusk,TEXAS,75785,TEXAS,
JESS DUNN CORRECTIONAL CENTER,601 SOUTH 124TH STREET WEST,TAFT,OKLAHOMA,74463,OKLAHOMA,
JESSUP CORRECTIONAL INSTITUTION,7800 HOUSE OF CORRECTION RD,JESSUP,MARYLAND,20794,MARYLAND,
JESSUP PRE-RELEASE UNIT,2000 TOULSON ROAD,JESSUP,MARYLAND,20794,MARYLAND,
JESUP - CAMP,2600 HIGHWAY 301 SOUTH,JESUP,GEORGIA,31599,GEORGIA,
JESUP FCI,2600 HIGHWAY 301 SOUTH,JESUP,GEORGIA,31599,GEORGIA,
JESUP FSL,2600 HIGHWAY 301 SOUTH,JESUP,GEORGIA,31599,GEORGIA,
JIM E HAMILTON CORRECTIONAL CENTER,53468 MINERAL SPRINGS ROAD,HODGEN,OKLAHOMA,74939,OKLAHOMA,
JIM FERGUSON UNIT,12120 Savage Drive,Midway,TEXAS,75852,TEXAS,
JIM RUDD TRANSFER FACILITY,2004 LAMESA HWY,Brownfield,TEXAS,79316,TEXAS,
JOE F. GURNEY TRANSFER FACILITY,1385 FM 3328,Tennessee Colony,TEXAS,75803,TEXAS,
JOE KEGANS STATE JAIL,707 TOP STREET,Houston,TEXAS,77002,TEXAS,
JOE NEY STATE JAIL,114 PRIVATE ROAD 4303,Hondo,TEXAS,78861,TEXAS,
JOHN B. CONNALLY UNIT,899 FM 632,Kenedy,TEXAS,78119,TEXAS,
JOHN C BURKE CORRECTIONAL CENTER,900 SOUTH MADISON ST,WAUPUN,WISCONSIN,53963,WISCONSIN,
JOHN LILLEY CORRECTIONAL CENTER,105150 N. 3670 ROAD,BOLEY,OKLAHOMA,74829,OKLAHOMA,
JOHN M. WYNNE UNIT,810 FM 2821,Huntsville,TEXAS,77349,TEXAS,
JOHN MIDDLETON TRANSFER FACILITY,13055 FM 3522,Abilene,TEXAS,79601,TEXAS,
JOHN MONTFORD PSYCHIATRIC FACILITY,8602 PEACH STREET,Lubbock,TEXAS,79404,TEXAS,
JOHN MORAN MEDIUM SECURITY FACILITY,9 WEST ROAD,CRANSTON,RHODE ISLAND,2920,RHODE ISLAND,
JOHN R. LINDSEY STATE JAIL,1620 FM 3344,Jacksboro,TEXAS,76458,TEXAS,
JOHNSON STATE PRISON,290 DONOVAN-HARRISON ROAD,WRIGHTSVILLE,GEORGIA,31096,GEORGIA,
JOHNSTON CORRECTIONAL CENTER,2465 US HWY 70 W,SMITHFIELD,NORTH CAROLINA,27577,NORTH CAROLINA,
JOHNSTOWN CENTER (325),301 WASHINGTON STREET,JOHNSTOWN,PENNSYLVANIA,15901,PENNSYLVANIA,
JONES FARM,721 Bear Tavern Road,West Trenton,NEW JERSEY,8625,NEW JERSEY,
JOSEPH COLEMAN CTR (131),3950 D ST,PHILADELPHIA,PENNSYLVANIA,19124,PENNSYLVANIA,
JOSEPH HARP CORRECTIONAL CENTER,16161 MOFFAT ROAD,LEXINGTON,OKLAHOMA,73051,OKLAHOMA,
JULIUS KLEIN CONSERVATION CAMP,EAST FORK ROAD,AZUSA,CALIFORNIA,91702,CALIFORNIA,
KAUAI COMMUNITY CORRECTIONAL CENTER,3-5351 Kuhio Hwy,Lihue,HAWAII,96766,HAWAII,
KEEN MOUNTAIN CORRECTIONAL CENTER,State Route 629,Oakwood,VIRGINIA,24631,VIRGINIA,
KEENAN HOUSE (220),18-22 SOUTH SIXTH STREET,ALLENTOWN,PENNSYLVANIA,18101,PENNSYLVANIA,
KEETON CORRECTIONS - PADUCAH,621 SOUTH 7TH STREET,PADUCAH,KENTUCKY,42002,KENTUCKY,
Keeton Corrections Inc,225  BRENT LANE,PENASCOLA,FLORIDA,32503,FLORIDA,
Keeton Corrections Inc,3838 NE 41st Street,Ocala,FLORIDA,34479,FLORIDA,
KEMPER/NESHOBA COUNTY CORRECTIONAL FACILITY,374 STENNIS INDUSTRIAL PARK,DEKALB,MISSISSIPPI,39328,MISSISSIPPI,
KENOSHA CORRECTIONAL CENTER,6353 14TH AVENUE,KENOSHA,WISCONSIN,53143,WISCONSIN,
KENTUCKY CORRECTIONAL INSTITUTION FOR WOMEN,3000 ASH AVENUE,PEWEE VALLEY,KENTUCKY,40056,KENTUCKY,
KENTUCKY STATE PENITENTIARY,266 WATER STREET,EDDYVILLE,KENTUCKY,42038,KENTUCKY,
KENTUCKY STATE REFORMATORY,3001 WEST HIGHWAY 146,LAGRANGE,KENTUCKY,40032,KENTUCKY,
KERN VALLEY STATE PRISON,3000 WEST CECIL AVENUE,DELANO,CALIFORNIA,93216,CALIFORNIA,
KERSHAW CORRECTIONAL INSTITUTION,4848 GOLDMINE HWY,KERSHAW,SOUTH CAROLINA,29067,SOUTH CAROLINA,
KETCHIKAN CORRECTIONAL CENTER,1201 SCHOENBAR ROAD,KETCHIKAN,ALASKA,99901,ALASKA,
KETTLE MORAINE CORRECTIONAL INSTITUTION,W9071 FOREST DRIVE,GLENBEULAH,WISCONSIN,53023,WISCONSIN,
KEYSTONE CORRECTIONAL (234),7201 ALLENTOWN BOULEVARD,HARRISBURG,PENNSYLVANIA,17112,PENNSYLVANIA,
KILBY CORRECTIONAL FACILITY,12201 WARES FERRY RD,MONTGOMERY,ALABAMA,36117,ALABAMA,
KINROSS CORRECTIONAL FACILITY,16770 SOUTH WATERTOWER DRIVE,KINCHELOE,MICHIGAN,49788,MICHIGAN,
KINTOCK - ERIE AVENUE (136),301 EAST ERIE AVENUE,PHILADELPHIA,PENNSYLVANIA,19124,PENNSYLVANIA,
KINTOCK BRIDGETON I & II,4 S INDUSTRIAL BLVD,Bridgeton,NEW JERSEY,8302,NEW JERSEY,
KINTOCK MALE WORK RELEASE BLDG 1,50 Fenwick Street,Newark,NEW JERSEY,7114,NEW JERSEY,
KINTOCK NEWARK FEMALE TREATMENT,50 FENWICK STREET,Newark,NEW JERSEY,7114,NEW JERSEY,
KINTOCK NEWARK MALE TREATMENT,50 Fenwick Street,Newark,NEW JERSEY,7114,NEW JERSEY,
KIRKLAND RECEPTION & EVALUATION CENTER,4344 BROAD RIVER ROAD,COLUMBIA,SOUTH CAROLINA,29210,SOUTH CAROLINA,
KISSIMMEE WORK RELEASE CENTER,2925 MICHIGAN AVENUE,KISSIMMEE,FLORIDA,34744,FLORIDA,
KIT CARSON COUNTY CORRECTIONAL CENTER-CCA,49777 COUNTY ROAD V,BURLINGTON,COLORADO,80807,COLORADO,
KONOCTI CONSERVATION CAMP,10344 STATE HWY 29,LOWER LAKE,CALIFORNIA,96130,CALIFORNIA,
KYLE CORRECTIONAL CENTER,23001 IH-35,Kyle,TEXAS,78640,TEXAS,
L.V. HIGHTOWER UNIT,902 FM 686,Dayton,TEXAS,77535,TEXAS,
LA CIMA CORECTIONAL CAMP,15108 SUNRISE HIGHWAY,JULIAN,CALIFORNIA,92036,CALIFORNIA,
La Palma Correctional Center - CCA,5501 North La Palma Road,Eloy,ARIZONA,85131,ARIZONA,
LA TUNA FCI,8500 DONIPHAN ROAD,ANTHONY,TEXAS,79821,TEXAS,
LA TUNA-CAMP,8500 DONIPHAN ROAD,ANTHONY,TEXAS,79821,TEXAS,
LA TUNA-FSL,8500 DONIPHAN ROAD,ANTHONY,TEXAS,79821,TEXAS,
LA VISTA CORRECTIONAL FACILITY,1401 W. 17TH STREET,PUEBLO,COLORADO,81003,COLORADO,
LAGRANGE TRANSITIONAL CENTER,100 JIM HESTER ROAD,LAGRANGE,GEORGIA,30241,GEORGIA,
LAKE CITY CORRECTIONAL FACILITY,7906 E US HWY 90,LAKE CITY,FLORIDA,32055,FLORIDA,
LAKE CITY WORK RELEASE CENTER,LAKE JEFFREY ROAD 1620,LAKE CITY,FLORIDA,32055,FLORIDA,
LAKE CORRECTIONAL INSTITUTION,19225 U. S. HWY 27,CLERMONT,FLORIDA,34715,FLORIDA,
LAKE ERIE CORRECTIONAL INSTITUTION,501 THOMPSON ROAD,CONNEAUT,OHIO,44030,OHIO,
LAKE REGION RE-ENTRY CENTER,225 Walnut Street,Devils Lake,NORTH DAKOTA,58301,NORTH DAKOTA,
LAKELAND CORRECTIONAL FACILITY,141 FIRST STREET,COLDWATER,MICHIGAN,49036,MICHIGAN,
LAKEVIEW SHOCK INCARCERATION CF,9300 LAKE AVENUE,BROCTON,NEW YORK,14716,NEW YORK,
LAKIN CORRECTIONAL CENTER,11264 OHIO RIVER ROAD,WEST COLUMBIA,WEST VIRGINIA,25287,WEST VIRGINIA,
LANCASTER CORRECTIONAL INST WORK CAMP,"3 MI WEST OF TRENTON,S.R. 26",TRENTON,FLORIDA,32693,FLORIDA,
LANCASTER CORRECTIONAL INSTITUTION,3449 SW STATE RD 26,TRENTON,FLORIDA,32693,FLORIDA,
LAND MANOR / FRANKLIN HOUSE,1635 Avenue A,"Beaumont,",TEXAS,77701,TEXAS,
"LAND MANOR, INC.",1765/1785 Washington Blvd.,Beaumont,TEXAS,77705,TEXAS,
LANESBORO CORRECTIONAL INSTITUTION,552 PRISON CAMP ROAD,POLKTON,NORTH CAROLINA,28135,NORTH CAROLINA,
LANSING CORRECTIONAL FACILITY,301 EAST KANSAS STREET,LANSING,KANSAS,66043,KANSAS,
LARCH CORRECTIONAL CENTER,15314 NE DOLE VALLEY ROAD,Yacolt,WASHINGTON,98675,WASHINGTON,
LARGO RESIDENTIAL RE-ENTRY CENTER,16432 US 19 NORTH,CLEARWATER,FLORIDA,33764,FLORIDA,
LARGO ROAD PRISON,5201 ULMERTON ROAD,CLEARWATER,FLORIDA,33760,FLORIDA,
LARIMER COUNTY RESIDENTIAL CENTER,2255 MIDPOINT DR,FT.COLLINS,COLORADO,80525,COLORADO,
LARNED CORRECT MENTAL HEALTH FACILITY,1318 KS HIGHWAY 264,LARNED,KANSAS,67550,KANSAS,
LARRY A NELSON CENTER,1001 29TH AVE SW,CEDAR RAPIDS,IOWA,52404,IOWA,
LARRY GIST STATE JAIL,3295 FM 3514,Beaumont,TEXAS,77705,TEXAS,
Las Vegas Community Correctional Center - GEO Group,2901 INDUSTRIAL ROAD,LAS VEGAS,NEVADA,89109,NEVADA,
LASALLE CORRECTIONAL CENTER - LaSalle,15976 HIGHWAY 165,OLLA,LOUISIANA,71465,LOUISIANA,
LAWRENCE CORRECTIONAL CENTER,10940 Lawrence Road,Sumner,ILLINOIS,62466,ILLINOIS,
LAWRENCEVILLE CORRECTIONAL CENTER,1607 PLANTERS ROAD,LAWRENCEVILLE,VIRGINIA,23868,VIRGINIA,
LAWTEY CORRECTIONAL INSTITUTION,22298 NE COUNTY ROAD 200B,RAIFORD,FLORIDA,32026,FLORIDA,
LAWTON COMMUNITY CORRECTIONS CENTER,605 SW COOMBS RD,LAWTON,OKLAHOMA,73501,OKLAHOMA,
LAWTON CORRECTIONAL FACILITY,8607 SE FLOWER MOUND ROAD,LAWTON,OKLAHOMA,73501,OKLAHOMA,
LEA COUNTY CORRECTIONAL FAC-WACKENHUT,6900 W MILLEN DRIVE,HOBBAS,NEW MEXICO,88244,NEW MEXICO,
LEAKE COUNTY CORRECTIONAL FACILITY,399 C.O. BROOKS STREET,CARTHAGE,MISSISSIPPI,39051,MISSISSIPPI,
LEATH CORRECTIONAL INSTITUTION,2809 AIRPORT ROAD,GREENWOOD,SOUTH CAROLINA,29649,SOUTH CAROLINA,
LEAVENWORTH - CAMP,1300 METROPOLITAN,LEAVENWORTH,FEDERAL,66048,KANSAS,
LEAVENWORTH USP,1300 METROPOLITAN,LEAVENWORTH,FEDERAL,66048,KANSAS,
LEBANON CORRECTIONAL INSTITUTION,3791 STATE ROUTE 63,LEBANON,OHIO,45036,OHIO,
LEE ARRENDALE STATE PRISON,2023 GAINESVILLE HIGHWAY SOUTH,ALTO,GEORGIA,30510,GEORGIA,
LEE ARRENDALE TRANSITIONAL CENTER,2023 OLD GAINESVILLE HIGHWAY SOUTH,ALTO,GEORGIA,30510,GEORGIA,
LEE CORRECTIONAL INSTITUTION,990 WISACKY HWY,BISHOPVILLE,SOUTH CAROLINA,29010,SOUTH CAROLINA,
LEE STATE PRISON,153 Pinewood Drive,Leesburg,GEORGIA,31763,GEORGIA,
LEE USP,LEE COUNTY INDUSTRIAL PARK - HICKORY FLATS ROAD,PENNINGTON GAP,VIRGINIA,24277,VIRGINIA,
LEE USP-CAMP,LEE COUNTY INDUSTRIAL PARK - HICKORY FLATS ROAD,PENNINGTON GAP,VIRGINIA,24277,VIRGINIA,
LEEFLORE COUNTY COMMUNITY WORK CENTER,3400 BALDWIN COUNTY ROAD,GREENWOOD,MISSISSIPPI,38930,MISSISSIPPI,
LEHIGH CO. RE-ENTRY (295),38 NORTH 4TH ST,ALLENTOWN,PENNSYLVANIA,18102,PENNSYLVANIA,
Leidel Comprehensive Sanction Center,1819 Commerce St,Houston,TEXAS,77002,TEXAS,
LEMON CREEK CORRECTIONAL CENTER,2000 LEMON CREEK ROAD,JUNEAU,ALASKA,99801,ALASKA,
LEMUEL SHATTUCK HOSPITAL CORRECTIONAL UNIT,180 MORTON ST,JAMAICA PLAIN,MASSACHUSETTS,2130,MASSACHUSETTS,
LEWISBURG USP,2400 ROBERT F. MILLER DRIVE,LEWISBURG,FEDERAL,17837,PENNSYLVANIA,
LEWISBURG-CAMP,2400 ROBERT F MILLER DRIVE,LEWISBURG,FEDERAL,17837,PENNSYLVANIA,
LEXINGTON - CAMP,3301 LEESTOWN ROAD,LEXINGTON,KENTUCKY,40511,KENTUCKY,
LEXINGTON ASSESSMENT & RECEPTION CENTER,15151 HIGHWAY 39,LEXINGTON,OKLAHOMA,73051,OKLAHOMA,
LEXINGTON FMC,3301 LEESTOWN ROAD,LEXINGTON,KENTUCKY,40511,KENTUCKY,
LIBERTY CORRECTIONAL INSTITUTION,11064 NW DEMPSEY BARRON ROAD,BRISTOL,FLORIDA,32321,FLORIDA,
"LIBERTY LODGE, INC.",160 FM 2507,Alice,TEXAS,78332,TEXAS,
LIBERTY MANAGEMENT (119),1007 WEST LEHIGH AVENUE,PHILADELPHIA,PENNSYLVANIA,19133,PENNSYLVANIA,
LIBERTY MANAGEMENT- PHEONIX (141),1019 WEST LEHIGH AVENUE,PHILADELPHIA,PENNSYLVANIA,19133,PENNSYLVANIA,
LIBERTY WORK CAMP,LIBERTY COUNTY RD 1641,BRISTOL,FLORIDA,32321,FLORIDA,
LIEBER CORRECTIONAL INSTITUTION,136 WILBORN AVENUE,RIDGEVILLE,SOUTH CAROLINA,29472,SOUTH CAROLINA,
LIMESTONE CORRECTIONAL FACILITY,28779 NICK DAVIS ROAD,HARVEST,ALABAMA,35749,ALABAMA,
LIMESTONE DETENTION CENTER,910 N TYUS ROAD,GROESBECK,TEXAS,76642,TEXAS,
LIMON CORRECTION FACILITY,49030 STATE HIGHWAY 71,LIMON,COLORADO,80826,COLORADO,
LINCOLN CORRECTIONAL CENTER,1098 1350th Street,LINCOLN,ILLINOIS,62656,ILLINOIS,
LINCOLN CORRECTIONAL CENTER,3216 WEST VAN DORN STREET,LINCOLN,NEBRASKA,68522,NEBRASKA,
LINCOLN CORRECTIONAL CENTER,464 ROPER DRIVE,LINCOLNTON,NORTH CAROLINA,28092,NORTH CAROLINA,
LINCOLN CORRECTIONAL FACILITY,31-33 West 110th Street,New York,NEW YORK,10026,NEW YORK,
LINDA WOODMAN STATE JAIL,1210 CORYELL CITY ROAD,Gatesville,TEXAS,76528,TEXAS,
LITTLE SANDY CORRECTIONAL COMPLEX,505 PRISON CONNECTOR ROAD,SANDY HOOK,KENTUCKY,41171,KENTUCKY,
LIVESAY CORRECTIONAL INSTITUTION,104 BROADCAST DRIVE,SPARTANBURG,SOUTH CAROLINA,29303,SOUTH CAROLINA,
LIVINGSTON CORRECTIONAL FACILITY,7005 SONYEA ROAD,SONYEA,NEW YORK,14556,NEW YORK,
LOCKHART UNIT/WORK PROGRAM,1400 Industrial Blvd.,Lockhart,TEXAS,78644,TEXAS,
LOGAN CORRECTIONAL CENTER,1096 1350TH STREET,LINCOLN,ILLINOIS,62656,ILLINOIS,
LOIS M. DEBERRY SPECIAL NEEDS FACILITY,7575 COCKRILL BEND  BLVD,NASHVILLE,TENNESSEE,37243,TENNESSEE,
Lompoc FCI,3600 GUARD ROAD,LOMPOC,FEDERAL,93436,CALIFORNIA,
Lompoc USP,3901 KLEIN BLVD,LOMPOC,FEDERAL,93436,CALIFORNIA,
LOMPOC USP - CAMP,3901 KLEIN BLVD,LOMPOC,FEDERAL,93436,CALIFORNIA,
LONDON CORRECTIONAL INSTITUTION,1580 STATE ROUTE 56,LONDON,OHIO,43140,OHIO,
LONG  UNIT,1434 US HIGHWAY 84 EAST,LUDOWICI,GEORGIA,31316,GEORGIA,
LONGMONT COMMUNITY TREATMENT CENTER,236 MAIN ST,LONGMONT,COLORADO,80501,COLORADO,
LONGVIEW WORK RELEASE,1821 1st Ave,Longview,WASHINGTON,98632,WASHINGTON,
LORAIN CORRECTIONAL INSTITUTION,2075 SOUTH AVON BELDEN ROAD,GRAFTON,OHIO,44044,OHIO,
LORETTO FCI,772 SAINT JOSEPH ST.,LORETTO,PENNSYLVANIA,15940,PENNSYLVANIA,
LORETTO-CAMP,772 SAINT JOSEPH STREET,LORETTO,PENNSYLVANIA,15940,PENNSYLVANIA,
LOS ANGELES COUNTY STATE PRISON,44750 60TH STREET WEST,LANCASTER,CALIFORNIA,93536,CALIFORNIA,
LOUIS C. POWLEDGE UNIT,1400 FM 3452,Palestine,TEXAS,75803,TEXAS,
LOUISIANA CORRECTIONAL INSTITUTION  FOR WOMEN,7205 HIGHWAY 74,ST. GABRIEL,LOUISIANA,70776,LOUISIANA,
LOUISIANA STATE PENITENTIARY,17544 TUNICA TRACE,ANGOLA,LOUISIANA,70712,LOUISIANA,
LOVELOCK CORRECTIONAL CENTER,1200 PRISON ROAD,LOVELOCK,NEVADA,89419,NEVADA,
LOWELL ANNEX,11120 NW GAINESVILLE ROAD,OCALA,FLORIDA,34482,FLORIDA,
LOWELL CORRECTIONAL INSTITUTION,11120 NW GAINSVILLE RD,OCALA,FLORIDA,34482,FLORIDA,
LOWELL RECEPT CENTER,3700 NW 111TH PLACE,OCALA,FLORIDA,34482,FLORIDA,
LOWELL WORK CAMP,11120 NW GAINESVILLE ROAD,OCALA,FLORIDA,34482,FLORIDA,
LOWER SAVANNAH PRE-RELEASE CENTER,361 WIRE RD,AIKEN,SOUTH CAROLINA,29801,SOUTH CAROLINA,
LOXAHATCHEE ROAD PRISON,230 SUNSHINE ROAD,WEST PALM BEACH,FLORIDA,33411,FLORIDA,
LOXLEY COMMUNITY WORK CENTER,14880 COUNTY ROAD 64,LOXLEY,ALABAMA,36551,ALABAMA,
LUBBOCK REGIONAL MHMR CENTER,1601 Vanda Avenue,Lubbock,TEXAS,79404,TEXAS,
LUCILE PLANE STATE JAIL,904 FM 686,Dayton,TEXAS,77535,TEXAS,
LUMBERTON CORRECTIONAL INSTITUTION,75 LEGEND ROAD,LUMBERTON,NORTH CAROLINA,28358,NORTH CAROLINA,
LUNENBURG CORRECTIONAL CENTER,690 FALLS RD,VICTORIA,VIRGINIA,23974,VIRGINIA,
LUSTER HEIGHTS,4841 Luster Heights Rd,Harper's Ferry,IOWA,52146,IOWA,
LUTHER LUCKETT CORRECTIONAL COMPLEX,DAWKINS ROAD BOX 6,LAGRANGE,KENTUCKY,40031,KENTUCKY,
LUZERNE (135),600 EAST LUZERNE STREET,PHILADELPHIA,PENNSYLVANIA,19124,PENNSYLVANIA,
LYCOMING HOUSE (127),1712 POINT BREEZE AVENUE,PHILADELPHIA,PENNSYLVANIA,19145,PENNSYLVANIA,
MABEL BASSETT CORRECTIONAL CENTER,29501 KICKAPOO ROAD,MCLOUD,OKLAHOMA,74851,OKLAHOMA,
MACDOUGALL CORRECTIONAL INSTITUTION,1516 OLD GILLIARD ROAD,RIDGEVILLE,SOUTH CAROLINA,29472,SOUTH CAROLINA,
MACDOUGALL-WALKER CORR INSTITUTION,1153 EAST STREET S.,SUFFIELD,CONNECTICUT,6080,CONNECTICUT,
MACK H. ALFORD CORRECTIONAL CENTER,1151 NORTH HIGHWAY 69,STRINGTOWN,OKLAHOMA,74569,OKLAHOMA,
MACOMB CORRECTIONAL FACILITY,34625 26 MILE ROAD,NEW HAVEN,MICHIGAN,48048,MICHIGAN,
MACON STATE PRISON,2728 Hwy 49 South,Oglethorpe,GEORGIA,31068,GEORGIA,
MACON TRANSITION CENTER,1303 Constitution Road,Atlanta,GEORGIA,30316,GEORGIA,
MADILL WORK CENTER,210 S. 11TH STREET,MADILL,OKLAHOMA,73446,OKLAHOMA,
MADISON (LOUISIANA TRANSITION CENTER FOR WOMEN),1005 WEST GREEN STREET,TALLULAH,LOUISIANA,71282,LOUISIANA,
MADISON CORRECTIONAL FACILITY,800 MSH BUS STOP DR,MADISON,INDIANA,47250,INDIANA,
MADISON CORRECTIONAL INSTITUTION,382 SW MCI WAY,MADISON,FLORIDA,32340,FLORIDA,
MADISON CORRECTIONAL INSTITUTION,1851 STATE ROUTE 56,LONDON,OHIO,43140,OHIO,
MADISON COUNTY COMMUNITY WORK CENTER,140 CORRECTIONS DRIVE,MADISON,MISSISSIPPI,39046,MISSISSIPPI,
Madison Inn Work Release,102 21st Ave E,Seattle,WASHINGTON,98112,WASHINGTON,
MADISON WORK CAMP,382 SW MCI WAY,MADISON,FLORIDA,32340,FLORIDA,
MAINE CORRECTIONAL CENTER,17 MALLISON FALLS ROAD,WINDHAM,MAINE,4062,MAINE,
MAINE STATE PRISON - WARREN,807 CUSHING ROAD,WARREN,MAINE,4864,MAINE,
MALIBU CONVERSATION CAMP,1250 S ENCINAL CANYON RD,MALIBU,CALIFORNIA,90265,CALIFORNIA,
MANCHESTER - CAMP,805 FOX HOLLOW ROAD,MANCHESTER,KENTUCKY,40962,KENTUCKY,
MANCHESTER FCI,805 FOX HOLLOW ROAD,MANCHESTER,KENTUCKY,40962,KENTUCKY,
Manfield Volunteers of America,290 N Main Street,Mansfield,OHIO,44902,OHIO,
MANGUM COMMUNITY WORK CENTER,215 E LINCOLN,MANGUM,OKLAHOMA,73554,OKLAHOMA,
MANNING CORRECTIONAL INSTITUTION,502 BECKMAN DRIVE,COLUMBIA,SOUTH CAROLINA,29203,SOUTH CAROLINA,
MANSFIELD CORRECTIONAL INSTITUTION,1150 N MAIN STREET,MANSFIED,OHIO,44901,OHIO,
MANUEL A. SEGOVIA PRE-RELEASE FACILITY,1201 EL CIBOLO ROAD,Edinburg,TEXAS,78542,TEXAS,
MAPLE STREET HOUSE,565-585 MAPLE STREET,BRIDGEPORT,CONNECTICUT,6608,CONNECTICUT,
MARANA COMMUNITY CORRECTIONAL TREATMENT FACILITY,12610 W SILVERBELL ROAD,MARANA,ARIZONA,85653,ARIZONA,
MARBLE VALLEY REGIONAL CORRECTIONAL FACILITY,167 STATE STREET,RUTLAND,VERMONT,5701,VERMONT,
MARCY CORRECTIONAL FACILITY,9000 OLD RIVER RD.,MARCY,NEW YORK,13403,NEW YORK,
MARIANNA - CAMP,3625 FCI ROAD,MARIANNA,FLORIDA,32446,FLORIDA,
Marianna FCI,3625 FCI ROAD,MARIANNA,FLORIDA,32446,FLORIDA,
MARION - CAMP,4500 PRISON ROAD,MARION,ILLINOIS,62959,ILLINOIS,
MARION ADJUSTMENT CENTER,95 RAYWICK ROAD,ST. MARY,KENTUCKY,40063,KENTUCKY,
MARION CORRECTIONAL INSTITUTION,3269 NW 105TH STREET,LOWELL,FLORIDA,32663,FLORIDA,
MARION CORRECTIONAL INSTITUTION,355 OLD GLENWOOD ROAD,MARION,NORTH CAROLINA,28752,NORTH CAROLINA,
MARION CORRECTIONAL INSTITUTION,970 MARION-WILLIAMSPORT ROAD,MARION,OHIO,43302,OHIO,
MARION CORRECTIONAL TREATMENT CENTER,110 WRIGHT STREET,MARION,VIRGINIA,24354,VIRGINIA,
Marion County Re-Entry (Duvall Center),1855 Ludlow Avenue,Indianapolis,INDIANA,46201,INDIANA,
MARION USP,4500 PRISON ROAD,MARION,ILLINOIS,62959,ILLINOIS,
MARION WORK CAMP,3269 NW 105TH. STREET,LOWELL,FLORIDA,32663,FLORIDA,
MARION/WALTHALL COUNTY CORRECTIONAL FACILITY,503 SOUTH MAIN STREET`,COLUMBIA,MISSISSIPPI,39429,MISSISSIPPI,
MARK LUTTRELL CORRECTIONAL CENTER,6000 STATE ROAD,MEMPHIS,TENNESSEE,38134,TENNESSEE,
MARK W. MICHAEL UNIT,2664 FM 2054,Tennessee Colony,TEXAS,75886,TEXAS,
MARK W. STILES UNIT,3060 FM 3514,Beaumont,TEXAS,77705,TEXAS,
MARLIN TRANSFER FACILITY,2893 STATE HIGHWAY 6,Marlin,TEXAS,76661,TEXAS,
MARQUETTE BRANCH PRISON,1960 U.S. HIGHWAY 41 SOUTH,MARQUETTE,MICHIGAN,49855,MICHIGAN,
MARSHALL COUNTY CORRECTIONAL FACILITY,833 WEST STREET,HOLLY SPRINGS,MISSISSIPPI,38635,MISSISSIPPI,
MARSHALL E. SHERRER CORRECTIONAL CENTER,1318 NORTH 14TH STREET,MILWAUKEE,WISCONSIN,53205,WISCONSIN,
MARSHALLTOWN RESIDENTIAL FACILITY,1401 S 17TH AVENUE,MASHALLTOWN,IOWA,50158,IOWA,
MARTIN CORRECTIONAL INSTITUTION,1150 SW ALLAPATTAH  ROAD,INDIANTOWN,FLORIDA,34956,FLORIDA,
MARTIN WORK CAMP,100 SW ALLAPATTAH RD,INDIANTOWN,FLORIDA,34956,FLORIDA,
MARTINSBURG CORRECTIONAL CENTER,38 GRAPEVINE ROAD,MARTINSBURG,WEST VIRGINIA,25405,WEST VIRGINIA,
MARY MAGDALENE HOUSE,407 CLINTON AVEUNE,BRIDGEPORT,CONNECTICUT,6605,CONNECTICUT,
MARYLAND CORRECTIONAL INST - HAGERSTOWN,18601 ROXBURY ROAD,HAGERSTOWN,MARYLAND,21746,MARYLAND,
MARYLAND CORRECTIONAL INSTITUTION - JESSUP,7804 MARYLAND HOUSE OF CORRECTION ROAD,JESSUP,MARYLAND,20794,MARYLAND,
MARYLAND CORRECTIONAL INSTITUTION FOR WOMEN,7943 BROCKRIDGE ROAD,JESSUP,MARYLAND,20794,MARYLAND,
MARYLAND CORRECTIONAL TRAINING CENTER,18800 ROXBURY ROAD,HAGERSTOWN,MARYLAND,21746,MARYLAND,
"MARYLAND RECEPTION, DIAGNOSTIC & CLASS CTR",550 E. MADISON STREET,BALTIMORE,MARYLAND,21202,MARYLAND,
MARYVILLE TREATMENT CENTER,30227 US HIGHWAY 136,MARYVILLE,MISSOURI,64468,MISSOURI,
MASSACHUSETTS  TREATMENT CENTER,30 ADMINISTRATION ROAD,BRIDGEWATER,MASSACHUSETTS,2324,MASSACHUSETTS,
MASSACHUSETTS ALCOHOL AND SUBSTANCE ABUSE CENTER,2 Administration Rd,BRIDGEWATER,MASSACHUSETTS,2324,MASSACHUSETTS,
MASSACHUSETTS CORRECTIONAL INST - CEDAR JUNCTION,2405 Main Street,South Walpole,MASSACHUSETTS,2071,MASSACHUSETTS,
MASSACHUSETTS CORRECTIONAL INST - CONCORD,965 ELM STREET,CONCORD,MASSACHUSETTS,1742,MASSACHUSETTS,
MASSACHUSETTS CORRECTIONAL INST - FRAMINGHAM,99 LORING DRIVE,FRAMINGHAM,MASSACHUSETTS,1701,MASSACHUSETTS,
MASSACHUSETTS CORRECTIONAL INST - NORFOLK,2 CLARK STREET,NORFOLK,MASSACHUSETTS,2056,MASSACHUSETTS,
MASSACHUSETTS CORRECTIONAL INST - PLYMOUTH,1 Bumps Pond Road,Plymouth,MASSACHUSETTS,2360,MASSACHUSETTS,
MASSACHUSETTS CORRECTIONAL INST - SHIRLEY,Harvard Road,Shirley,MASSACHUSETTS,1464,MASSACHUSETTS,
MASSACHUSETTS CORRECTIONAL INST SHIRLEY MINIMUM,Harvard Road,Shirley,MASSACHUSETTS,1464,MASSACHUSETTS,
MAT-SU PRETRIAL,339 EAST DOGWOOD AVENUE,PALMER,ALASKA,99645,ALASKA,
MAUI COMMUNITY CORRECTIONAL CENTER,600 WAIALE DRIVE,WAILUKU,HAWAII,96793,HAWAII,
MAURY CORRECTIONAL INSTITUTION,2568 MOORE ROUSE RD,HOOKERTON,NORTH CAROLINA,28538,NORTH CAROLINA,
MAXIMUM SECURITY FACILITY,1375 PONTIAC AVE,CRANSTON,RHODE ISLAND,2920,RHODE ISLAND,
MAXIMUM SECURITY UNIT,2501 STATE FARM ROAD,TUCKER,ARKANSAS,72168,ARKANSAS,
MAYO CORRECTIONAL INST WORK CAMP,8976 WEST U.S. 27,MAYO,FLORIDA,32066,FLORIDA,
MAYO CORRECTIONAL INSTITUTION ANNEX,8784 US HWY 27 W,MAYO,FLORIDA,32066,FLORIDA,
MCCAIN VALLEY CONSERVATION CAMP,2550 MCCAIN VALLEY RD,BOULEVARD,CALIFORNIA,91905,CALIFORNIA,
MCCORMICK CORRECTIONAL INSTITUTION,386 REDEMPTION WAY,MCCORMICK,SOUTH CAROLINA,29899,SOUTH CAROLINA,
MCCREARY - CAMP,330 FEDERAL WAY,PINE KNOT,FEDERAL,42635,KENTUCKY,
MCCREARY USP,330 FEDERAL WAY,PINE KNOT,FEDERAL,42635,KENTUCKY,
MCDOWELL COUNTY CORRECTIONAL CENTER,795 VIRGINIA AVENUE,WELCH,WEST VIRGINIA,24801,WEST VIRGINIA,
MCDOWELL FCI,101 FEDERAL DRIVE,WELCH,WEST VIRGINIA,24801,WEST VIRGINIA,
MCDOWELL-CAMP,101 FEDERAL DRIVE,WELCH,WEST VIRGINIA,24801,WEST VIRGINIA,
MCEVER PROBATION DETENTION CENTER,2100 KINGS CHAPEL ROAD,PERRY,GEORGIA,31069,GEORGIA,
MOOSE,1000 Lakeshore Drive,Moose Lake,MINNESOTA,55767,MINNESOTA,
TOGO,62741 CO RD.551,TOGO,MINNESOTA,55723,MINNESOTA,
WILLOW,86032 County Highway 61,Willow River,MINNESOTA,55795,MINNESOTA,
MCKEAN FCI,6975 ROUTE 59,LEWIS RUN,PENNSYLVANIA,16738,PENNSYLVANIA,
MCKEAN-CAMP,6975 ROUTE 59,LEWIS RUN,PENNSYLVANIA,16738,PENNSYLVANIA,
McLeod Comprehensive Saction Center,309 Remount Road,Charlotte,NORTH CAROLINA,28203,NORTH CAROLINA,
MCNAUGHTON CORRECTIONAL CENTER,8500 RAINBOW ROAD,LAKE TOMAHAWK,WISCONSIN,54539,WISCONSIN,
MCPHERSON UNIT,302 CORRECTIONS DRIVE,NEWPORT,ARKANSAS,72112,ARKANSAS,
McRae CI,112 JIM HAMMOCK DRIVE,MCRAE,FEDERAL,31055,GEORGIA,
MEDICAL COLLEGE OF VIRGINIA,401 N 12TH STREET,RICHMOND,VIRGINIA,23298,VIRGINIA,
MEDICAL-SURGICAL WARD UNIV. OF CT,263 Farmington Avenue,Farmington,CONNECTICUT,6030,CONNECTICUT,
MEMPHIS CAMP,1101 JOHN A DENIE ROAD,MEMPHIS,FEDERAL,38134,TENNESSEE,
MEMPHIS FCI,1101 JOHN A DENIE ROAD,MEMPHIS,FEDERAL,38134,TENNESSEE,
MENARD CORRECTIONAL CENTER,711 KASKASKIA STREET,MENARD,ILLINOIS,62259,ILLINOIS,
MENDOTA - CAMP,33500 WEST CALIFORNIA AVENUE,MENDOTA,CALIFORNIA,93640,CALIFORNIA,
Mendota FCI,33500 WEST CALIFORNIA AVENUE,MENDOTA,CALIFORNIA,93640,CALIFORNIA,
MERS/MO GOODWILL,1727 Locust St.,St. Louis,MISSOURI,63103,MISSOURI,
MESA COUNTY COMMUNITY CORRECTIONS,559 PITKIN AVE,GRAND JUNCTION,COLORADO,81501,COLORADO,
METRO TRANSITIONAL CENTER,1303 Constitution Rd,Atlanta,GEORGIA,30316,GEORGIA,
METRO WOMEN'S TRANSITIONAL CENTER,1303 CONSTITUTION ROAD,ATLANTA,GEORGIA,30316,GEORGIA,
METROPOLITAN TRANSITION CENTER,954 FORREST STREET,BALTIMORE,MARYLAND,21202,MARYLAND,
MIAMI CORRECTIONAL FACILITY,3038 W 850 S,BUNKER HILL,INDIANA,46914,INDIANA,
Miami FCI,15801 S.W. 137TH AVENUE,MIAMI,FLORIDA,33177,FLORIDA,
Miami FCI - Camp,15801 S.W. 137TH AVENUE,MIAMI,FLORIDA,33177,FLORIDA,
MIAMI NORTH WORK RELEASE CENTER,7090 NORTHWEST 41ST STREET,MIAMI,FLORIDA,33166,FLORIDA,
MICHIGAN REFORMATORY,1342 WEST MAIN,IONIA,MICHIGAN,48846,MICHIGAN,
MID STATE CORRECTIONAL FACILITY,9005 OLD RIVER ROAD,MARCY,FEDERAL,13403,NEW YORK,
MID-STATE CORRECTIONAL FACILITY,PO Box 866,Wrightstown,NEW JERSEY,8562,NEW JERSEY,
Mid-Valley House - GEO Group,402 W CHAPIN ROAD,Edinburg,TEXAS,78541,TEXAS,
MIDTOWN CENTER,2508 MARGIES PLACE,ANCHORAGE,ALASKA,99503,ALASKA,
Midway Rehabilitation Center - Alchoholism Services of Knoxville,1515 E MAGNOLIA AVENUE,KNOXVILLE,TENNESSEE,37917,TENNESSEE,
MIKE DURFEE STATE PRISON,1412 Wood Street,Springfield,SOUTH DAKOTA,57062,SOUTH DAKOTA,
MILAN FCI,4004 EAST ARKONA ROAD,MILAN,FEDERAL,48160,MICHIGAN,
MILL CREEK CORRECTIONAL FACILITY,5465 TURNER ROAD SE,SALEM,OREGON,97317,OREGON,
MILWAUKEE SECURE DETENTION FACILITY,1015 N 10TH STREET,MILWAUKEE,WISCONSIN,53205,WISCONSIN,
MILWAUKEE WOMEN'S CORRECTIONAL CENTER,615 WEST KEEFE AVENUE,MILWAUKEE,WISCONSIN,53212,WISCONSIN,
MINERAL WELLS PRE-PAROLE TRANSFER FACILITY,759 HEINTZELMAN RD,Mineral Wells,TEXAS,76067,TEXAS,
MINIMUM SECURITY FACILITY,16 HOWARD AVENUE,CRANSTON,RHODE ISLAND,2920,RHODE ISLAND,
MINNEQUA COMMUNITY CORRECTIONS,2415 LAKE AVENUE,PUEBLO,COLORADO,81004,COLORADO,
STILLWATER,5329 OSGOOD AVENUE NORTH,STILLWATER,MINNESOTA,55082,MINNESOTA,
MINNESOTA CORRECTIONAL FACILITY - LINO LAKES,7525 4TH AVENUE,LINO LAKES,MINNESOTA,55014,MINNESOTA,
MINNESOTA CORRECTIONAL FACILITY - RED WING,1079 HWY 292,RED WING,MINNESOTA,55066,MINNESOTA,
RUSH,7600 525TH STREET,RUSH CITY,MINNESOTA,55069,MINNESOTA,
SHAKOPEE,1010 W 6TH AVENUE,SHAKOPEE,MINNESOTA,55379,MINNESOTA,
MINNESOTA CORRECTIONAL FACILITY - ST. CLOUD,2305 MINNESOTA BLVD SE,ST CLOUD,MINNESOTA,56304,MINNESOTA,
MINNESOTA CORRECTIONAL FACILITY - STILLWATER,970 PICKETT STREET NORTH,BAYPORT,MINNESOTA,55003,MINNESOTA,
FARIBAULT,1101 LINDEN LANE,FARIBAULT,MINNESOTA,55021,MINNESOTA,
MINSEC - CHESTER (117),201 EAST 12TH STREET,CHESTER,PENNSYLVANIA,19013,PENNSYLVANIA,
MINSEC-BROAD STREET (109),918 NORTH BROAD STREET,PHILADELPHIA,PENNSYLVANIA,19130,PENNSYLVANIA,
MINSEC-OXFORD (129),1917-23 WEST OXFORD STREET,PHILADELPHIA,PENNSYLVANIA,19121,PENNSYLVANIA,
MINSEC-SCRANTON (228),537-539 LINDEN ST,SCRANTON,PENNSYLVANIA,18503,PENNSYLVANIA,
MIRACLE HOUSE,214 BEECHWOOD AVENUE,BRIDGEPORT,CONNECTICUT,6604,CONNECTICUT,
MIRAMONTE CONSERVATION CAMP,49039 ORCHARD DRIVE,MIRAMONTE,CALIFORNIA,93641,CALIFORNIA,
Mirror Incorporate - Wichita,236 SOUTH PATTIE,WICHITA,KANSAS,67211,KANSAS,
"Mirror, Incorporated - Newton Residential Facility",P.O. Box 711,Newton,KANSAS,67114,KANSAS,
MISSION CREEK CORRECTIONS CENTER FOR WOMEN,3420 NE SAND HILL ROAD,Belfair,WASHINGTON,98528,WASHINGTON,
MISSISSIPPI COUNTY WORK RELEASE CENTER,727 NORTH COUNTY ROAD 599,LUXORA,ARKANSAS,72538,ARKANSAS,
MISSISSIPPI STATE PENITENTIARY,HIGHWAY 49 WEST,PARCHMAN,MISSISSIPPI,38738,MISSISSIPPI,
"MISSOULA CORRECTIONAL SERVICES, INC.",2350 MULLAN ROAD,MISSOULA,MONTANA,59808,MONTANA,
MISSOURI EASTERN CORRECTIONAL CENTER,18701 US Highway 66,Pacific,MISSOURI,63069,MISSOURI,
MISSOURI RIVER CORRECTIONAL CENTER,1800 48TH AVENUE S.W.,BISMARCK,NORTH DAKOTA,58506,NORTH DAKOTA,
MITCHELL COUNTY PRISON,4838 HIGHWAY 37 EAST,CAMILLA,GEORGIA,31730,GEORGIA,
MOBERLY CORRECTIONAL CENTER,5201 South Morley,Moberly,MISSOURI,65270,MISSOURI,
"Mobile Community Service Center - Keeton Corrections, Inc.",4901 BATTLESHIP PARKWAY,OLD SPANISH FORT,ALABAMA,36104,ALABAMA,
MOBILE COMMUNITY WORK CENTER,2423 N BELTLINE HWY,Eight Mile,ALABAMA,36610,ALABAMA,
MOHAWK CORRECTIONAL FACILITY,6514 RT. 26,ROME,NEW YORK,13440,NEW YORK,
MONROE CORRECTIONAL COMPLEX,16700 177TH AVENUE SE,MONROE,WASHINGTON,98272,WASHINGTON,
MONTANA STATE PRISON,400 CONLEY LAKE ROAD,DEER LODGE,MONTANA,59722,MONTANA,
MONTANA WOMEN'S PRISON,701 S 27TH STREET,BILLINGS,MONTANA,59101,MONTANA,
MONTEREY SHOCK INCARCERATION  FACILITY,2150 Evergreen Hill Road,Beaver Damns,NEW YORK,14812,NEW YORK,
MONTGOMERY FPC,MAXWELL AIR FORCE BASE BLDG. 1251,MONTGOMERY,ALABAMA,36112,ALABAMA,
MONTGOMERY STATE PRISON,650 MT. VERNON/ALSTON ROAD,MT. VERNON,GEORGIA,30445,GEORGIA,
MONTGOMERY WOMEN'S FACILITY,12085 WARES FERRY ROAD,MONTGOMERY,ALABAMA,36117,ALABAMA,
MOORE HAVEN C.F.,1282 EAST STATE RD. 78,MOORE HAVEN,FLORIDA,33471,FLORIDA,
MORGAN COUNTY CORRECTIONAL COMPLEX,541 WAYNE COTTON MORGAN DRIVE,WARTBURG,TENNESSEE,37887,TENNESSEE,
MORGANTOWN FCI,"446 GREENBAG ROAD, ROUTE 857",MORGANTOWN,WEST VIRGINIA,26501,WEST VIRGINIA,
MORIAH SHOCK INCARCERATION CORRECTIONAL FACILITY,75 BURT HART LANE,MINEVILLE,NEW YORK,12956,NEW YORK,
MORRIS COMMUNITY CORRECTION CENTER,300 WATER ST,DOVER,DELAWARE,19901,DELAWARE,
MORRIS HOUSE,26 ELM STREET,WATERBURY,CONNECTICUT,6702,CONNECTICUT,
MORRIS THERAPEUTIC SHELTER,142 GRIGGS STREET,WATERBURY,CONNECTICUT,6704,CONNECTICUT,
MORRISON CORRECTIONAL INSTITUTION,1573 MCDONALD CHURCH ROAD,HOFFMAN,NORTH CAROLINA,28347,NORTH CAROLINA,
MOSHANNON VALLEY CI,555 GEO DRIVE,PHILIPSBURG,PENNSYLVANIA,16866,PENNSYLVANIA,
MOUNT OLIVE CORRECTIONAL COMPLEX,1 MOUNTAIN SIDE WAY,MT. OLIVE,WEST VIRGINIA,25185,WEST VIRGINIA,
MOUNT PLEASANT CORRECTIONAL FACILITY,1200 E. Washington Street,Mount Pleasant,IOWA,52641,IOWA,
MOUNT PLEASANT WOMEN'S UNIT,1200 E. Washington Street,Mount Pleasant,IOWA,52641,IOWA,
MOUNTAIN HOME CONSERVATION CAMP,45260 BEAR CREEK ROAD,SPRINGVILLE,CALIFORNIA,93265,CALIFORNIA,
MOUNTAIN VIEW CORRECTIONAL FACILITY,545 AMITY PARK ROAD,SPRUCE PINE,NORTH CAROLINA,28777,NORTH CAROLINA,
MOUNTAIN VIEW UNIT,2305 RANSOM ROAD,Gatesville,TEXAS,76528,TEXAS,
MOUNTAINVIEW YOUTH CORRECTIONAL FACILITY,31 Petticoat Lane,Annandale,NEW JERSEY,8801,NEW JERSEY,
MT BULLION CORRECTIONAL CAMP,5730 MOUNT BULLION ACCESS RD,MARIPOSA,CALIFORNIA,95338,CALIFORNIA,
MT GLEASON CONSERVATION CAMP,12653 NORTH LITTLE TUJUNGA CANYON,SYLMAR,CALIFORNIA,91342,CALIFORNIA,
MT. MCGREGOR CORRECTIONAL FACILITY,1000 MT. MCGREGOR ROAD,WILTON,NEW YORK,12831,NEW YORK,
MULE CREEK STATE PRISON,4001 HWY 104,IONE,CALIFORNIA,95640,CALIFORNIA,
MUSCOGEE COUNTY PRISON,7175 SACERDOTE LANE,COLUMBUS,GEORGIA,31908,GEORGIA,
NAMPA COMMUNITY WORK  CENTER,1640 11TH AVENUE NORTH,NAMPA,IDAHO,83687,IDAHO,
NASH CORRECTIONAL INSTITUTION,2869 US 64 ALT,NASHVILLE,NORTH CAROLINA,27856,NORTH CAROLINA,
NATHANIEL J. NEAL UNIT,9055 SPUR 591,Amarillo,TEXAS,79107,TEXAS,
NEBRASKA CORRECTIONAL CENTER FOR WOMEN,1107 Recharge Road,York,NEBRASKA,68467,NEBRASKA,
NEBRASKA CORRECTIONAL CENTER FOR YOUTH,2610 North 20th Street East,Omaha,NEBRASKA,98110,NEBRASKA,
NEBRASKA STATE PENITENTIARY,4201 S. 14TH STREET,LINCOLN,NEBRASKA,68502,NEBRASKA,
NEON MEN'S WORK RELEASE,100 SOUTH MAIN STREET,NORWALK,CONNECTICUT,6854,CONNECTICUT,
NEON WATERBURY WOMEN/CHILDREN,690 EAST MAIN STREET,WATERBURY,CONNECTICUT,6702,CONNECTICUT,
NEUSE CORRECTIONAL INSTITUTION,701 STEVENS MILL ROAD,GOLDSBORO,NORTH CAROLINA,27533,NORTH CAROLINA,
NEW BEGINNINGS TREATMENT CENTER,2445 N ORACLE RD,TUCSON,ARIZONA,85705,ARIZONA,
NEW CASTLE CORRECTIONAL FACILITY,1000 VAN NUYS RD,NEW CASTLE,INDIANA,47362,INDIANA,
NEW DESTINY (230),91 BROAD ST.,ASHLAND,PENNSYLVANIA,17921,PENNSYLVANIA,
NEW HAMPSHIRE STATE PRISON FOR MEN,281 NORTH STATE STREET,CONCORD,NEW HAMPSHIRE,-9,NEW HAMPSHIRE,
NEW HAMPSHIRE STATE PRISON FOR WOMEN,317 MAST ROAD,GOFFSTOWN,NEW HAMPSHIRE,3045,NEW HAMPSHIRE,
NEW HANOVER CORRECTIONAL CENTER,330 DIVISION DRIVE,WILMINGTON,NORTH CAROLINA,28402,NORTH CAROLINA,
NEW HAVEN CORRECTIONAL CENTER,245 WALLEY AVENUE,NEW HAVEN,CONNECTICUT,6511,CONNECTICUT,
NEW JERSEY STATE PRISON,THIRD & FEDERAL STREETS,Trenton,NEW JERSEY,8625,NEW JERSEY,
NEW LISBON CORRECTIONAL INSTITUTION,2000 PROGRESS ROAD,NEW LISBON,WISCONSIN,53950,WISCONSIN,
NEW MEXICO WOMEN'S CORRECTIONAL FAC - CCA,1700 E OLD HWY 66,GRANTS,NEW MEXICO,87020,NEW MEXICO,
NEWBERRY CORRECTIONAL FACILITY,30001 NEWBERRY AVENUE,NEWBERRY,MICHIGAN,49868,MICHIGAN,
NEWTON CORRECTIONAL FACILITY,307 S. 60TH AVENUE W.,NEWTON,IOWA,50208,IOWA,
NEXT STEP COTTAGE,215 VALLEY STREET,WILLIMANTIC,CONNECTICUT,6226,CONNECTICUT,
NIANTIC ANNEX,201 West Street,Niantic,CONNECTICUT,6357,CONNECTICUT,
NOBLE CORRECTIONAL INSTITUTION,15708 MCCONNELSVILLE ROAD,CALDWELL,OHIO,43724,OHIO,
NORTH BRANCH CORRECTIONAL INSTITUTION,"14100 McMULLEN HIGHWAY, SW",CUMBERLAND,MARYLAND,21502,MARYLAND,
NORTH CENTRAL CORRECTIONAL COMPLEX,670 MARION-WILLIAMSPORT ROAD,MARION,OHIO,43302,OHIO,
NORTH CENTRAL CORRECTIONAL FACILITY,313 LANEDALE,ROCKWELL CITY,IOWA,50579,IOWA,
NORTH CENTRAL CORRECTIONAL INST AT GARDNER,500 COLONY ROAD,GARDNER,MASSACHUSETTS,1440,MASSACHUSETTS,
NORTH CENTRAL UNIT,10 PRISON CIRCLE,CALICO ROCK,ARKANSAS,72519,ARKANSAS,
NORTH COROLINA CORRECTIONAL INST FOR WOMEN,1034 BRAGG STREET,RALEIGH,NORTH CAROLINA,27699,NORTH CAROLINA,
NORTH DAKOTA STATE PENITENTIARY,3100 RAILROAD AVENUE,BISMARCK,NORTH DAKOTA,58506,NORTH DAKOTA,
NORTH END TRANSITIONAL HOUSING UNIT,281 NORTH STATE STREET,CONCORD,NEW HAMPSHIRE,3301,NEW HAMPSHIRE,
North Fork Correctional Facility - CCA,1605 East Main,Sayre,OKLAHOMA,73662,OKLAHOMA,
NORTH IDAHO CORRECTIONAL INSTITUTION,236 RADAR ROAD,COTTONWOOD,IDAHO,83522,IDAHO,
NORTH KERN STATE PRISON,2737 W CECIL AVENUE,DELANO,CALIFORNIA,93216,CALIFORNIA,
NORTH LAWNDALE ADULT TRANSITION CENTER,2839 West Fillmore,Chicago,ILLINOIS,60612,ILLINOIS,
NORTH PIEDMONT CORRECTIONAL CTR FOR WOMEN,1420 RALEIGH ROAD,LEXINGTON,NORTH CAROLINA,27292,NORTH CAROLINA,
NORTHEAST ARKANSAS COMMUNITY CORRECTION CENTER,1351 Cyro Rd,Osceola,ARKANSAS,72370,ARKANSAS,
NORTHEAST CORRECTIONAL CENTER,13698 AIRPORT ROAD,BOWLING GREEN,MISSOURI,63334,MISSOURI,
NORTHEAST CORRECTIONAL COMPLEX,5249 HIGHWAY 67 WEST,MOUNTAIN CITY,TENNESSEE,37683,TENNESSEE,
NORTHEAST CORRECTIONAL COMPLEX - ANNEX,188 OLD RAILROAD GRADE RD,ROAN MOUNTAIN,TENNESSEE,37687,TENNESSEE,
NORTHEAST NEW MEXICO DETENTION FACILITY,185 DR. MICHAEL JENKINS ROAD,CLAYTON,NEW MEXICO,88415,NEW MEXICO,
Northeast Ohio Corr Ctr CI,2240 HUBBARD RD.,YOUNGSTOWN,OHIO,44505,OHIO,
NORTHEAST OKLAHOMA CORRECTIONAL CENTER,442606 E. 250 ROAD,VINITA,OKLAHOMA,74301,OKLAHOMA,
NORTHEAST PRE-RELEASE CENTER,2675 E 30TH STREET,CLEVELAND,OHIO,44115,OHIO,
NORTHEAST REGIONAL CORRECTIONAL FACILITY,1270 US ROUTE 5,ST. JOHNSBURY,VERMONT,5819,VERMONT,
NORTHEASTERN CORRECTIONAL CENTER,BARRETTS MILL ROAD,WEST CONCORD,MASSACHUSETTS,1742,MASSACHUSETTS,
NORTHERN  CORRECTIONAL FACILITY,112 NORTHERN REGIONAL CORRECTIONAL DRIVE,MOUNDSVILLE,WEST VIRGINIA,26041,WEST VIRGINIA,
NORTHERN CORRECTIONAL INSTITUTION,287 BILTON ROAD,SOMERS,CONNECTICUT,6071,CONNECTICUT,
NORTHERN NEVADA CORRECTIONAL CENTER,1721 E SNYDER AVE,CARSON CITY,NEVADA,89701,NEVADA,
NORTHERN NEVADA RESTITUTION CENTER,2595 E 2ND STREET,RENO,NEVADA,89502,NEVADA,
NORTHERN NEW HAMPSHIRE CORRECTIONAL FACILITY,138 EAST MILAN ROAD,BERLIN,NEW HAMPSHIRE,3570,NEW HAMPSHIRE,
NORTHERN STATE CORRECTIONAL FACILITY,2559 GLEN ROAD,NEWPORT,VERMONT,5851,VERMONT,
NORTHERN STATE PRISON,168 FRONTAGE ROAD,Newark,NEW JERSEY,7114,NEW JERSEY,
NORTHERN UTAH COMMUNITY CORRECTIONAL CENTER,2445 S WATER TOWER WAY,OGDEN,UTAH,84401,UTAH,
NORTHPOINT TRAINING CENTER,710 WALTER REED ROAD,BURGIN,KENTUCKY,40310,KENTUCKY,
NORTHSTAR CENTER,3022 GEORGE PARK HIGHWAY,Fairbanks,ALASKA,99709,ALASKA,
NORTHWEST ARKANSAS WORK RELEASE CENTER,210 SPRING STREET,SPRINGDALE,ARKANSAS,72764,ARKANSAS,
NORTHWEST CORRECTIONAL COMPLEX,960 STATE ROAD 212,TIPTONVILLE,TENNESSEE,38079,TENNESSEE,
NORTHWEST FLORIDA RECEPTION CENTER ANNEX,STATE ROAD 279,CHIPLEY,FLORIDA,32428,FLORIDA,
NORTHWEST FLORIDA RECEPTION CENTER MAIN UNIT,STATE ROAD 279,CHIPLEY,FLORIDA,32428,FLORIDA,
NORTHWEST RESIDENTIAL SUBSTANCE ABUSE CENTER,97 KEVIN LANE,ROCK SPRING,GEORGIA,30739,GEORGIA,
NORTHWEST STATE CORRECTIONAL FACILITY,3649 LOWER NEWTON ROAD,SWANTON,VERMONT,5488,VERMONT,
NORTON CORRECTIONAL FACILITY,E HIGHWAY 36,NORTON,KANSAS,67654,KANSAS,
NOTTOWAY CORRECTIONAL CENTER,2892 SCHUTT ROAD,BURKEVILLE,VIRGINIA,23922,VIRGINIA,
NOTTOWAY WORK CENTER,-9,Burkville,VIRGINIA,23922,VIRGINIA,
NOXUBEE COUNTY COMMUNITY WORK CENTER,110 INDUSTRIAL PARK ROAD,MACON,MISSISSIPPI,39341,MISSISSIPPI,
O.B. ELLIS UNIT,1697 FM 980,Huntsville,TEXAS,77343,TEXAS,
O.L. LUTHER UNIT,1800 LUTHER DRIVE,Navasota,TEXAS,77868,TEXAS,
OAHU COMMUNITY CORRECTIONAL CENTER,2199 KAMEHAMEHA HWY,HONOLULU,HAWAII,96819,HAWAII,
OAK GLEN CONSERVATION CAMP,41100 PINEBENCH RD,YUCAIPA,CALIFORNIA,92399,CALIFORNIA,
OAKDALE FCI,1507 EAST WHATLEY ROAD,OAKDALE,FEDERAL,71463,LOUISIANA,
OAKHILL CORRECTIONAL INSTITUTION,5212 COUNTY HIGHWAY M,FITCHBURG,WISCONSIN,53575,WISCONSIN,
Oakland Center- Cornell Corrections,205 Macarthur Boulevard,Oakland,CALIFORNIA,94610,CALIFORNIA,
OAKS CORRECTIONAL FACILITY,1500 CABERFAE HIGHWAY,MANISTEE,MICHIGAN,49660,MICHIGAN,
ODOM CORRECTIONAL INSTITUTION,485 ODOM PRSION ROAD,JACKSON,NORTH CAROLINA,27845,NORTH CAROLINA,
OGDENSBURG CORRECTIONAL FACILITY,One Correction Way,Ogdensburg,NEW YORK,13669,NEW YORK,
OHIO COUNTY CORRECTIONAL COMPLEX,1501 EOFF STREET,WHEELING,WEST VIRGINIA,26003,WEST VIRGINIA,
OHIO REFORMATORY FOR WOMEN,1479 COLLINS AVENUE,MARYSVILLE,OHIO,43040,OHIO,
OHIO STATE PENITENTIARY,878 COITSVILLE-HUBBARD RD,YOUNGSTOWN,OHIO,44505,OHIO,
OJIBWAY CORRECTIONAL FACILITY,NORTH 5705 OJIBWAY ROAD,MARENISCO,MICHIGAN,49947,MICHIGAN,
OKALOOSA CORRECTIONAL INSTITUTION,3189 COLONEL GREG MALLOY ROAD,CRESTVIEW,FLORIDA,32539,FLORIDA,
OKALOOSA WORK CAMP,3189 COLONEL GREG MALLOY ROAD,CRESTVIEW,FLORIDA,32539,FLORIDA,
OKEECHOBEE CORRECTIONAL INSTITUTION,3420 NE 168TH STREET,OKEECHOBEE,FLORIDA,34972,FLORIDA,
OKLAHOMA CITY COMMUNITY CORRECTIONAL CENTER,315 W I-44 SERVICE ROAD,OKLAHOMA CITY,OKLAHOMA,73118,OKLAHOMA,
OKLAHOMA CITY FTC,7410 S. MACARTHUR BLVD,OKLAHOMA CITY,OKLAHOMA,73169,OKLAHOMA,
OKLAHOMA HALFWAY HOUSE,517 SW 2ND STREET,OKLAHOMA CITY,OKLAHOMA,73109,OKLAHOMA,
OKLAHOMA STATE PENITENTIARY,CORNER OF WEST AND STONEWALL,MCALESTER,OKLAHOMA,74502,OKLAHOMA,
OKLAHOMA STATE REFORMATORY,1700 EAST FIRST STREET,GRANITE,OKLAHOMA,73547,OKLAHOMA,
OLD COLONY CORRECTIONAL CENTER,1 ADMINISTRATION ROAD,BRIDGEWATER,MASSACHUSETTS,2324,MASSACHUSETTS,
OLYMPIA WORK RELEASE CENTER,1800 11th S.W.,Olympia,WASHINGTON,98504,WASHINGTON,
OLYMPIC CORRECTIONAL CENTER,11235 HOH MAINLINE,Forks,WASHINGTON,98331,WASHINGTON,
OMAHA CORRECTIONAL CENTER,2323 AVENUE J,OMAHA,NEBRASKA,68110,NEBRASKA,
OMEGA TECHNICAL VIOLATOR CENTER,104 Walco Lane,Malvern,ARKANSAS,72104,ARKANSAS,
OPA LOCKA WORK RELEASE CENTER,5400 NW 135 ST.,OPA LOCKA,FLORIDA,33054,FLORIDA,
OPEN HEARTH - MEN'S WORK RELEASE,437 Sheldon Street,Hartford,CONNECTICUT,6106,CONNECTICUT,
ORANGE CORRECTIONAL CENTER,2110 CLARENCE WALTERS RD,HILLSBOROUGH,NORTH CAROLINA,27278,NORTH CAROLINA,
ORANGE STREET COMMUNITY CORRECTIONAL CENTER,80 SOUTH ORANGE STREET,SALT LAKE CITY,UTAH,84116,UTAH,
OREGON CORRECTIONAL CENTER,5140 HIGHWAY M,OREGON,WISCONSIN,53575,WISCONSIN,
OREGON STATE CORRECTIONAL INSTITUTION,3405 DEER PARK DR SE,SALEM,OREGON,97310,OREGON,
OREGON STATE PENITENTIARY - MAIN,2605 STATE STREET,SALEM,OREGON,97310,OREGON,
ORIANA HOUSE COMMUNITY CORRECTIONS & TRANSITIONAL CENTER,1829 EAST 55T STREET,CLEVELAND,OHIO,44103,OHIO,
ORIANA HOUSE RIP/GWJ,40 EAST GLENWOOD AVE,AKRON,OHIO,44304,OHIO,
ORIANA HOUSE TMRC,55 E GLENWOOD AVE,AKRON,OHIO,44304,OHIO,
ORLANDO TRANSITION CENTER,2025 NORTH MERCY DRIVE,ORLANDO,FLORIDA,32808,FLORIDA,
ORLANDO WORK RELEASE CENTER,7300 LAUREL HILL ROAD,ORLANDO,FLORIDA,32818,FLORIDA,
ORLEANS CORRECTIONAL FACILITY,3595 Gaines Basin Road,ALBION,NEW YORK,14411,NEW YORK,
ORLEANS PARISH PRISON TWP,225 SOUTH BROAD STREET,NEW ORLEANS,LOUISIANA,70119,LOUISIANA,
OSBORN CORRECTIONAL INSTITUTION,355 BILTON RD,SOMERS,CONNECTICUT,6071,CONNECTICUT,
OSHKOSH CORRECTIONAL INSTITUTION,1730 WEST SNELL ROAD,OSHKOSH,WISCONSIN,54903,WISCONSIN,
OTISVILLE CAMP,TWO MILE DRIVE,OTISVILLE,NEW YORK,10963,NEW YORK,
OTISVILLE CORRECTIONAL  FACILITY,57 SANITORIUM ROAD,OTISVILLE,NEW YORK,10963,NEW YORK,
OTISVILLE FCI,TWO MILE DRIVE,OTISVILLE,NEW YORK,10963,NEW YORK,
OTTUMWA RESIDENTIAL FACILITY,245 OSAGE DRIVE,OTTUMWA,IOWA,52501,IOWA,
OUACHITA RIVER UNIT,100 WALCO LANE,MALVERN,ARKANSAS,72104,ARKANSAS,
OWENS VALLEY CONSERVATION CAMP,2781 ROUND VALLEY ROAD,BISHOP,CALIFORNIA,93514,CALIFORNIA,
OXFORD FCI,COUNTY ROAD G & ELK AVENUE,OXFORD,WISCONSIN,53952,WISCONSIN,
OXFORD-CAMP,COUNTY ROAD G & ELK AVENUE,OXFORD,WISCONSIN,53952,WISCONSIN,
OZARK CORRECTIONAL CENTER,929 Honor Camp Lane,Fordland,MISSOURI,65652,MISSOURI,
PACT-BRADLEY HOUSE,132 E 6TH STREET,MICHIGAN CITY,INDIANA,46360,INDIANA,
PALMER CORRECTIONAL CENTER,"MILE 58, GLENN HWY",SUTTON,ALASKA,99674,ALASKA,
PALMER PRE-RELEASE CENTER,2012 PISGAH ROAD,FLORENCE,SOUTH CAROLINA,29501,SOUTH CAROLINA,
PAM LYCHNER STATE JAIL,2350 ATASCOCITA ROAD,Humble,TEXAS,77396,TEXAS,
PAMLICO CORRECTIONAL FACILITY,601 N THIRD STREET,BAYBORO,NORTH CAROLINA,28515,NORTH CAROLINA,
PANAMA CITY WORK RELEASE CENTER,163-PANAMA CITY W.R.C.,PANAMA CITY,FLORIDA,32405,FLORIDA,
PARKVIEW CENTER,831 B STREET,ANCHORAGE,ALASKA,99501,ALASKA,
PARLIN FORK CONSERVATION CAMP,23000 HWY 20,FORT BRAGG,CALIFORNIA,95437,CALIFORNIA,
PARNALL CORRECTIONAL FACILITY,1780 EAST PARNALL,JACKSON,MICHIGAN,49201,MICHIGAN,
Parsons House,2930 N. 25th St,Milwaukee,WISCONSIN,53206,WISCONSIN,
PASCAGOULA RESTITUTION CENTER,1721 EAST KENNETH AVENUE,PASCAGOULA,MISSISSIPPI,39568,MISSISSIPPI,
PASQUOTANK CORRECTIONAL INSTITUTION,527 COMMERCE DR,ELIZABETH CITY,NORTH CAROLINA,27906,NORTH CAROLINA,
PASSAGES,1001 SOUTH 27TH STREET,BILLINGS,MONTANA,59101,MONTANA,
PATRICK HENRY CORRECTIONAL UNIT,18155 A.L. PHILPOTT HIGHWAY,RIDGEWAY,VIRGINIA,24148,VIRGINIA,
PATUXENT INSTITUTION,7555 WATERLOO ROAD,JESSUP,MARYLAND,20794,MARYLAND,
PAULDING PROBATION DENTENTION CENTER,"1295 INDUSTRIAL BOULEVARD, N",DALLAS,GEORGIA,30132,GEORGIA,
PEER I COMMUNITY CORRECTIONS,3712 W. PRINCETON CIR,DENVER,COLORADO,80236,COLORADO,
PEKIN - CAMP,2600 S SECOND STREET,PEKIN,ILLINOIS,61554,ILLINOIS,
PEKIN FCI,2600 S. SECOND ST.,PEKIN,ILLINOIS,61554,ILLINOIS,
PELICAN BAY STATE PRISON,5905 LAKE EARL DRIVE,CRESCENT CITY,CALIFORNIA,95532,CALIFORNIA,
PENDER CORRECTIONAL INSTITUTION,906 PENDERLEA HWY,BURGAW,NORTH CAROLINA,28425,NORTH CAROLINA,
PENDLETON CORRECTIONAL FACILITY,4490 W REFORMATORY RD,PENDLETON,INDIANA,46064,INDIANA,
PENINSULA WORK RELEASE,1340 Lloyd Parkway,Port Orchard,WASHINGTON,98367,WASHINGTON,
PENITENTIARY OF NEW MEXICO Level II,P. O. Box 1059,Santa Fe,NEW MEXICO,87504,NEW MEXICO,
"PENITENTIARY OF NEW MEXICO Level IV, V",P. O. Box 1059,Santa Fe,NEW MEXICO,87504,NEW MEXICO,
PENITENTIARY OF NEW MEXICO LEVEL VI,P. O. Box 1059,Santa Fe,NEW MEXICO,87504,NEW MEXICO,
PENN PAVILION (313),701 PENN AVENUE,NEW BRIGHTON,PENNSYLVANIA,15066,PENNSYLVANIA,
Pensacola FPC,110 RABY AVE,PENSACOLA,FLORIDA,32509,FLORIDA,
PENSACOLA WORK RELEASE CENTER,"3050 N ""L"" STREET",PENSACOLA,FLORIDA,32501,FLORIDA,
PEORIA ADULT TRANSITIONAL CENTER,607-613 Main Street,Peoria,ILLINOIS,61602,ILLINOIS,
PERRY CORRECTIONAL INSTITUTION,430 OAKLAWN ROAD,PELZER,SOUTH CAROLINA,29669,SOUTH CAROLINA,
PETERSBURG FCI,1100 RIVER ROAD,HOPEWELL,FEDERAL,23860,VIRGINIA,
PETERSBURG MED FCI,1060 RIVER ROAD,HOPEWELL,FEDERAL,23860,VIRGINIA,
PETERSBURG-CAMP,1100 RIVER ROAD,HOPEWELL,FEDERAL,23860,VIRGINIA,
Pharos House,5 Grant ST,Portland,MAINE,4101,MAINE,
PHILADELPHIA CCC  #4 (104),1628-1630 N 15TH STREET,PHILADELPHIA,PENNSYLVANIA,19121,PENNSYLVANIA,
PHILADELPHIA CCC #2 (102),407 N 8TH STREET,PHILADELPHIA,PENNSYLVANIA,19123,PENNSYLVANIA,
PHILADELPHIA CCC #3 (103),219 E HIGH STREET,PHILADELPHIA,PENNSYLVANIA,19144,PENNSYLVANIA,
PHILADELPHIA INDUSTRIAL CORRECTIONAL CENTER,8301 STATE ROAD,PHILADELPHIA,PENNSYLVANIA,19136,PENNSYLVANIA,
PHILLIPS STATE PRISON,2989 WEST ROCK QUARRY ROAD,BUFORD,GEORGIA,30519,GEORGIA,
PHILLIPS TRANSITIONAL CENTER,2989 WEST ROCK QUARRY ROAD,BUFORD,GEORGIA,30519,GEORGIA,
PHOENIX - CAMP,37900 N 45TH AVENUE,PHOENIX,ARIZONA,85086,ARIZONA,
PHOENIX CENTER,8031 HIGHWAY I-76,HENDERSON,COLORADO,80640,COLORADO,
PHOENIX FCI,37900 N 45TH AVE,PHOENIX,ARIZONA,85086,ARIZONA,
PICKAWAY CORRECTIONAL INSTITUTION,11781 STATE ROUTE 762,ORIENT,OHIO,43146,OHIO,
PIEDMONT CORRECTIONAL INSTITUTION,1245 CAMP ROAD,SALISBURY,NORTH CAROLINA,28147,NORTH CAROLINA,
PIKE COUNTY COMMUNITY WORK CENTER,2015 JESSE HALL ROAD,MAGNOLIA,MISSISSIPPI,39652,MISSISSIPPI,
PILOT ROCK CONSERVATION CAMP,California 138,Hesperia,CALIFORNIA,92325,CALIFORNIA,
PINCKNEYVILLE CORRECTIONAL CENTER,5835 State Route 154,Pinckneyville,ILLINOIS,62274,ILLINOIS,
PINE BLUFF COMPLEX,890 FREE LINE DRIVE,PINE BLUFF,ARKANSAS,71603,ARKANSAS,
PINE PRAIRIE DETENTION CENTER - LCS,1133 HAMPTON DUPRE ROAD,PINE PRAIRIE,LOUISIANA,70576,LOUISIANA,
PINELLAS WORK RELEASE CENTER,5205 ULMERTON ROAD,CLEARWATER,FLORIDA,33760,FLORIDA,
PIOCHE CONSERVATION CAMP,1 HARDTIMES ROAD,PIOCHE,NEVADA,89043,NEVADA,
Pioneer Fellowship House,220 11th Ave,Seattle,FEDERAL,98122,WASHINGTON,
PITTSBURGH CCC (303),535 SOUTH AIKEN AVENUE,PITTSBURGH,PENNSYLVANIA,15232,PENNSYLVANIA,
PITTSFIELD WORK CAMP,23540 365th Street,Pittsfield,ILLINOIS,62363,ILLINOIS,
PLAINFIELD CORRECTIONAL FACILITY,727 MOON ROAD,PLAINSFIELD,INDIANA,46168,INDIANA,
PLAINFIELD SHORT TERM OFFENDER PROGRAM (STOP) FACILITY,501 W. MAIN STREET,PLAINSFIELD,INDIANA,46168,INDIANA,
PLEASANT VALLEY STATE PRISON,24863 W JAYNE AVENUE,COALINGA,CALIFORNIA,93210,CALIFORNIA,
PLUMMER COMMUNITY CORRECTION CENTER,38 TODDS LANE,WILMINGTON,DELAWARE,19802,DELAWARE,
POCAHONTAS STATE CORRECTIONAL CENTER,317 OLD RIVER ROAD,POCAHONTAS,VIRGINIA,24635,VIRGINIA,
POCATELLO WOMEN'S CORR CENTER,1451 FORE ROAD,POCATELLO,IDAHO,83204,IDAHO,
POINT MACKENZIE CORRECTIONAL CENTER,13690 S. GUERSEY ROAD,WASILLA,ALASKA,99687,ALASKA,
POINTE COUPEE PARISH TWP,"10933 CAJUN II ROAD, HWY 981",NEW ROADS,LOUISIANA,70760,LOUISIANA,
POLK CORRECTION INSTITUTION,1001 VEAZEY ROAD,BUTNER,NORTH CAROLINA,27509,NORTH CAROLINA,
POLK CORRECTIONAL INSTITUTION,10800 EVANS ROAD,POLK CITY,FLORIDA,33868,FLORIDA,
POLK WORK CAMP,10800 EVANS ROAD,POLK CITY,FLORIDA,33868,FLORIDA,
POLLOCK CAMP,1000 AIRBASE ROAD,POLLOCK,FEDERAL,71467,LOUISIANA,
POLLOCK MED FCI,1000 AIRBASE ROAD,POLLOCK,FEDERAL,71467,LOUISIANA,
POLLOCK USP,1000 AIRBASE ROAD,POLLOCK,FEDERAL,71467,LOUISIANA,
POMPANO TRANSITION CENTER,5600 N.W. 9TH AVENUE,FT. LAUDERDALE,FLORIDA,33309,FLORIDA,
PONDVILLE CORRECTIONAL CENTER,Industries Drive,Norfolk,MASSACHUSETTS,2056,MASSACHUSETTS,
PONTIAC CORRECTIONAL CENTER,700 W LINCOLN STREET,PONTIAC,ILLINOIS,61764,ILLINOIS,
POPLAR HILL PRE-RELEASE UNIT,20490 NANTICOKE ROAD,QUANTICO,MARYLAND,21856,MARYLAND,
Port of Hope Coerur D'arlene Res,218 North 23rd Street,Coeur D'arlene,IDAHO,83814,IDAHO,
Port of Hope Nampa Residential,508 E Florida Ave,Nampa,IDAHO,83686,IDAHO,
POTOSI CORRECTIONAL CENTER,11593 State Highway O,Mineral Point,MISSOURI,63660,MISSOURI,
POWDER RIVER CORRECTIONAL FACILITY,3600 13TH STREET,BAKER CITY,OREGON,97814,OREGON,
POWHATAN CORRECTIONAL CENTER,3600 WOODS WAY,STATE FARM,VIRGINIA,23160,VIRGINIA,
POWHATON RECEPTION & CLASSIFICATION,3600 WOODS WAY,STATE FARM,VIRGINIA,23160,VIRGINIA,
PRADO CONSERVATION CAMP,14467 CENTRAL AVE,CHINO,CALIFORNIA,91710,CALIFORNIA,
PRAIRIE CENTER,122 W HILL STREET,CHAMPAIGN,ILLINOIS,61820,ILLINOIS,
PRAIRIE DU CHIEN CORRECTIONAL FACILITY,500 E PARRISH STREET,PRAIRIE DU CHIEN,WISCONSIN,53821,WISCONSIN,
PRESTON E. SMITH UNIT,1313 County Road 19,Lamesa,TEXAS,79331,TEXAS,
PRICE DANIEL UNIT,938 South FM 1673,Snyder,TEXAS,79549,TEXAS,
PROGRESS CENTER (326),179 PROGRESS DRIVE,WAYNESBURG,PENNSYLVANIA,15370,PENNSYLVANIA,
PROGRESS HOUSE WORK RELEASE,5601 6th Ave,Tacoma,WASHINGTON,98406,WASHINGTON,
PROMISE PLACE (235),381 S. SECOND ST,STEELTON,PENNSYLVANIA,17113,PENNSYLVANIA,
PROTOTYPES,845 EAST ARROW HIGHWAY,POMONA,CALIFORNIA,91767,CALIFORNIA,
PRUNTYTOWN CORRECTIONAL CENTER,ROUTE 4 BOX 49A,GRAFTON,WEST VIRGINIA,26354,WEST VIRGINIA,
PUERTA LA CRUZ CONSERVATION CAMP,32363 HIGHWAY 79,WARMER SPRINGS,CALIFORNIA,92086,CALIFORNIA,
PUGSLEY CORRECTIONAL FACILITY,7401 EAST WALTON ROAD,KINGSLEY,MICHIGAN,49649,MICHIGAN,
PULASKI STATE PRISON,"ROUTE 2, UPPER RIVER ROAD",HAWKINSVILLE,GEORGIA,31036,GEORGIA,
PUTNAM CORRECTIONAL,YELVINGTON ROAD,EAST PALATKA,FLORIDA,32131,FLORIDA,
PUTNAMVILLE CORRECTIONAL FACILITY,1946 W US HWY 40,GREENCASTLE,INDIANA,46135,INDIANA,
QUEENSBORO CORRECTIONAL FACILITY,47-04 Van Dam Street,Long Island City,NEW YORK,11101,NEW YORK,
QUEHANNA BOOT CAMP,4395 QUEHANNA HWY,KARTHAUS,PENNSYLVANIA,16845,PENNSYLVANIA,
QUINCY ANNEX,2225 PAT THOMAS PARKWAY,QUNICY,FLORIDA,32351,FLORIDA,
QUINLAN COTTAGE,8 LEWIS STREET,NORWALK,CONNECTICUT,6851,CONNECTICUT,
QUITMAN COUNTY COMMUNITY WORK CENTER,201 CAMP B ROAD,LAMBERT,MISSISSIPPI,38643,MISSISSIPPI,
R. J. DONOVAN CORRECTIONAL FACILITY,480 ALTA ROAD,SAN DIEGO,CALIFORNIA,92179,CALIFORNIA,
R.M.C WORK CAMP,8035 S. COUNTY ROAD 231,LAKE BUTLER,FLORIDA,32054,FLORIDA,
R.M.C.- WEST UNIT,8183 SW 152ND LOOP,LAKE BUTLER,FLORIDA,32054,FLORIDA,
RACINE CORRECTIONAL INSTITUTION,2019 WISCONSIN STREET,STURTEVANT,WISCONSIN,53177,WISCONSIN,
RACINE YOUTHFUL OFFENDER CORRECTIONAL FACILITY,1501 ALBERT STREET,RACINE,WISCONSIN,53404,WISCONSIN,
RAINBOW CONSERVATION CAMP,8215 Rainbow Heights Rd,FALLBROOK,CALIFORNIA,92028,CALIFORNIA,
RALEIGH CORRECTIONAL CENTER FOR WOMEN,1201 S. STATE STREET,RALEIGH,NORTH CAROLINA,27699,NORTH CAROLINA,
RANDALL L. WILLIAMS CORRECTIONAL FACILITY,7206 WEST 7TH STREET,PINE BLUFF,ARKANSAS,71603,ARKANSAS,
RANDOLPH CORRECTIONAL CENTER,2760 US HWY 220 BUS,ASHEBORO,NORTH CAROLINA,27203,NORTH CAROLINA,
RANKIN COUNTY COMMUNITY WORK CENTER,1632 HIGHWAY 80 EAST,FLOWOOD,MISSISSIPPI,39232,MISSISSIPPI,
RAP/LINCOLN PARK RELEASE,3704-06 S Yakima,Tacoma,WASHINGTON,98418,WASHINGTON,
RAPID CITY MINIMUM UNIT,2725 Creek Drive,Rapid City,SOUTH DAKOTA,57703,SOUTH DAKOTA,
RAY BROOK FCI,128 RAY BROOK ROAD,RAY BROOK,FEDERAL,12977,NEW YORK,
RE-ENTRY OF OCALA WORK RELEASE CENTER,2006 NE 8TH ROAD,OCALA,FLORIDA,34470,FLORIDA,
REALITY HOUSE,1341 INDIAN LAKE ROAD,DAYTONA BEACH,FLORIDA,32124,FLORIDA,
Reality House - GEO Group,5965 N. Expressway 77/83,Brownsville,TEXAS,78520,TEXAS,
"REALITY RANCH, LLC",1515 /1602 N. Tancahua,Corpus Christi,TEXAS,78401,TEXAS,
RECEPTION MEDICAL CENTER,7765 SOUTH COUNTY ROAD 231,LAKE BUTLER,FLORIDA,32054,FLORIDA,
RECEPTION-DIAGNOSTIC CENTER,737 MOON ROAD,PLAINSFIELD,INDIANA,46168,INDIANA,
RED EAGLE WORK CENTER,1290 RED EAGLE ROAD,MONTGOMERY,ALABAMA,36110,ALABAMA,
RED ONION STATE PRISON,10800 H. JACK ROSE HIGHWAY,POUND,VIRGINIA,24279,VIRGINIA,
Red Rock Correctional Center - CCA,1750 East Arica Road,Eloy,ARIZONA,85131,ARIZONA,
REDGRANITE CORRECTIONAL INSTITUTION,1006 COUNTY ROAD EE,REDGRANITE,WISCONSIN,54970,WISCONSIN,
Reeves County Detention Center I & II,98 WEST COUNTY ROAD 204,PECOS,TEXAS,79772,TEXAS,
Reeves County Detention Center III,100 West County Road 204,Pecos,TEXAS,79772,TEXAS,
REHABILITATION SERVICES 1,300 WEST 20TH STREET,NORFOLK,VIRGINIA,23517,VIRGINIA,
RENEWAL # 1 (317),339 BOULEVARD OF THE ALLIES,PITTSBURGH,PENNSYLVANIA,15222,PENNSYLVANIA,
RENEWAL#2 (327),704 2ND AVE,PITTSBURGH,PENNSYLVANIA,15219,PENNSYLVANIA,
RESIDENTIAL CORRECTIONS CENTER,222 POWER STREET,AKRON,OHIO,44304,OHIO,
RESIDENTS IN TRANSITION,711 NORTH EAST MONROE,PEORIA,ILLINOIS,61603,ILLINOIS,
REVEREND C.A. HOLLIDAY TRANSFER FACILITY,295 IH 45 North,Huntsville,TEXAS,77320,TEXAS,
REYNOLDO V. LOPEZ STATE JAIL,1203 EL CIBOLO ROAD,"Edinburg,",TEXAS,78542,TEXAS,
REYNOLDS WORK RELEASE,410 4th Ave,Seattle,WASHINGTON,98104,WASHINGTON,
RICHARD A. HANDLON CORRECTIONAL FACILITY,1728 BLUEWATER HIGHWAY,IONIA,MICHIGAN,48846,MICHIGAN,
RICHARD P. LEBLANC PRE-RELEASE FACILITY,3695 FM 3514,Beaumont,TEXAS,77705,TEXAS,
RICHLAND CORRECTIONAL INSTITUTION,1001 OLIVESBURG ROAD,MANSFIED,OHIO,44905,OHIO,
RICHMOND COUNTY PRISON,2314 TOBACCO ROAD,AUGUSTA,GEORGIA,30906,GEORGIA,
RICHWOOD Correctional Center - LaSalle,180 PINE BAYOU CIRCLE,RICHWOOD,LOUISIANA,71202,LOUISIANA,
RIDGELAND CORRECTIONAL INSTITUTION,5 CORRECTIONAL RD,RIDGELAND,SOUTH CAROLINA,29936,SOUTH CAROLINA,
RIFLE CORRECTIONAL CENTER,0200 COUNTY ROAD 219,RIFLE,COLORADO,81650,COLORADO,
RIVER CORRECTIONAL CENTER - LaSalle,26362 HIGHWAY 15,FERRIDAY,LOUISIANA,71334,LOUISIANA,
RIVERBEND CORRECTIONAL FACILITY,196 Laying Farm Rd,Milledgeville,GEORGIA,31061,GEORGIA,
RIVERBEND MAXIMUM SECURITY INSTITUTION,7475 COCKRILL BEND BLVD,NASHVILLE,TENNESSEE,37243,TENNESSEE,
RIVERS CI,145 PARKER`S FISHERY RD,WINTON,FEDERAL,27986,NORTH CAROLINA,
RIVERSIDE CENTER (319),"3001 BEAVER AVENUE, STE. B",PITTSBURGH,PENNSYLVANIA,15233,PENNSYLVANIA,
Riverside House,968 NW 2nd Street,Miami,FLORIDA,33128,FLORIDA,
RIVERVIEW CORRECTIONAL FACILITY,1110 TIBBITS DRIVE,OGDENSBURG,NEW YORK,13669,NEW YORK,
ROBERT E ELLSWORTH CORRECTIONAL CENTER,21425 A SPRING STREET,UNION GROVE,WISCONSIN,53182,WISCONSIN,
ROBERT PATTEN PROBATION DETENTION CENTER,27 South 10th Street,LAKELAND,GEORGIA,31635,GEORGIA,
ROBESON CORRECTIONAL CENTER,803 NC HIGHWAY 711,LUMBERTON,NORTH CAROLINA,28359,NORTH CAROLINA,
ROBINSON CORRECTION CENTER,13423 E 1150TH AVENUE,ROBINSON,ILLINOIS,62454,ILLINOIS,
ROBINSON CORRECTIONAL INSTITUTION,285 SHAKER RD,ENFIELD,CONNECTICUT,6082,CONNECTICUT,
ROCHESTER CORRECTIONAL FACILITY,470 Ford Street,Rochester,NEW YORK,14608,NEW YORK,
ROCHESTER FMC,2110 EAST CENTER STREET,ROCHESTER,MINNESOTA,55904,MINNESOTA,
ROCKVILLE CORRECTIONAL FACILITY,811 W 50 N,ROCKVILLE,INDIANA,47872,INDIANA,
ROEDERER CORRECTIONAL COMPLEX,4000 MORGAN SCHOOL ROAD,LAGRANGE,KENTUCKY,40031,KENTUCKY,
ROGELIO SANCHEZ STATE JAIL,3901 STATE JAIL ROAD,El Paso,TEXAS,79938,TEXAS,
ROGER SHERMAN HOUSE,48 HOWE STREET,NEW HAVEN,CONNECTICUT,6511,CONNECTICUT,
ROGERS HOUSE,900 WATERTOWN AVENUE,WATERBURY,CONNECTICUT,6708,CONNECTICUT,
ROGERS STATE PRISON,1978 GEORGIA HIGHWAY 147,REIDSVILLE,GEORGIA,30453,GEORGIA,
ROSS CORRECTIONAL INSTITUTION,16149 STATE ROUTE 104,CHILLICOTHE,OHIO,45601,OHIO,
ROSWELL CORRECTIONAL CENTER,578 W CHICKASAW ROAD,HAGERMAN,NEW MEXICO,88232,NEW MEXICO,
ROXBURY CORRECTIONAL INSTITUTION,18701 ROXBURY ROAD,HAGERSTOWN,MARYLAND,21746,MARYLAND,
RS EDEN - ASHLAND,532 ASHLAND AVENUE,ST. PAUL,MINNESOTA,55102,MINNESOTA,
RS EDEN - METRO,444 WEST LYNNHURST AVENUE,ST. PAUL,MINNESOTA,55104,MINNESOTA,
RS EDEN - WEST,855 7TH STREET WEST,ST. PAUL,MINNESOTA,55102,MINNESOTA,
RSD,425 GRANT STREET,BRIDGEPORT,CONNECTICUT,6610,CONNECTICUT,
RUBEN M. TORRES UNIT,125 PRIVATE ROAD 4303,Hondo,TEXAS,78861,TEXAS,
RUFE JORDAN UNIT,1992 Helton Road,Pampa,TEXAS,79065,TEXAS,
RUFUS H. DUNCAN UNIT,1502 S 1ST STREET,Diboll,TEXAS,75941,TEXAS,
RUSTBURG CORRECTIONAL,479 CAMP NINE ROAD,RUSTBURG,VIRGINIA,24588,VIRGINIA,
RUTHERFORD CORRECTIONAL CENTER,901 LEDBETTER RD,SPINDALE,NORTH CAROLINA,28160,NORTH CAROLINA,
RUTLEDGE STATE PRISON,7175 MANOR ROAD,COLUMBUS,GEORGIA,31908,GEORGIA,
RYAN CORRECTIONAL FACILITY,17600 RYAN ROAD,DETROIT,MICHIGAN,48212,MICHIGAN,
Safford FCI,1529 WEST HIGHWAY 366,SAFFORD,ARIZONA,85546,ARIZONA,
SAGINAW CORRECTIONAL FACILITY,9625 PIERCE ROAD,FREELAND,MICHIGAN,48623,MICHIGAN,
SAGO PALM RE-ENTRY,500 BAY BOTTOM ROAD,PAHOKEE,FLORIDA,33476,FLORIDA,
Saguaro Correctional Center - CCA,1250 East Arica Road,Eloy,ARIZONA,85131,ARIZONA,
SALINAS VALLEY STATE PRISON,31625 HIGHWAY 101,SOLEDAD,CALIFORNIA,93960,CALIFORNIA,
SALT CREEK CONSERVATION CAMP,10655 ROUND VALLEY RD,PASKENTA,CALIFORNIA,96074,CALIFORNIA,
Salt Lake City Center,1585 West 2100 South,Salt Lake City,UTAH,84119,UTAH,
SALVATION ARMY,5302 Harry Hines Blvd.,Dallas,TEXAS,75235,TEXAS,
Salvation Army - Ft. Myers,2400 EDISON AVENUE,FT MYERS,FLORIDA,33902,FLORIDA,
Salvation Army - Harbor Light,170 Prospect Ave,Cleveland,OHIO,-9,OHIO,
Salvation Army CCC,204 Hollywood Street,Asheville,NORTH CAROLINA,28801,NORTH CAROLINA,
Salvation Army CCC,204 Hollywood Street,Asheville,NORTH CAROLINA,28801,NORTH CAROLINA,
Salvation Army CSC,500 S. Fourth Street,Waco,TEXAS,76703,TEXAS,
SALVATION ARMY FREEDOM CENTER,105 ASHLAND AVE,CHICAGO,ILLINOIS,60607,ILLINOIS,
Salvation Army Residential Re-Entry Center,1577 North Military Trail,West Palm Beach,FLORIDA,33409,FLORIDA,
SAMPSON CORRECTIONAL INSTITUTION,700 NORTHWEST BLVD HWY 421 N,CLINTON,NORTH CAROLINA,28329,NORTH CAROLINA,
SAN CARLOS CORRECTIONAL FACILITY,1410 WEST 13TH STREET,PUEBLO,COLORADO,81003,COLORADO,
SAN LUIS VALLEY COMMUNITY CORRECTIONS CENTER,2017 LAVA LANE,ALAMOSA,COLORADO,81101,COLORADO,
SAN QUENTIN STATE PRISON,1 MAIN STREET,SAN QUENTIN,CALIFORNIA,94964,CALIFORNIA,
SAN SABA TRANSFER FACILITY,206 SOUTH WALLACE CREEK ROAD,San Saba,TEXAS,76877,TEXAS,
"SANDERS ""SANDY"" ESTES UNIT",1100 Hwy 1807,Venus,TEXAS,76084,TEXAS,
SANDSTONE FCI,2300 COUNTY RD 29,SANDSTONE,MINNESOTA,55072,MINNESOTA,
SANFORD CORRECTIONAL CENTER,417 ADVANCEMENT CENTER ROAD,SANFROD,NORTH CAROLINA,27330,NORTH CAROLINA,
SANGER BOWERS CORRECTIONAL CENTER,N8375 COUNTY LINE ROAD,ONEIDA,WISCONSIN,54155,WISCONSIN,
SANTA FE WORK RELEASE CENTER,2901 N.E. 39TH AVENUE,GAINESVILLE,FLORIDA,32602,FLORIDA,
SANTA ROSA ANNEX,5850 E. MILTON ROAD,MILTON,FLORIDA,32583,FLORIDA,
SANTA ROSA CORRECTIONAL INSTITUTION,5850 E MILTON ROAD,MILTON,FLORIDA,32583,FLORIDA,
SANTIAM CORRECTIONAL INSTITUTION,4005 AUMSVILLE HIGHWAY SE,SALEM,OREGON,97317,OREGON,
SAYRE WORK CENTER,1107 NORTH BROADWAY STREET,SAYRE,OKLAHOMA,73662,OKLAHOMA,
SCHUYLKILL FCI,INTERSTATE 81 & 901 W,MINERSVILLE,PENNSYLVANIA,17954,PENNSYLVANIA,
SCHUYLKILL-CAMP,INTERSTATE 81 & RT 901 W,MINERSVILLE,PENNSYLVANIA,17954,PENNSYLVANIA,
SCHWERT HOUSE,3501 KIPLING DRIVE,MADISON,WISCONSIN,53703,WISCONSIN,
SCI ALBION,10745 ROUTE 18,ALBION,PENNSYLVANIA,16475,PENNSYLVANIA,
SCI CAMBRIDGE SPRINGS,451 FULLERTON AVE,CAMBRIDGE SPRINGS,PENNSYLVANIA,16403,PENNSYLVANIA,
SCI CAMP HILL,2500 LISBURN ROAD,CAMP HILL,PENNSYLVANIA,17001,PENNSYLVANIA,
SCI CHESTER,500 E. 4TH STREET,CHESTER,PENNSYLVANIA,19013,PENNSYLVANIA,
SCI COAL TOWNSHIP,1 KELLY DRIVE,COAL TOWNSHIP,PENNSYLVANIA,17866,PENNSYLVANIA,
SCI CRESSON,301 CORRECTIONS ROAD,CRESSON,PENNSYLVANIA,16699,PENNSYLVANIA,
SCI DALLAS,1000 FOLLIES ROAD,DALLAS,PENNSYLVANIA,18612,PENNSYLVANIA,
SCI FAYETTE,50 OVERLOOK DRIVE,LABELLE,PENNSYLVANIA,15450,PENNSYLVANIA,
SCI FOREST,286 WOODLAND DRIVE,MARIENVILLE,PENNSYLVANIA,16239,PENNSYLVANIA,
SCI FRACKVILLE,1111 ALTAMONT BLVD,FRACKVILLE,PENNSYLVANIA,17931,PENNSYLVANIA,
SCI GRATERFORD,"P.O.BOX 246, ROUTE 29",GRATERFORD,PENNSYLVANIA,19426,PENNSYLVANIA,
SCI GREENE,169 PROGRESS DRIVE,WAYNESBURG,PENNSYLVANIA,15370,PENNSYLVANIA,
SCI GREENSBURG,165 SCI LANE,GREENSBURG,PENNSYLVANIA,15601,PENNSYLVANIA,
SCI HOUTZDALE,209 INSTITUTION DRIVE,HOUTZDALE,PENNSYLVANIA,16698,PENNSYLVANIA,
SCI HUNTINGDON,1100 PIKE STREET,HUNTINGDON,PENNSYLVANIA,16654,PENNSYLVANIA,
SCI LAUREL HIGHLANDS,5706 GLADES PIKE,SOMERSET,PENNSYLVANIA,15501,PENNSYLVANIA,
SCI MAHANOY,301 MOREA ROAD,FRACKVILLE,PENNSYLVANIA,17932,PENNSYLVANIA,
SCI MERCER,801 BUTLER PIKE,MERCER,PENNSYLVANIA,16137,PENNSYLVANIA,
SCI MUNCY,BOX 180 ROUTE 405,MUNCY,PENNSYLVANIA,17756,PENNSYLVANIA,
SCI PINE GROVE,189 FYOCK ROAD,INDIANA,PENNSYLVANIA,15701,PENNSYLVANIA,
SCI PITTSBURGH,3001 BEAVER AVENUE,PITTSBURGH,PENNSYLVANIA,15233,PENNSYLVANIA,
SCI RETREAT,660 STATE ROUTE 11,HUNLOCK CREEK,PENNSYLVANIA,18621,PENNSYLVANIA,
SCI ROCKVIEW,1 ROCKVIEW PLACE,BELLEFONTE,PENNSYLVANIA,16823,PENNSYLVANIA,
SCI SMITHFIELD,1120 PIKE STREET,HUNTINGDON,PENNSYLVANIA,16652,PENNSYLVANIA,
SCI SOMERSET,1590 WALTERS MILL ROAD,SOMERSET,PENNSYLVANIA,15510,PENNSYLVANIA,
SCI WAYMART,P.O.BOX 256 ROUTE 6,WAYMART,PENNSYLVANIA,18472,PENNSYLVANIA,
SCOTLAND CORRECTIONAL INSTITUTION,22385 MCGRIT'S BRIDGE ROAD,LAURINBURG,NORTH CAROLINA,28353,NORTH CAROLINA,
SCRANTON CATH SOC SVCS (219),409-411 OLIVE ST,SCRANTON,PENNSYLVANIA,18509,PENNSYLVANIA,
SCRANTON CENTER (201),240 ADAMS AVENUE,SCRANTON,PENNSYLVANIA,18503,PENNSYLVANIA,
SCREVEN COUNTY PRISON,859 ROCKYFORD ROAD,SYLVANIA,GEORGIA,30467,GEORGIA,
SEAGOVILLE FCI,2113 NORTH HWY 175,SEAGOVILLE,FEDERAL,75159,TEXAS,
SEAGOVILLE-CAMP,2113 NORTH HWY 175,SEAGONVILLE,FEDERAL,75159,TEXAS,
SEASIDE CENTER,237 FRONT STREET,Nome,ALASKA,99762,ALASKA,
SECURE PSYCHIATRIC UNIT,281 NORTH STATE STREET,CONCORD,NEW HAMPSHIRE,3301,NEW HAMPSHIRE,
Secure Transitional Offender Program,1945 S Gettysburg Ave,Dayton,OHIO,45417,OHIO,
SELF HELP MVMT (124),2600 SOUTHAMPTOM RD,PHILADELPHIA,PENNSYLVANIA,19116,PENNSYLVANIA,
SHARON CENTER (305),300 W STATE STREET,SHARON,PENNSYLVANIA,16146,PENNSYLVANIA,
SHAWANGUNK CORRECTIONAL FACILITY,200 QUICK ROAD,WALLKILL,NEW YORK,12589,NEW YORK,
SHAWNEE CORRECTIONAL CENTER,6665 Rt. 146 East,Vienna,ILLINOIS,62995,ILLINOIS,
SHEA FARM HOUSE,60 IRON WORKS ROAD,CONCORD,NEW HAMPSHIRE,3302,NEW HAMPSHIRE,
SHELDON RESIDENTIAL  FACILITY,720 WESTERN AVENUE,SHELDON,IOWA,51201,IOWA,
SHERIDAN CORRECTIONAL CENTER,4017 E. 2603rd Road,Sheridan,ILLINOIS,60551,ILLINOIS,
SHERIDAN FCI,27072 Ballston Road,Sheridan,OREGON,97378,OREGON,
SHERIDAN-CAMP,27072 BALLSTON ROAD,SHERIDAN,OREGON,97378,OREGON,
SHISA - WEST,418 W VIRGINIA STREET,TALLAHASSEE,FLORIDA,32301,FLORIDA,
SHISA EAST,2830 PARK STREET,JACKSONVILLE,FLORIDA,32205,FLORIDA,
SHUTTER CREEK CORRECTIONAL INSTITUTION,95200 SHUTTER'S LANDING LANE,NORTH BEND,OREGON,97459,OREGON,
SIERRA CENTER & WORK RELEASE,48 HOWE STREET #4,NEW HAVEN,CONNECTICUT,6511,CONNECTICUT,
SIERRA CONSERVATION CENTER,5100 O'BYRNES FERRY RD,JAMESTOWN,CALIFORNIA,95327,CALIFORNIA,
SILLIMAN HOUSE,199 RETREAT AVENUE,HARTFORD,CONNECTICUT,6106,CONNECTICUT,
SIMPSON COUNTY COMMUNITY WORK CENTER,714 WOOD ROAD,MAGEE,MISSISSIPPI,39111,MISSISSIPPI,
SING SING CORRECTIONAL FACILITY,354 Hunter Street,Ossining,NEW YORK,10562,NEW YORK,
SIOUX CITY RESIDENTIAL FACILITY,515 WATER STREET,SIOUX CITY,IOWA,51103,IOWA,
SKYLINE CORRECTIONAL CENTER,E US HIGHWAY 50 & EVANS BOULEVARD,CANON CITY,COLORADO,81212,COLORADO,
SKYVIEW PSYCHIATRIC FACILITY,379 FM 2972,Rusk,TEXAS,75785,TEXAS,
SLAYTON WORK CAMP,1 MOUNTAIN SIDE WAY,MT. OLIVE,WEST VIRGINIA,25185,WEST VIRGINIA,
SMITH STATE PRISON,9676 HIGHWAY 301 NORTH,GLENNVILLE,GEORGIA,30427,GEORGIA,
SMITH TRANSITIONAL CENTER,8631 HIGHWAY 301 NORTH,Claxton,GEORGIA,30417,GEORGIA,
SNAKE RIVER CORRECTIONAL INSTITUTION,777 STANTON BLVD,ONTARIO,OREGON,97914,OREGON,
SNAKE RIVER CORRECTIONAL MINIMUM,777 STANTON BLVD,ONTARIO,OREGON,97914,OREGON,
SOUTH BAY CORRECTIONAL FACILITY,600 US HWY 27 S,SOUTH BAY,FLORIDA,33493,FLORIDA,
SOUTH BEND COMMUNITY REENTRY CENTER,2421 S MICHIGAN STREET,SOUTH BEND,INDIANA,46614,INDIANA,
SOUTH BOISE WOMEN'S CORRECTIONAL CENTER,13200 SOUTH PLEASANT VALLEY ROAD,KUNA,IDAHO,83634,IDAHO,
SOUTH CENTRAL CORRECTIONAL CENTER,255 West Highway 32,Licking,MISSOURI,65542,MISSOURI,
SOUTH CENTRAL CORRECTIONAL CENTER,555 FOREST AVENUE,CLIFTON,TENNESSEE,38425,TENNESSEE,
SOUTH DAKOTA STATE PENITENTIARY,1600 NORTH DRIVE,SIOUX FALLS,SOUTH DAKOTA,57117,SOUTH DAKOTA,
SOUTH DAKOTA WOMEN'S PRISON,3200 E HWY 34,PIERRE,SOUTH DAKOTA,57501,SOUTH DAKOTA,
SOUTH FLORIDA RECEPTION CENTER,1400 NW 41TH STREET,DORAL,FLORIDA,33178,FLORIDA,
SOUTH FLORIDA RECEPTION CENTER SOUTH UNIT,13910 NW 41ST STREET,DORAL,FLORIDA,33178,FLORIDA,
SOUTH FORK FOREST CAMP,48300 WILSON RIVER HIGHWAY,TILLAMOOK,OREGON,97141,OREGON,
SOUTH IDAHO CORRECTIONAL INSTITUTION,13900 PLEASANT VALLEY ROAD,KUNA,IDAHO,83634,IDAHO,
SOUTH IDAHO CORRECTIONAL INSTITUTION COMMUNITY WORK CENTER,14195 PLEASANT VALLEY ROAD,KUNA,IDAHO,83634,IDAHO,
SOUTH MIDDLESEX CORRECTIONAL CENTER,135 WESTERN AVE,FRAMINGHAM,MASSACHUSETTS,1701,MASSACHUSETTS,
SOUTH MISSISSIPPI CORRECTIONAL INSTITUTION,22689 HIGHWAY 63,LEAKESVILLE,MISSISSIPPI,39451,MISSISSIPPI,
SOUTH TEXAS ISF,1511 Preston Road,Houston,TEXAS,77002,TEXAS,
SOUTH WOODS STATE PRISON,215 S BURLINGTON ROAD,Bridgeton,NEW JERSEY,8302,NEW JERSEY,
SOUTHEAST ARKANSAS COMMUNITY CORRECTION CENTER,7301 West 13th Ave.,Pine Bluff,ARKANSAS,71602,ARKANSAS,
SOUTHEAST CORRECTIONAL CENTER,300 EAST PEDRO SIMMONS,CHARLESTON,MISSOURI,63834,MISSOURI,
Southeast Missouri Behavioral Health - Aquinas Center,5536 E Highway 32,Farmington,MISSOURI,23640,MISSOURI,
SOUTHEAST STATE WORK CAMP,546 STATE FARM ROAD,WINDSOR,VERMONT,5089,VERMONT,
SOUTHEAST TEXAS TRANSITIONAL CENTER,10950 Old Beaumont Hwy,Houston,TEXAS,77078,TEXAS,
SOUTHEASTERN CORRECTIONAL INSTITUTION,5900 B.I.S. ROAD,LANCASTER,OHIO,43130,OHIO,
Southeastern Tennessee State Regional Correctional Facility,1045 HORSEHEAD ROAD,PIKEVILLE,TENNESSEE,37367,TENNESSEE,
SOUTHERN CORRECTIONAL INSTITUTION,272 GLEN ROAD,TROY,NORTH CAROLINA,27371,NORTH CAROLINA,
SOUTHERN DESERT CORRECTIONAL CENTER,20825 COLD CREEK ROAD,INDIAN SPRINGS,NEVADA,89070,NEVADA,
SOUTHERN ILLINOIS ADULT TRANSITIONAL CENTER,805 W. Freeman,Carbondale,ILLINOIS,62901,ILLINOIS,
SOUTHERN MAINE WOMEN'S RE-ENTRY CENTER,"106 HOGAN ROAD, STE 8",BANGOR,MAINE,4401,MAINE,
SOUTHERN MARYLAND PRE-RELEASE UNIT,14320 OAKS ROAD,CHARLOTTE HALL,MARYLAND,20622,MARYLAND,
SOUTHERN NEW MEXICO CORRECTIONAL FACILITY,1983 JOE R. SILVA BLVD,LAS CRUCES,NEW MEXICO,88004,NEW MEXICO,
SOUTHERN NEW MEXICO CORRECTIONAL FACILITY LEVEL II,1983 Joe R. Silva Boulevard,Las Cruces,NEW MEXICO,88004,NEW MEXICO,
SOUTHERN OHIO CORRECTIONAL FACILITY,1724 ST. RT. 728,LUCASVILLE,OHIO,45699,OHIO,
SOUTHERN STATE CORRECTIONAL FACILITY,4295 Route 47,Delmont,NEW JERSEY,8314,NEW JERSEY,
SOUTHERN STATE CORRECTIONAL FACILITY,700 CHARLESTON ROAD,SPRINGFIELD,VERMONT,5156,VERMONT,
SOUTHHAMPTON MEN'S DETENTION CENTER,14380 Terrapin Drive,Capron,VIRGINIA,23829,VIRGINIA,
SOUTHPORT CORRECTIONAL FACILITY,236 BOB MASIA DRIVE,PINE CITY,NEW YORK,14871,NEW YORK,
SOUTHWEST ARKANSAS COMMUNITY CORRECTION CENTER,506 Walnut Street,Texarkana,ARKANSAS,71854,ARKANSAS,
SOUTHWESTERN ILLINOIS CORR CENTER,950 KINGSHIGHWAY STREET,Caller Serv. 50 EAST ST. LOUIS,ILLINOIS,62203,ILLINOIS,
SOUTHWESTERN ILLINOIS WORK CAMP,950 KINGSHIGHWAY STREET,EAST ST. LOUIS,ILLINOIS,62203,ILLINOIS,
SOUZA BARANOWSKI CORRECTIONAL CENTER,Harvard Road,Shirley,MASSACHUSETTS,1464,MASSACHUSETTS,
SPALDING COUNTY PRISON,295 JUSTICE BOULEVARD,GRIFFIN,GEORGIA,30224,GEORGIA,
SPECIAL ALTERNATIVE INCARCERATION FACILITY,18901 WATERLOO ROAD,CHELSEA,MICHIGAN,48118,MICHIGAN,
Special Housing Adjustment Residential Program,55 E. Glenwood Avenue,Akron,OHIO,44304,OHIO,
SPECIAL TREATMENT UNIT,1491 RAHWAY AVENUE,AVENEL,NEW JERSEY,7001,NEW JERSEY,
"SPECTRUM PROGRAMS, INC",101 NW 59TH STREET,MIAMI,FLORIDA,33127,FLORIDA,
Spectrum Women and Children Program,153 Oak Street,Westboro,MASSACHUSETTS,1581,MASSACHUSETTS,
SPRING CREEK CORRECTIONAL CENTER,MILE 5 NASH ROAD,Seward,ALASKA,99664,ALASKA,
SPRINGER CORRECTIONAL CENTER,201 HIGHWAY 468,SPRINGER,NEW MEXICO,87747,NEW MEXICO,
SPRINGFIELD USMCFP,1900 W. SUNSHINE ST,SPRINGFIELD,MISSOURI,65807,MISSOURI,
ST. ANTHONY WORK CAMP,125 N 8TH STREET WEST,ST. ANTHONY,IDAHO,83445,IDAHO,
ST. BRIDES CORRECTIONAL CENTER,701 SANDERSON ROAD,CHESAPEAKE,VIRGINIA,23328,VIRGINIA,
ST. CLAIR CORRECTIONAL FACILITY,1000 ST. CLAIR ROAD,SPRINGVILLE,ALABAMA,35146,ALABAMA,
ST. CROIX CORRECTIONAL CENTER,1859 NORTH 4TH STREET,NEW RICHMOND,WISCONSIN,54017,WISCONSIN,
ST. LOUIS CORRECTIONAL FACILITY,8585 NORTH CROSWELL ROAD,ST. LOUIS,MICHIGAN,48880,MICHIGAN,
ST. MARY'S CORRECTIONAL CENTER,2880 N PLEASANTS HIGHWAY,ST. MARYS,WEST VIRGINIA,26170,WEST VIRGINIA,
ST. PETERSBURG WORK RELEASE CENTER,4237 8TH AVE.SOUTH,ST.PETERSBURG,FLORIDA,33711,FLORIDA,
ST. TAMMANY CONTRACT TWP,141 PRODUCTION DR,SLIDELL,LOUISIANA,70459,LOUISIANA,
ST. TAMMANY INHOUSE TWP,141 PRODUCTION DR,SLIDELL,LOUISIANA,70459,LOUISIANA,
ST. TAMMANY NORTHSHORE TWP,141 PRODUCTION DR,SLIDELL,LOUISIANA,70459,LOUISIANA,
ST. TAMMANY TWP TRUSTEES FOR ST. TAMMANY SO,1101 CHAMPAGNE STREET,SLIDELL,LOUISIANA,70459,LOUISIANA,
STAFFORD CREEK CORRECTIONAL CENTER,191 CONSTANTINE WAY,Aberdeen,WASHINGTON,98520,WASHINGTON,
STAFFORD MEN'S DIVERSON CENTER,384 Eskimo Road,Stafford,VIRGINIA,22554,VIRGINIA,
STANLEY CORRECTIONAL INSTITUTION,100 CORRECTIONS DRIVE,STANLEY,WISCONSIN,54768,WISCONSIN,
STATE  POLICE INMATE BARRACKS,1400 W. IRENE ROAD,ZACHARY,LOUISIANA,70791,LOUISIANA,
STATEVILLE CORRECTIONAL CENTER,16830 South Rt. 53,JOILET,ILLINOIS,60434,ILLINOIS,
STATON CORRECTIONAL FACILITY,2690 MARION SPILLWAY ROAD,ELMORE,ALABAMA,36025,ALABAMA,
STEIN HOUSE,140 SERGEANT STREET,HARTFORD,CONNECTICUT,6105,CONNECTICUT,
STERLING CORRECTIONAL FACILITY,12101 HIGHWAY 61,STERLING,COLORADO,80751,COLORADO,
STEVENSON CORRECTIONAL INSTITUTION,4546 BROAD RIVER ROAD,COLUMBIA,SOUTH CAROLINA,29210,SOUTH CAROLINA,
STEWART CONSERVATION CAMP,1721 E SNYDER AVE,CARSON CITY,NEVADA,89702,NEVADA,
STONE COUNTY CORRECTIONAL FACILITY,1420 INDUSTRIAL PARK ROAD,WIGGINS,MISSISSIPPI,39577,MISSISSIPPI,
STURTEVANT TRANSITIONAL FACILITY,9351 RAYNE ROAD,STURTEVANT,WISCONSIN,53177,WISCONSIN,
SUGAR PINE CONSERVATION CAMP,15905 SUGAR PINE CAMP RD,BELLA VISTA,CALIFORNIA,96008,CALIFORNIA,
SULLIVAN CORRECTIONAL FACILITY,325 RIVERSIDE DRIVE,FALLSBURG,NEW YORK,12733,NEW YORK,
SUMTER B.T.U.,9544 COUNTY ROAD 476B,BUSHNELL,FLORIDA,33513,FLORIDA,
SUMTER CORRECTIONAL INSTITUTION,9544 COUNTRY RD 476B,BUSHNELL,FLORIDA,33513,FLORIDA,
SUMTER COUNTY PRISON,346 MCMATH MILL ROAD,AMERICUS,GEORGIA,31709,GEORGIA,
SUMTER WORK CAMP,9544 COUNTY ROAD 476B,BUSHNELL,FLORIDA,33513,FLORIDA,
SUNCOAST WORK RELEASE CENTER,10596 GRANDY BOULEVARD,ST. PETERSBURG,FLORIDA,33702,FLORIDA,
SUSSEX BOOT CAMP,23203 DuPont Blvd,Georgetown,DELAWARE,19947,DELAWARE,
SUSSEX CORRECTIONAL INSTITUTION,23203 DuPont Blvd,Georgetown,DELAWARE,19947,DELAWARE,
SUSSEX I STATE PRISON,24414 Mussel White Drive,Waverly,VIRGINIA,23891,VIRGINIA,
SUSSEX II STATE PRISON,24427 MUSSELWHITE DRIVE,WAVERLY,VIRGINIA,23891,VIRGINIA,
SUSSEX VIOLATION OF PROBATION CENTER,23207 DUPONT BLVD.,GEORGETOWN,DELAWARE,19947,DELAWARE,
SUSSEX WORK RELEASE CENTER,23207 DuPont Blvd,Georgetown,DELAWARE,19947,DELAWARE,
SUWANNEE ANNEX,5964 U.S. HIGHWAY 90,LIVE OAK,FLORIDA,32060,FLORIDA,
SUWANNEE CORRECTIONAL INSTITUTION,5964 U.S. HIGHWAY 90,LIVE OAK,FLORIDA,32060,FLORIDA,
SUWANNEE WORK CAMP,5964 U.S. HIGHWAY 90,LIVE OAK,FLORIDA,32060,FLORIDA,
SWANNANOA CORRECTIONAL CENTER FOR WOMEN,55 LAKE EDEN ROAD,BLACK MOUNTAIN,NORTH CAROLINA,28711,NORTH CAROLINA,
SWMCC WORK RELEASE,66 W 12TH ST,DICKINSON,NORTH DAKOTA,58601,NORTH DAKOTA,
SYRACUSE PAVILLION,701 ERIE BLVD EAST,SYRACUSE,NEW YORK,13210,NEW YORK,
T. J. MAHONEY & ASSOCIATES - HALFWAY HOUSE,524 KAAAHI STREET,HONOLULU,HAWAII,96817,HAWAII,
T.L. ROACH UNIT,15845 FM 164,Childress,TEXAS,79201,TEXAS,
TABOR CORRECTIONAL INSTITUTION,4600 SWAMP FOX HWY WEST,TABOR CITY,NORTH CAROLINA,28463,NORTH CAROLINA,
Tacoma Progress House,1119 S Altheimer St,Tacoma,WASHINGTON,98405,WASHINGTON,
Tacoma Residential Reentry Center - Pioneer Human Services,922 South J Street,Tacoma,WASHINGTON,98405,WASHINGTON,
TACONIC CORRECTIONAL  FACILITY,250 Harris Road,Bedford Hills,NEW YORK,10507,NEW YORK,
TAFT - CAMP,1500 CADET ROAD,TAFT,CALIFORNIA,93268,CALIFORNIA,
TAFT CI,1500 CADET ROAD,TAFT,CALIFORNIA,93268,CALIFORNIA,
TALBERT HOUSE PATHWAYS FOR WOMEN,1616 HARRISON AVE,CINCINNATI,OHIO,45214,OHIO,
TALBERT HOUSE SERENITY HALL,439 SOUTH SECOND STREET,HAMILTON,OHIO,45011,OHIO,
Talbert House- Cornerstone,2216 Vine St.,Cincinnati,OHIO,45219,OHIO,
Talbert House- Spring Grove Center,3129 Spring Groove Ave,Cincinnati,OHIO,45225,OHIO,
TALBOT HALL (EHCA),100-140 LINCOLN HWY,Kearny,NEW JERSEY,7032,NEW JERSEY,
TALLADEGA - CAMP,565 EAST RENFROE ROAD,TALLADEGA,FEDERAL,35160,ALABAMA,
TALLADEGA FCI,565 EAST RENFROE ROAD,TALLADEGA,FEDERAL,35160,ALABAMA,
Tallahassee FCI,"501 CAPITAL CIRCLE, NE",TALLAHASSEE,FEDERAL,32301,FLORIDA,
TALLAHASSEE WORK RELEASE,2616A SPRINGHILL ROAD,TALLAHASSEE,FEDERAL,32310,FLORIDA,
Tallahatchie County Correctional Facility - CCA,415 US Highway 49 North,Tutwiler,MISSISSIPPI,38963,MISSISSIPPI,
TAMMS CORRECTIONAL CENTER,8500 SUPERMAX ROAD,TAMMS,ILLINOIS,62988,ILLINOIS,
TAMMS MIMIMUM SECURITY UNIT,8500 Supermax Rd,Tamms,ILLINOIS,62988,ILLINOIS,
TARPON SPRINGS WORK RELEASE CENTER,566 BRADY ROAD,TARPON SPRINGS,FLORIDA,34689,FLORIDA,
TAYCHEEDAH CORRECTIONAL INSTITUTION,751 COUNTY ROAD K,FOND DU LAC,WISCONSIN,54936,WISCONSIN,
TAYLOR ANNEX,TAYLOR C.I.-ANNEX,PERRY,FLORIDA,32348,FLORIDA,
TAYLOR CORRECTIONAL INSTITUTION,TAYLOR C.I.-MAIN UNIT,PERRY,FLORIDA,33248,FLORIDA,
Taylor Street Center & CDC - GEO Group,111 Taylor Street,San Francisco,CALIFORNIA,94102,CALIFORNIA,
TAYLOR WORK CAMP,8501 HAMPTON SPRINGS ROAD,PERRY,FLORIDA,32348,FLORIDA,
TAYLORVILLE CORRECTIONAL CENTER,"Rt. 29 South,",Taylorville,ILLINOIS,62568,ILLINOIS,
TECUMSEH STATE CORRECTIONAL INSTITUTION,2725 N Highway 50,Tecumseh,NEBRASKA,68450,NEBRASKA,
TELFAIR STATE PRISON,210 LONGBRIDGE ROAD,HELENA,GEORGIA,31037,GEORGIA,
TENNESSEE PRISON FOR WOMEN,3881 STEWARTS LANE,NASHVILLE,TENNESSEE,37243,TENNESSEE,
Terminal Island FCI,1299 SEASIDE AVENUE,SAN PEDRO,FEDERAL,90731,CALIFORNIA,
TERRE HAUTE - CAMP,4200 BUREAU ROAD NORTH,TERRE HAUTE,FEDERAL,47808,INDIANA,
TERRE HAUTE FCI,4200 BUREAU ROAD NORTH,TERRE HAUTE,FEDERAL,47808,INDIANA,
TERRE HAUTE USP,4700 BUREAU ROAD SOUTH,TERRE HAUTE,FEDERAL,47802,INDIANA,
TERRELL COUNTY PRISON,3110 ALBANY HIGHWAY,DAWSON,GEORGIA,39842,GEORGIA,
TEXARKANA FCI,4001 LEOPARD DRIVE,TEXARKANA,TEXAS,75501,TEXAS,
TEXARKANA REGIONAL CORRECTIONAL CENTER,305 EAST 5TH STREET,TEXARKANA,ARKANSAS,71854,ARKANSAS,
TEXARKANA-CAMP,4001 LEAPARD DRIVE,TEXARKANA,TEXAS,75501,TEXAS,
The H Group - Marion Street Campus,1307 W Main St.,Marion,ILLINOIS,62959,ILLINOIS,
THE HARBOR (EHCA),300 Frelinghuysen Avenue,Newark,NEW JERSEY,7114,NEW JERSEY,
THE HAVEN,3630 W. PRINCETON CIR.,DENVER,COLORADO,80236,COLORADO,
THE NEXT DOOR,101 MOCCASSIN BEND BLVD,CHATTANOOGA,TENNESSEE,37405,TENNESSEE,
The Salvation Army Residential Reentry Center,800 McCallie Avenue,Chattanooga,TENNESSEE,37403,TENNESSEE,
THERAPEUTIC COMMUNITY OF SOUTHERN CO,509 E. 13TH STREET,PUEBLO,COLORADO,81001,COLORADO,
THOMAS COUNTY PRISON,324 COUNTY FARM ROAD,THOMASVILLE,GEORGIA,31757,GEORGIA,
THOMAS GOREE UNIT,7405 Hwy 75 South,Huntsville,TEXAS,77344,TEXAS,
THOMAS R. HAVINS PRE-RELEASE FACILITY,500 FM 45 East,Brownwood,TEXAS,76801,TEXAS,
THOMPSON CORRECTIONAL CENTER,434 STATE FARM ROAD,DEERFIELD,WISCONSIN,53531,WISCONSIN,
THREE LAKES VALLEY CONSERVATION CAMP,20825 COLD CREEK ROAD,INDIAN SPRINGS,NEVADA,89070,NEVADA,
THREE LAKES VALLY BOOT CAMP,20825 COLD CREEK ROAD,INDIAN SPRINGS,NEVADA,89070,NEVADA,
THREE RIVERS FCI,US HIGHWAY 72 WEST,THREE RIVERS,TEXAS,78071,TEXAS,
THREE RIVERS-CAMP,US HIGHWAY 72 WEST,THREE RIVERS,TEXAS,78071,TEXAS,
"THRESHOLD, INC",1702 ST. PAUL STREET,BALTIMORE,MARYLAND,21202,MARYLAND,
THUMB CORRECTIONAL FACILITY,3225 JOHN CONLEY DRIVE,LAPEER,MICHIGAN,48446,MICHIGAN,
TILLERY CORRECTIONAL CENTER,1984 CALEDONIA DRIVE STATE ROAD 1141,TILLERY,NORTH CAROLINA,27887,NORTH CAROLINA,
TIME TO CHANGE - ADAMS,1450 E62ND AVE,DENVER,COLORADO,80216,COLORADO,
TIME TO CHANGE COMMERCE CITY,4901 KRAMERIA ST,COMMERCE CITY,COLORADO,80022,COLORADO,
TIPTON CORRECTIONAL  CENTER,619 North Osage Avenue,Tipton,MISSOURI,65081,MISSOURI,
TOLEDO CORRECTIONAL INSTITUTION,2001 EAST CENTRAL AVENUE,TOLEDO,OHIO,43608,OHIO,
TOMOKA CORRECTIONAL INSTITUTION,3950 TIGER BAY ROAD,DAYTONA BEACH,FLORIDA,32124,FLORIDA,
TOMOKA CORRECTIONAL INSTITUTION WORK CAMP,3950 TIGER BAY ROAD,DAYTONA BEACH,FLORIDA,32124,FLORIDA,
TOMPKINS REHAB & CORRECTIONS CENTER,2504 CIRCLE DRIVE,JAMESTOWN,NORTH DAKOTA,58401,NORTH DAKOTA,
TONOPAH CONSERVATION CAMP,100 CONVERSATION ROAD,TONOPAH,NEVADA,89049,NEVADA,
TOOLEY HALL,4280 KEARNEY STREET,DENVER,COLORADO,80216,COLORADO,
TOPEKA CORRECTIONAL FACILITY,815 SE RICE ROAD,TOPEKA,KANSAS,66607,KANSAS,
TRANSITION HOUSE INC. KISS,900 EAST VINE STREET,KISSIMMEE,FLORIDA,34744,FLORIDA,
TRANSITIONAL LIVING CTR (209),900 W. THIRD ST,WILLIAMSPORT,PENNSYLVANIA,17701,PENNSYLVANIA,
"TRANSITIONS, INC - ASHLAND",465 29TH STREET,ASHLAND,KENTUCKY,41101,KENTUCKY,
"TRANSITIONS, INC - TWO RIVERS",423 GREENUP STREET,COVINGTON,KENTUCKY,41011,KENTUCKY,
"TRANSITIONS, INC - YORK STREET",601 YORK STREET,NEWPORT,KENTUCKY,41071,KENTUCKY,
TRAVIS COUNTY STATE JAIL,8101 FM 969,Austin,TEXAS,78724,TEXAS,
TREASURE STATE CORRECTIONAL TRAINING CENTER,1100 CONLEY LAKE ROAD,DEER LODGE,MONTANA,59722,MONTANA,
TREATMENT ASSOCIATES,107 Cozzi Circle,Victoria,TEXAS,77901,TEXAS,
TRENTON CORRECTIONAL INSTITUTION,84 GREENHOUSE ROAD,TRENTON,SOUTH CAROLINA,29847,SOUTH CAROLINA,
TREUTLEN PROBATION DENTENTION CENTER,401 CASCADE CIRCLE,SOPERTON,GEORGIA,30457,GEORGIA,
TRI CITIES WORK RELEASE,524 E Bruneau,Kennewick,WASHINGTON,99336,WASHINGTON,
TRIANGLE CENTER MINT PORGRAMS,120 NORTH 11TH STREET,SPRINGFIELD,ILLINOIS,62703,ILLINOIS,
TRINIDAD CORRECTIONAL FACILITY,21000 HIGHWAY 350 EAST,TRINIDAD,COLORADO,81059,COLORADO,
TRINITY RIVER CONSERVATION CAMP,3325 PETTIJOHN RD,LEWISTON,CALIFORNIA,96052,CALIFORNIA,
TROUP COUNTY PRISON,2508 HAMILTON ROAD,LAGRANGE,GEORGIA,30240,GEORGIA,
Troy House,1101 North Mangum Street,Durham,NORTH CAROLINA,27701,NORTH CAROLINA,
TRUMBULL CORRECTIONAL INSTITUTION,5701 BURNETT ROAD,LEAVITTSBURG,OHIO,44430,OHIO,
TUCKER UNIT,2400 STATE FARM ROAD,TUCKER,ARKANSAS,72168,ARKANSAS,
TUCSON FCI,8901 S. WILMOT ROAD,TUCSON,ARIZONA,85706,ARIZONA,
TUCSON USP,9300 SOUTH WILMOT ROAD,TUCSON,ARIZONA,85706,ARIZONA,
TUCSON USP - CAMP,8901 S. WILMOT ROAD,TUCSON,ARIZONA,85706,ARIZONA,
TULIA TRANSFER FACILITY,4000 HWY 86 W,Tulia,TEXAS,79088,TEXAS,
TULLY HOUSE (ECHA),28 PEERLESS PLACE,Newark,NEW JERSEY,7114,NEW JERSEY,
TUNDRA CENTER,680 RIDGECREST DRIVE,Bethel,ALASKA,99559,ALASKA,
TURBEVILLE CORRECTIONAL FACILITY,1578 Clarence Coker Hwy,Tuberville,SOUTH CAROLINA,29162,SOUTH CAROLINA,
TURLEY CORRECTIONAL CENTER,6101 N CINCINNATI AVENUE,TULSA,OKLAHOMA,74126,OKLAHOMA,
TURNER PRE-RELEASE CENTER,514 SOUTH RAILROAD AVENUE,SYCAMORE,GEORGIA,31790,GEORGIA,
TURNEY CENTER INDUSTRIAL COMPLEX,1499 R.W. MOORE MEMORIAL HIGHWAY,ONLY,TENNESSEE,37140,TENNESSEE,
TURNEY CENTER INDUSTRIAL COMPLEX - ANNEX,245 CARROLL ROAD,CLIFTON,TENNESSEE,38425,TENNESSEE,
Tutwiler Annex,8950 U S Highway 231 North,Wetumpka,ALABAMA,36092,ALABAMA,
TUTWILER PRISON FOR WOMEN,8966 US HIGHWAY 231 NORTH,WETUMPKA,ALABAMA,36092,ALABAMA,
TWO RIVERS CORRECTIONAL INSTITUTION,82911 BEACH ACCESS ROAD,UMATILLA,OREGON,97882,OREGON,
TWO RIVERS CORRECTIONAL MINIMUM,82911 BEACH ACCESS ROAD,UMATILLA,OREGON,97882,OREGON,
TYGER RIVER CORRECTIONAL INSTITUTION,100-200 PRISON ROAD,ENOREE,SOUTH CAROLINA,29355,SOUTH CAROLINA,
TYRRELL PRISON WORK FARM,620 SNELL ROAD,COLUMBIA,NORTH CAROLINA,27925,NORTH CAROLINA,
ULSTER CORRECTIONAL FACILITY,750 BERME ROAD,NAPANOCH,NEW YORK,12458,NEW YORK,
UNION CITY COMMUNITY CENTER,700 N STATE HWY 81,UNION CITY,OKLAHOMA,73090,OKLAHOMA,
UNION CORRECTIONAL INSTITUTION,7819 NW 228TH STREET,RAIFORD,FLORIDA,32026,FLORIDA,
UPSTATE CORRECTIONAL FACILITY,309 BARE HILL ROAD,MALONE,NEW YORK,12953,NEW YORK,
VALDOSTA ANNEX,3259 VALTECH ROAD,VALDOSTA,GEORGIA,31603,GEORGIA,
VALDOSTA STATE PRISON,3259 VALTECH ROAD,VALDOSTA,GEORGIA,31603,GEORGIA,
VALDOSTA TRANSITIONAL CENTER,363 GIL HARBIN INDUSTRIAL BOULEVARD,VALDOSTA,GEORGIA,31601,GEORGIA,
VALLECITO CONSERVATION CAMP,3225 SIX MILE ROAD,ANGELS CAMP,CALIFORNIA,95222,CALIFORNIA,
VALLEY STATE PRISON FOR WOMEN,21633 AVENUE 24,CHOWCHILLA,CALIFORNIA,93610,CALIFORNIA,
VALLEY VIEW CONSERVATION CAMP,3339 COUNTY ROAD 307,ELK CREEK,CALIFORNIA,95939,CALIFORNIA,
VANDALIA CORRECTIONAL CENTER,Rt. 51 North,Vandalia,ILLINOIS,62471,ILLINOIS,
VANDALIA WORK CAMP,Rt. 51 North,Vandalia,ILLINOIS,62471,ILLINOIS,
VARNER SUPERMAX UNIT,320 HIGHWAY 388 EAST,GOULD,ARKANSAS,71643,ARKANSAS,
VARNER UNIT,320 HIGHWAY 388 EAST,GOULD,ARKANSAS,71643,ARKANSAS,
VENTRESS CORRECTIONAL FACILITY,379 Alabama Highway 239 North,Clayton,ALABAMA,36016,ALABAMA,
Victorville Med I FCI,13777 AIR EXPRESSWAY BLVD,VICTORVILLE,FEDERAL,92394,CALIFORNIA,
VICTORVILLE MED II - CAMP,13777 AIR EXPRESSWAY BLVD,VICTORVILLE,FEDERAL,92394,CALIFORNIA,
Victorville Med II FCI,13777 AIR EXPRESSWAY BLVD,VICTORVILLE,FEDERAL,92394,CALIFORNIA,
Victorville USP,13777 AIR EXPRESSWAY BLVD,VICTORVILLE,FEDERAL,92394,CALIFORNIA,
VIENNA CORRECTIONAL CENTER,6695 State Rt. 146E,Vienna,ILLINOIS,62995,ILLINOIS,
Vinewood CCC,5520 Harold Way,LOS ANGELES,CALIFORNIA,90028,CALIFORNIA,
VIRGINIA CORRECTIONAL CENTER FOR WOMEN,2841 RIVER ROAD,GOOCHLAND,VIRGINIA,23063,VIRGINIA,
VOA Evansville Work Release (Hope Hall),811 E FRANKLIN STREET,EVANSVILLE,INDIANA,47711,INDIANA,
Volunteers of America,1771 Kent Street,Roseville,MINNESOTA,55113,MINNESOTA,
VOLUNTEERS OF AMERICA,4700 S. Riverside,Fort Worth,TEXAS,76112,TEXAS,
VOLUNTEERS OF AMERICA,5630 Lavendar Street,Houston,TEXAS,77026,TEXAS,
Volunteers of America,800 West Wintergreen Road,Hutchins,TEXAS,75141,TEXAS,
VOLUNTEERS OF AMERICA - Binghamton Residential Re-Entry Center,295 CLINTON STREET,BINGHAMTON,NEW YORK,13905,NEW YORK,
Volunteers of America - Residential Re-entry Center,5000 E. Monument Street,Baltimore,MARYLAND,21205,MARYLAND,
VOLUNTEERS OF AMERICA - Rochester,175 WARD STREET,ROCHESTER,NEW YORK,14605,NEW YORK,
VOLUNTEERS OF AMERICA (MALE),1771 Kent Street,Roseville,MINNESOTA,55113,MINNESOTA,
Volunteers of America Northern Rockies,1299 Raymond Ave,Gillette,WYOMING,82717,WYOMING,
VOLUNTEERS OF AMERICA NORTHWEST OHIO,1201 CHAMPLAIN STREET,TOLEDO,OHIO,43604,OHIO,
VOLUNTEERS OF AMERICA OF GREATER OHIO - DAYTON,1931 S. GETTYSBURG,DAYTON,OHIO,45408,OHIO,
W.F. RAMSEY UNIT,1100 FM 655,Rosharon,TEXAS,77583,TEXAS,
"W.J. ""JIM"" ESTELLE UNIT",264 FM 3478,"Huntsville,",TEXAS,77320,TEXAS,
WABASH VALLEY CORR FACILITY,6908 S OLD US HWY 41,CARLISLE,INDIANA,47838,INDIANA,
WAIAWA CORRECTIONAL FACILITY,94-560 KAMEHAMEHA HWY,WAIPAHU,HAWAII,96782,HAWAII,
WAKE CORRECTIONAL CENTER,1000 ROCK QUARRY RD,RALEIGH,NORTH CAROLINA,27699,NORTH CAROLINA,
WAKULLA ANNEX,110 MELALEUCA DRIVE,CRAWFORDVILLE,FLORIDA,32327,FLORIDA,
WAKULLA CORRECTIONAL INSTITUTION,110 MELALEUCA DRIVE,CRAWFORDVILLE,FLORIDA,32327,FLORIDA,
WAKULLA WORK CAMP,110 MELALEUCA DRIVE,CRAWFORDVILLE,FLORIDA,32327,FLORIDA,
WALDEN CORRECTIONAL INSTITUTION,4340 BROAD RIVER ROAD,COLUMBIA,SOUTH CAROLINA,29210,SOUTH CAROLINA,
WALKER SAYLE SUBSTANCE ABUSE FELONY PUNISHMENT FACILITY,4176 FM 1800,Breckenridge,TEXAS,76424,TEXAS,
WALKER STATE PRISON,97 KEVIN LANE,ROCK SPRING,GEORGIA,30739,GEORGIA,
WALKILL CORRECTIONAL FACILITY,50 MCKENDRICK ROAD,WALLKILL,NEW YORK,12589,NEW YORK,
WALLACE PACK UNIT,2400 WALLACE PACK ROAD,Navasota,TEXAS,77868,TEXAS,
WALLENS RIDGE STATE PRISON,272 DOGWOOD DR,BIG STONE GAP,VIRGINIA,24219,VIRGINIA,
WALNUT GROVE YOUTH CORRECTIONAL FACILITY,1650 HIGHWAY 492,Walnut Grove,MISSISSIPPI,39189,MISSISSIPPI,
WALTER BROOKS HOUSE,8 BALDWIN STREET,NEW HAVEN,CONNECTICUT,6519,CONNECTICUT,
WALTERS WORK CENTER,602 SW HIGHLAND AVENUE,WALTERS,OKLAHOMA,73572,OKLAHOMA,
WALTON CORRECTIONAL INSTITUTION,691 INSITUTION RAOD,DEFUNIAK SPRINGS,FLORIDA,32433,FLORIDA,
WALTON WORK CAMP,301 INSTITUTION ROAD,DEFUNIAK SPRING,FLORIDA,32433,FLORIDA,
WARE STATE PRISON,3620 NORTH HARRIS ROAD,WAYCROSS,GEORGIA,31501,GEORGIA,
WARM SPRINGS CORRECTIONAL CENTER,3301 E 5TH STREET,CARSON CITY,NEVADA,89701,NEVADA,
WARNER CREEK CORRECTIONAL FACILITY,20654 RABBIT HILL ROAD,LAKEVIEW,OREGON,97630,OREGON,
WARNER HOUSE,58 HIGH STREET,TORRINGTON,CONNECTICUT,6790,CONNECTICUT,
WARREN CORRECTIONAL INSTITUTION,379 COLLINS ROAD,MANSON,NORTH CAROLINA,27553,NORTH CAROLINA,
WARREN CORRECTIONAL INSTITUTION,5787 STATE ROUTE 63,LEBANON,OHIO,45036,OHIO,
WASCO STATE PRISON-RECEPTION CENTER,701 SCOFIELD AVENUE,WASCO,CALIFORNIA,93280,CALIFORNIA,
WASECA FCI,"1000 UNIVERSITY DR, SW",WASECA,MINNESOTA,56093,MINNESOTA,
WASHINGTON CORRECTIONAL CENTER,W 2321 DAYTON AIRPORT RD,Shelton,WASHINGTON,98584,WASHINGTON,
WASHINGTON CORRECTIONAL CENTER FOR WOMEN,9601 BUJACICH ROAD NW,Gig Harbor,WASHINGTON,98332,WASHINGTON,
WASHINGTON CORRECTIONAL FACILITY,72 LOCK ELEVEN LANE,COMSTOCK,NEW YORK,12821,NEW YORK,
WASHINGTON COUNTY COMMUNITY WORK CENTER,1398 NORTH BEAUCHAMP EXT.,GREENVILLE,MISSISSIPPI,38703,MISSISSIPPI,
WASHINGTON COUNTY REGIONAL CORR FACILITY,60 STOKES KING ROAD,GREENVILLE,MISSISSIPPI,38701,MISSISSIPPI,
WASHINGTON RIDGE CAMP,11425 CONSERVATION CAMP RD,NEVADA CITY,CALIFORNIA,95959,CALIFORNIA,
WASHINGTON STATE PENITENTIARY,1313 N 13TH AVENUE,WALLA WALLA,WASHINGTON,99362,WASHINGTON,
WASHINGTON STATE PRISON,13262 HIGHWAY 24 EAST,DAVISBORO,GEORGIA,31018,GEORGIA,
WATCh  WEST,700 LITTLE STREET,WARM SPRINGS,MONTANA,59711,MONTANA,
WATCh EAST,700 LITTLE STREET,GLENDIVE,MONTANA,59330,MONTANA,
WATEREE RIVER CORRECTIONAL INSTITUTION,HIGHWAY 261,REMBERT,SOUTH CAROLINA,29128,SOUTH CAROLINA,
WATERLOO RESIDENTIAL FACILITY,314 E 6TH STREET,WATERLOO,IOWA,50703,IOWA,
WATERTOWN CORRECTIONAL FACILITY,23147 Swan Road,Watertown,NEW YORK,13601,NEW YORK,
WATKINSON HOUSE,136 COLLINS STREET,HARTFORD,FEDERAL,6105,CONNECTICUT,
WAUPUN CORRECTIONAL INSTITUTION,200 S. MADISON ST,WAUPUN,WISCONSIN,53963,WISCONSIN,
WAURIKA COMMUNITY WORK CENTER,107 WEST ANDERSON,WAURIKA,OKLAHOMA,73573,OKLAHOMA,
WAYNE CORRECTIONAL CENTER,700 STEVENS MILL RD,GOLDSBORO,NORTH CAROLINA,27533,NORTH CAROLINA,
WAYNE SCOTT UNIT,6999 RETRIEVE DRIVE,Angleton,TEXAS,77515,TEXAS,
WEBB COMMUNITY CORRECTION CENTER,200 GREENBANK RD,WILMINGTON,DELAWARE,19808,DELAWARE,
WELLS CONSERVATION CAMP,HC 67-50,WELLS,NEVADA,89835,NEVADA,
WENDE CORRECTIONAL FACILITY,3040 Wende Road,Alden,NEW YORK,14004,NEW YORK,
WERNERSVILLE CENTER #18 (233),165 MAIN STREET,WERNERSVILLE,PENNSYLVANIA,19565,PENNSYLVANIA,
WERNERSVILLE CENTER #27 (232),165 MAIN STREET,WERNERSVILLE,PENNSYLVANIA,19565,PENNSYLVANIA,
WERNERSVILLE CENTER #30 (231),165 MAIN STREET,WERNERSVILLE,PENNSYLVANIA,19565,PENNSYLVANIA,
WERNERSVILLE COMMUNITY CORRECTIONS CENTER BLDG #18,165 MAIN STREET,WERNERSVILLE,PENNSYLVANIA,19565,PENNSYLVANIA,
WEST BATON ROUGE CONTRACT TWP,1155 NORTHWEST DRIVE,PORT ALLEN,LOUISIANA,70767,LOUISIANA,
WEST BATON ROUGE SHERIFF'S TWP,1155 NORTHWEST DRIVE,PORT ALLEN,LOUISIANA,70767,LOUISIANA,
WEST CARROLL DETENTION CENTER - Emerald,180 Capital Bank Drive,EPPS,LOUISIANA,71237,LOUISIANA,
WEST CENTRAL INTEGRATED TREATMENT FACILITY,1070 COUNTY FARM ROAD,ZEBULON,GEORGIA,30295,GEORGIA,
WEST FELICIANA CONTRACT TWP,9943 WEST FELICIANA PARKWAY,ST. FRANCISVILLE,LOUISIANA,70775,LOUISIANA,
WEST FELICIANA TWP,9943 WEST FELICIANA PARKWAY,ST. FRANCISVILLE,LOUISIANA,70775,LOUISIANA,
WEST PALM BEACH WORK RELEASE CENTER,461 W. FAIRGROUNDS ROAD,WEST PALM BEACH,FLORIDA,33411,FLORIDA,
WEST SHORELINE CORRECTIONAL FACILITY,2500 SOUTH SHERIDAN DRIVE,MUSKEGON HEIGHTS,MICHIGAN,49444,MICHIGAN,
WEST TENNESSEE STATE PENITENTIARY,480 GREEN CHAPEL ROAD,HENNING,TENNESSEE,38041,TENNESSEE,
WEST TEXAS ISF,2002 Lamesa Hwy,Brownfield,TEXAS,79316,TEXAS,
WEST UNION RESIDENTIAL FACILITY,500 S PINE STREET,WEST UNION,IOWA,52175,IOWA,
WESTERN CORRECTIONAL INSTITUTION,"13800 McMULLEN HIGHWAY, SW",CUMBERLAND,MARYLAND,21502,MARYLAND,
WESTERN ILLINOIS CORRECTIONAL CENTER,2500 Rt. 99 South,Mt. Sterling,ILLINOIS,62353,ILLINOIS,
WESTERN KENTUCKY CORRECTIONAL COMPLEX,374 NEW BETHEL CHURCH ROAD,FREDONIA,KENTUCKY,42411,KENTUCKY,
WESTERN MISSOURI CORRECTIONAL CENTER,609 East Pence Road,Cameron,MISSOURI,64429,MISSOURI,
WESTERN NEW MEXICO CORRRECTIONS FACILITY,-9,Grants,NEW MEXICO,87020,NEW MEXICO,
WESTERN RECEPTION DIAGNOSTIC & CORR CTR,3401 FARAON,ST JOSEPH,MISSOURI,64506,MISSOURI,
WESTERN YOUTH INSTITUTION,5155 WESTERN AVE,MORGANTON,NORTH CAROLINA,28655,NORTH CAROLINA,
WESTSIDE ADULT TRANSITIONAL CENTER,121 N. Campbell,Chicago,ILLINOIS,60612,ILLINOIS,
WESTVILLE CORRECTIONAL FACILITY,5501 S 1100 WEST,WESTVILLE,INDIANA,46391,INDIANA,
WHEELER CORRECTIONAL FACILITY,195 NORTH BROAD STREET,ALAMO,GEORGIA,30411,GEORGIA,
WHITE POST DIVERSON CENTER,201 Ray of Hope Lane,White Post,VIRGINIA,22663,VIRGINIA,
WHITEVILLE CORRECTIONAL FACILITY - CCA,1440 UNION SPRINGS ROAD,WHITEVILLE,TENNESSEE,38075,TENNESSEE,
WICHITA WORK RELEASE FACILITY,401 S. EMPORIA STREET,WICHITA,KANSAS,67202,KANSAS,
WILCOX STATE PRISON,470 SOUTH BROAD STREET,ABBEVILLE,GEORGIA,31001,GEORGIA,
WILDWOOD CORRECTIONAL COMPLEX,10 CHUGACH AVENUE,KENAI,ALASKA,99611,ALASKA,
WILDWOOD PRE-TRIAL FACILITY,10 CHUGACH AVENUE,Kenai,ALASKA,99611,ALASKA,
WILKES CORRECTIONAL CENTER,404 STATESVILLE RD,NORTH WILKESBORO,NORTH CAROLINA,28659,NORTH CAROLINA,
WILKINSON COUNTY COMMUNITY WORK CENTER,84 PRISON LANE,WOODVILLE,MISSISSIPPI,39669,MISSISSIPPI,
WILKINSON COUNTY CORRECTIONAL CENTER,2999 HIGHWAY 61 NORTH,WOODVILLE,MISSISSIPPI,39669,MISSISSIPPI,
WILLACY CI,1800 INDUSTRIAL DRIVE,RAYMONDVILLE,TEXAS,78580,TEXAS,
WILLACY COUNTY STATE JAIL,1695 S BUFFALO DRIVE,Raymondville,TEXAS,78580,TEXAS,
WILLARD DRUG TREATMENT CENTER,7116 COUNTY ROUTE 132,WILLARD,NEW YORK,14588,NEW YORK,
WILLARD-CYBULSKI CORRECTIONAL INSTITUTION,391 SHAKER ROAD,ENFIELD,CONNECTICUT,6082,CONNECTICUT,
WILLIAM G. MCCONNELL UNIT,3001 S EMILY DRIVE,Beeville,TEXAS,78102,TEXAS,
WILLIAM KEY CORRECTIONAL CENTER,ONE WILLIAM S KEY BLVD,FORT SUPPLY,OKLAHOMA,73841,OKLAHOMA,
WILLIAM P. CLEMENTS UNIT,9601 Spur 591,Amarillo,TEXAS,79107,TEXAS,
WILLIAM P. HOBBY UNIT,742 FM 712,Marlin,TEXAS,76661,TEXAS,
WILLIAM R. BOYD UNIT,200 Spur 113,Teague,TEXAS,75860,TEXAS,
WILLIAMS STREET CENTER (WSC/DART),1763 WILLIAMS STREET,DENVER,COLORADO,80218,COLORADO,
WILLIAMSBURG FCI,8301 HIGHWAY 521,SALTERS,SOUTH CAROLINA,29590,SOUTH CAROLINA,
WILLIAMSBURG-CAMP,8301 HIGHWAY 521,SALTERS,SOUTH CAROLINA,29590,SOUTH CAROLINA,
WINFIELD CORRECTIONAL FACILITY,1806 PINECREST CIRCLE,WINFIELD,KANSAS,67156,KANSAS,
WINN CORRECTIONAL CENTER - CCA,180 CCA BLVD.,ATLANTA,LOUISIANA,71483,LOUISIANA,
WINNEBAGO CORRECTIONAL CENTER,4300 SHERMAN ROAD,WINNEBAGO,WISCONSIN,54985,WISCONSIN,
WINSTON/CHOCTAW REGIONAL CORRECTIONAL FACILITY,2460 HIGHWAY 25 NORTH,LOUISVILLE,MISSISSIPPI,39339,MISSISSIPPI,
WISCONSIN RESOURCE CENTER,1505 NORTH DRIVE,BOSCOBEL,WISCONSIN,53805,WISCONSIN,
WISCONSIN SECURE PROGRAM FACILITY,1101 MORRISON DRIVE,BOSCOBEL,WISCONSIN,53805,WISCONSIN,
WISE CORRECTIONAL UNIT,3703 Dungannon Road,Coeburn,VIRGINIA,24230,VIRGINIA,
WOMEN'S COMMUNITY CORRECTIONAL CENTER,42 477 Kalanianaole Hwy,Kailua,HAWAII,96734,HAWAII,
WOMEN'S EASTERN RECEPTION AND DIAGNOSTIC CORRECTIONAL CENTER,1101 E HWY 54,VANDALIA,MISSOURI,63382,MISSOURI,
WOMEN'S FACILITY I,13 Fleming Rd,Cranston,RHODE ISLAND,2920,RHODE ISLAND,
WOMEN'S FACILITY II,15 Fleming Rd,Cranston,RHODE ISLAND,2920,RHODE ISLAND,
WOMEN'S PROBATION DENTENTION CENTER,8662 U.S. Hwy 301 North,Claxton,GEORGIA,30417,GEORGIA,
WOMENS TREATMENT CENTER,140 NORTH ASHLAND AVENUE,CHICAGO,ILLINOIS,60607,ILLINOIS,
WOODBOURNE CORRECTIONAL  FACILITY,99 PRISON ROAD,WOODBOURNE,NEW YORK,12788,NEW YORK,
WOODLAND CENTER CORRECTIONAL FACILITY,9036 EAST M-36,WHITMORE LAKE,MICHIGAN,48189,MICHIGAN,
Work Ethic Camp - McCook,2309 N Highway 83,McCook,NEBRASKA,69001,NEBRASKA,
WRIGHTSVILLE UNIT,8400 HIGHWAY 386 EAST,WRIGHTSVILLE,ARKANSAS,72183,ARKANSAS,
Wyoming Conservation Boot Camp,40 Pippen Road,Newcastle,WYOMING,82701,WYOMING,
WYOMING CORRECTIONAL FACILITY,3203 DUNBAR ROAD,ATTIVA,NEW YORK,14011,NEW YORK,
WYOMING HONOR CONSERVATION CAMP,40 PIPPEN ROAD,NEWCASTLE,WYOMING,82701,WYOMING,
WYOMING HONOR FARM,40 HONOR FARM ROAD,RIVERTON,WYOMING,82501,WYOMING,
WYOMING MEDIUM CORRECTIONAL INSTITUTION,7076 ROAD 55F,TORRINGTON,WYOMING,82240,WYOMING,
WYOMING STATE PENITENTIARY,2900 S. HIGLEY ROAD,RAWLINS,WYOMING,82301,WYOMING,
WOMEN,1000 WEST GRIFFITH,LUSK,WYOMING,82225,WYOMING,
YANKTON FPC,1016 DOUGLAS AVENUE,YANKTON,SOUTH DAKOTA,57078,SOUTH DAKOTA,
YANKTON MINIMUM UNIT,178 Mickelson Drive,Yankton,SOUTH DAKOTA,57078,SOUTH DAKOTA,
YAZOO CITY CAMP,2225 HALEY BARBOUR PARKWAY,YAZOO CITY,MISSISSIPPI,39194,MISSISSIPPI,
YAZOO CITY FCI,2225 HALEY BARBOUR PARKWAY,YAZOO CITY,MISSISSIPPI,39194,MISSISSIPPI,
YAZOO CITY MED FCI,2225 HALEY BARBOUR PARKWAY,YAZOO CITY,MISSISSIPPI,39194,MISSISSIPPI,
YAZOO COUNTY COMMUNITY WORK CENTER,625 WEST JEFFERSON STREET,YAZOO CITY,MISSISSIPPI,39194,MISSISSIPPI,
YAZOO COUNTY REGIONAL CORRECTIONAL FACILITY,154 ROOSEVELT HUDSON DRIVE,YAZOO CITY,MISSISSIPPI,39194,MISSISSIPPI,
YORK CENTER (204),317 WEST MARKET STREET,YORK,PENNSYLVANIA,17401,PENNSYLVANIA,
YORK CO. RE-ENTRY (299),3400 CONCORD RD,YORK,PENNSYLVANIA,17402,PENNSYLVANIA,
YORK CORRECTIONAL INSTITUTION,201 W MAIN STREET,NIANTIC,CONNECTICUT,6357,CONNECTICUT,
YOUTH BUILD (223),200 S DUKE ST,YORK,PENNSYLVANIA,17401,PENNSYLVANIA,
YOUTHFUL OFFENDER SYSTEM (YOS),1300 WEST 13TH STREET,PUEBLO,COLORADO,81003,COLORADO,
YUKON KUSKOKWIM CORRECTIONAL CENTER,1000 CHIEF EDDIE HOFFMAN HWY,BETHEL,ALASKA,99559,ALASKA,
ZEPHYRHILLS CORRECTIONAL INSTITUTION,2739 GALL BLVD,ZEPHYRHILLS,FLORIDA,33541,FLORIDA,
ALICEVILLE,11070 AL-14,Aliceville,FEDERAL,35442,ALABAMA,
BAPP,255 North Main Street,BARRE,VERMONT,5641,VERMONT,
BEPP,200 Veteran's Memorial Drive,BENNINGTON,VERMONT,5201,VERMONT,
BRAWLEY,718 E. STREET,BRAWLEY,FEDERAL,92227,CALIFORNIA,
BRPP,41 Spring Tree Road,BRATTLEBORO,VERMONT,5301,VERMONT,
BUPP,50 Cherry Street,BURLINGTON,VERMONT,5401,VERMONT,
CAPP,15505 Pleasant Valley Rd,KUNA,IDAHO,83634,IDAHO,
CASS,450 34th Street South,FARGO,FEDERAL,58103,NORTH DAKOTA,
CHERRY,100 CHERRY ST SE,GRAND RAPIDS,FEDERAL,49503,MICHIGAN,
CHICAGO,71 W Van Buren St,CHICAGO,FEDERAL,60605,ILLINOIS,
CO,,,VERMONT,,,
CORE,"45 MAIN STREET, SUITE 711",BROOKLYN,FEDERAL,11201,NEW YORK,
COUNTY,,,DISTRICT OF COLUMBIA,,,
CRCF,7 Farrell Street,SOUTH BURLINGTON,VERMONT,5403,VERMONT,
DWCRC,DWCRC,NEW ENGLAND,NORTH DAKOTA,58647,NORTH DAKOTA,
EAGLE,742 TX Hwy 131,EAGLE PASS,IDAHO,78852,TEXAS,
EBCRC,2366 Old Penitentiary Road,BOISE,IDAHO,83712,IDAHO,
FCC,,,FEDERAL,,,MULTIPLE
FCI,,,FEDERAL,,,MULTIPLE
FLM,,,FEDERAL,,,
FMC,,,FEDERAL,,,MULTIPLE
FORTH,3150 Horton Rd,FORT WORTH,FEDERAL,76119,TEXAS,
GEO,,,FEDERAL,,,MULTIPLE
GRAND,346 MARINE FORCES DRIVE,GRAND PRAIRIE,FEDERAL,75051,TEXAS,
HAMPSHIRE,1490-1492 Elm St,MANCHESTER,FEDERAL,3101,NEW HAMPSHIRE,
HAPP,118 Prospect Street,WHITE RIVER JUNCTION,VERMONT,5001,VERMONT,
HCCC,60 Punahele Street,HILO,HAWAII,96720,HAWAII,
HCF,99-902 Moanalua Rd,AIEA,HAWAII,96701,HAWAII,
HORIZON,35-37 Elizabeth St,ALBANY,FEDERAL,12202,NEW YORK,
HOUSTON,1200 Texas Ave,HOUSTON,FEDERAL,77002,TEXAS,
ICIO,381 W Hospital Dr,OROFINO,IDAHO,83544,IDAHO,
IFCRC,3955 Bombardier Ave,IDAHO FALLS,IDAHO,83402,IDAHO,
IMSI,13400 Pleasant Valley Rd,KUNA,IDAHO,83634,IDAHO,
ISCC,14601 Pleasant Valley Rd,KUNA,IDAHO,83634,IDAHO,
ISCI,13500 Pleasant Valley Rd,KUNA,IDAHO,83634,IDAHO,
JL,5325 Broder Blvd,DUBLIN,FEDERAL,94568,CALIFORNIA,
JRCC,2521 Circle Drive,JAMESTOWN,NORTH DAKOTA,58401,NORTH DAKOTA,
KCCC,3-5351 Kuhio Hwy,LIHUE,HAWAII,96766,HAWAII,
KCF,Stainback Hwy,HILO,HAWAII,96720,HAWAII,
LINO,7525 4th Ave,LINO LAKES,MINNESOTA,55014,MINNESOTA,
MCC,MCC NEW YORK,NEW YORK,FEDERAL,10007,NEW YORK,
MCCC,600 Waiale Rd,WAILUKU,HAWAII,96793,HAWAII,
MDC,80 29th St,BROOKLYN,FEDERAL,11232,NEW YORK,
MIPP,,,VERMONT,,,
MMC,71 W Van Buren St,CHICAGO,FEDERAL,60605,ILLINOIS,
MOPP,197 Harrel Street,MORRISVILLE,VERMONT,5661,VERMONT,
MRCC,1800 48th Ave SW,BISMARCK,NORTH DAKOTA,58506,NORTH DAKOTA,
MVRCF,167 State Street,RUTLAND,VERMONT,5701,VERMONT,
NCRC,1640 11th Avenue North,NAMPA,IDAHO,83687,IDAHO,
NDSP,3100 Railroad Ave,BISMARCK,NORTH DAKOTA,58501,NORTH DAKOTA,
NECC,1270 US-5,JONHSBURY,VERMONT,5819,VERMONT,
NEPP,217 Main Street,NEWPORT,VERMONT,5855,VERMONT,
NH,281 N State St,CONCORD,NEW HAMPSHIRE,3301,NEW HAMPSHIRE,
NHCF,42 Perimeter Rd,CONCORD,NEW HAMPSHIRE,3301,NEW HAMPSHIRE,
NHSP,281 N State St,CONCORD,NEW HAMPSHIRE,3301,NEW HAMPSHIRE,
NICI,236 Radar Rd,COTTONWOOD,IDAHO,83522,IDAHO,
NNHCF,138 East Milan Rd,BERLIN,NEW HAMPSHIRE,3570,NEW HAMPSHIRE,
NSCF,2559 Glen Rd,NEWPORT,VERMONT,5855,VERMONT,
NWSCF,3649 Lower Newton Rd,SWANTON,VERMONT,5488,VERMONT,
OCOC,2199 Kamehameha Highway,HONOLULU,HAWAII,96819,HAWAII,
OTERO,10 McGregor Range Rd,CHAPARRAL,FEDERAL,88081,NEW MEXICO,
OUT,,,VERMONT,,,
PWCC,1451 Fore Rd,POCATELLO,IDAHO,83204,IDAHO,
ROCK,203 WEST SUNNY LANE RD,JANESVILLE,FEDERAL,53546,WISCONSIN,
RRC,,,FEDERAL,,,MULTIPLE
RUPP,92 State Street,RUTLAND,VERMONT,5702,VERMONT,
SAPP,27 Federal St,ST ALBANS,VERMONT,5478,VERMONT,
SAWC,125 N 8th W,ST ANTHONY,IDAHO,83445,IDAHO,
SBWCC,13200 Pleasant Valley Rd,KUNA,IDAHO,83634,IDAHO,
SICI,13900 S Pleasant Valley Rd,,IDAHO,83634,IDAHO,
SJPP,1016 US Route 5,ST JOHNSBURY,VERMONT,5819,VERMONT,
SPU,281 N State St,CONCORD,NEW HAMPSHIRE,3301,NEW HAMPSHIRE,
SSCF,700 Charlestown Rd,SPRINGFIELD,VERMONT,5156,VERMONT,
ST,701 Sanderson Rd,CHESAPEAKE,VIRGINIA,23322,VIRGINIA,
ST,1000 St Clair Rd,SPRINGVILLE,ALABAMA,35146,ALABAMA,
ST,2305 Minnesota Blvd,ST CLOUD,MINNESOTA,56304,MINNESOTA,
ST,1859 N 4th St,NEW RICHMOND,WISCONSIN,54017,WISCONSIN,
ST,1621 N 1st St,ST LOUIS,MISSOURI,63102,MISSOURI,
ST,8585 N Croswell Rd,ST LOUIS,MICHIGAN,48880,MICHIGAN,
THOMSON,1100 1 Mile Rd,THOMSON,FEDERAL,61285,ILLINOIS,
TVCRC,14195 S. Pleasant Valley Road,KUNA,IDAHO,83634,IDAHO,
USP,,,FEDERAL,,,MULTIPLE
VOLUNEERS,927 NORTH PENNSYLVANIA STREET,INDIANAPOLIS,FEDERAL,46204,INDIANA,
WCCC,42-477 Kalaniana_ole Hwy,KAILua,HAWAII,96734,HAWAII,
WCF,94-560 Kamehameha Hwy,WAIPAHU,HAWAII,96797,HAWAII,
YCC,701 16th Ave SW,MANDAN,NORTH DAKOTA,58554,NORTH DAKOTA,